<?xml version="1.0" encoding="UTF-8"?>
<gpx version="1.1" creator="shape-route-poc" xmlns="http://www.topografix.com/GPX/1/1" xmlns:xsi="http://www.w3.org/2001/XMLSchema-instance" xsi:schemaLocation="http://www.topografix.com/GPX/1/1 http://www.topografix.com/GPX/1/1/gpx.xsd">
  <metadata>
    <name>月亮路線</name>
    <desc>crescent · 8.8 km · bike · shape distance 0.074</desc>
    <time>2026-09-12T09:09:31Z</time>
    <bounds minlat="25.0381522" minlon="121.5320657" maxlat="25.0551815" maxlon="121.5497070"/>
  </metadata>
  <rte>
    <name>月亮路線</name>
    <type>cycling</type>
    <rtept lat="25.0505573" lon="121.5320657"></rtept>
    <rtept lat="25.0505414" lon="121.5328392"></rtept>
    <rtept lat="25.0518480" lon="121.5328463"></rtept>
    <rtept lat="25.0518714" lon="121.5331964"></rtept>
    <rtept lat="25.0529201" lon="121.5332056"></rtept>
    <rtept lat="25.0529096" lon="121.5348136"></rtept>
    <rtept lat="25.0536344" lon="121.5348155"></rtept>
    <rtept lat="25.0536103" lon="121.5359486"></rtept>
    <rtept lat="25.0543078" lon="121.5359475"></rtept>
    <rtept lat="25.0542984" lon="121.5365079"></rtept>
    <rtept lat="25.0546231" lon="121.5365170"></rtept>
    <rtept lat="25.0546219" lon="121.5370863"></rtept>
    <rtept lat="25.0551369" lon="121.5370775"></rtept>
    <rtept lat="25.0549927" lon="121.5434950"></rtept>
    <rtept lat="25.0545792" lon="121.5434988"></rtept>
    <rtept lat="25.0545485" lon="121.5447837"></rtept>
    <rtept lat="25.0532960" lon="121.5447769"></rtept>
    <rtept lat="25.0532820" lon="121.5451930"></rtept>
    <rtept lat="25.0529001" lon="121.5457980"></rtept>
    <rtept lat="25.0528650" lon="121.5467371"></rtept>
    <rtept lat="25.0517224" lon="121.5467004"></rtept>
    <rtept lat="25.0515716" lon="121.5485529"></rtept>
    <rtept lat="25.0500502" lon="121.5486101"></rtept>
    <rtept lat="25.0499297" lon="121.5492736"></rtept>
    <rtept lat="25.0482032" lon="121.5493021"></rtept>
    <rtept lat="25.0481939" lon="121.5497070"></rtept>
    <rtept lat="25.0448759" lon="121.5496721"></rtept>
    <rtept lat="25.0449924" lon="121.5486457"></rtept>
    <rtept lat="25.0446937" lon="121.5486437"></rtept>
    <rtept lat="25.0446350" lon="121.5492228"></rtept>
    <rtept lat="25.0435302" lon="121.5492151"></rtept>
    <rtept lat="25.0435316" lon="121.5491302"></rtept>
    <rtept lat="25.0435302" lon="121.5492151"></rtept>
    <rtept lat="25.0427100" lon="121.5492135"></rtept>
    <rtept lat="25.0427041" lon="121.5486302"></rtept>
    <rtept lat="25.0417258" lon="121.5486180"></rtept>
    <rtept lat="25.0416972" lon="121.5484930"></rtept>
    <rtept lat="25.0413720" lon="121.5484880"></rtept>
    <rtept lat="25.0413867" lon="121.5472083"></rtept>
    <rtept lat="25.0397535" lon="121.5471740"></rtept>
    <rtept lat="25.0398035" lon="121.5452051"></rtept>
    <rtept lat="25.0381952" lon="121.5451719"></rtept>
    <rtept lat="25.0381886" lon="121.5419661"></rtept>
    <rtept lat="25.0383817" lon="121.5412680"></rtept>
    <rtept lat="25.0390778" lon="121.5412797"></rtept>
    <rtept lat="25.0390456" lon="121.5430173"></rtept>
    <rtept lat="25.0398362" lon="121.5430344"></rtept>
    <rtept lat="25.0398186" lon="121.5438038"></rtept>
    <rtept lat="25.0417850" lon="121.5439740"></rtept>
    <rtept lat="25.0417461" lon="121.5452602"></rtept>
    <rtept lat="25.0435961" lon="121.5453088"></rtept>
    <rtept lat="25.0435869" lon="121.5461909"></rtept>
    <rtept lat="25.0450000" lon="121.5462252"></rtept>
    <rtept lat="25.0452039" lon="121.5460253"></rtept>
    <rtept lat="25.0479644" lon="121.5459373"></rtept>
    <rtept lat="25.0482494" lon="121.5456834"></rtept>
    <rtept lat="25.0482600" lon="121.5437342"></rtept>
    <rtept lat="25.0499187" lon="121.5438400"></rtept>
    <rtept lat="25.0499286" lon="121.5434066"></rtept>
    <rtept lat="25.0516962" lon="121.5434484"></rtept>
    <rtept lat="25.0517287" lon="121.5420599"></rtept>
    <rtept lat="25.0514874" lon="121.5419941"></rtept>
    <rtept lat="25.0513056" lon="121.5416662"></rtept>
    <rtept lat="25.0512670" lon="121.5404456"></rtept>
    <rtept lat="25.0517272" lon="121.5404584"></rtept>
    <rtept lat="25.0517785" lon="121.5403012"></rtept>
    <rtept lat="25.0520793" lon="121.5403073"></rtept>
    <rtept lat="25.0521959" lon="121.5364705"></rtept>
    <rtept lat="25.0520786" lon="121.5363955"></rtept>
    <rtept lat="25.0520864" lon="121.5346929"></rtept>
    <rtept lat="25.0518588" lon="121.5346938"></rtept>
    <rtept lat="25.0518480" lon="121.5328463"></rtept>
    <rtept lat="25.0505414" lon="121.5328392"></rtept>
    <rtept lat="25.0505573" lon="121.5320657"></rtept>
  </rte>
  <trk>
    <name>月亮路線</name>
    <type>cycling</type>
    <trkseg>
      <trkpt lat="25.0505573" lon="121.5320657"></trkpt>
      <trkpt lat="25.0505414" lon="121.5328392"></trkpt>
      <trkpt lat="25.0505599" lon="121.5328385"></trkpt>
      <trkpt lat="25.0509761" lon="121.5328323"></trkpt>
      <trkpt lat="25.0509923" lon="121.5328321"></trkpt>
      <trkpt lat="25.0510229" lon="121.5328323"></trkpt>
      <trkpt lat="25.0513842" lon="121.5328352"></trkpt>
      <trkpt lat="25.0514080" lon="121.5328354"></trkpt>
      <trkpt lat="25.0514339" lon="121.5328360"></trkpt>
      <trkpt lat="25.0518480" lon="121.5328463"></trkpt>
      <trkpt lat="25.0518467" lon="121.5329333"></trkpt>
      <trkpt lat="25.0518457" lon="121.5330055"></trkpt>
      <trkpt lat="25.0518451" lon="121.5330343"></trkpt>
      <trkpt lat="25.0518439" lon="121.5330889"></trkpt>
      <trkpt lat="25.0518434" lon="121.5331670"></trkpt>
      <trkpt lat="25.0518714" lon="121.5331964"></trkpt>
      <trkpt lat="25.0519463" lon="121.5331964"></trkpt>
      <trkpt lat="25.0520323" lon="121.5331965"></trkpt>
      <trkpt lat="25.0520584" lon="121.5331965"></trkpt>
      <trkpt lat="25.0521140" lon="121.5331965"></trkpt>
      <trkpt lat="25.0521899" lon="121.5331993"></trkpt>
      <trkpt lat="25.0522227" lon="121.5331914"></trkpt>
      <trkpt lat="25.0523985" lon="121.5331946"></trkpt>
      <trkpt lat="25.0528434" lon="121.5332045"></trkpt>
      <trkpt lat="25.0528865" lon="121.5332055"></trkpt>
      <trkpt lat="25.0529201" lon="121.5332056"></trkpt>
      <trkpt lat="25.0529131" lon="121.5336224"></trkpt>
      <trkpt lat="25.0529111" lon="121.5343229"></trkpt>
      <trkpt lat="25.0529064" lon="121.5347285"></trkpt>
      <trkpt lat="25.0529096" lon="121.5348136"></trkpt>
      <trkpt lat="25.0532573" lon="121.5348145"></trkpt>
      <trkpt lat="25.0536344" lon="121.5348155"></trkpt>
      <trkpt lat="25.0536335" lon="121.5348789"></trkpt>
      <trkpt lat="25.0536103" lon="121.5359486"></trkpt>
      <trkpt lat="25.0539787" lon="121.5359474"></trkpt>
      <trkpt lat="25.0543078" lon="121.5359475"></trkpt>
      <trkpt lat="25.0542984" lon="121.5365079"></trkpt>
      <trkpt lat="25.0546231" lon="121.5365170"></trkpt>
      <trkpt lat="25.0546342" lon="121.5366183"></trkpt>
      <trkpt lat="25.0546290" lon="121.5366967"></trkpt>
      <trkpt lat="25.0546219" lon="121.5370863"></trkpt>
      <trkpt lat="25.0547341" lon="121.5370857"></trkpt>
      <trkpt lat="25.0548370" lon="121.5370836"></trkpt>
      <trkpt lat="25.0551369" lon="121.5370775"></trkpt>
      <trkpt lat="25.0551476" lon="121.5371710"></trkpt>
      <trkpt lat="25.0551718" lon="121.5373829"></trkpt>
      <trkpt lat="25.0551815" lon="121.5377819"></trkpt>
      <trkpt lat="25.0551298" lon="121.5385996"></trkpt>
      <trkpt lat="25.0551302" lon="121.5391016"></trkpt>
      <trkpt lat="25.0550908" lon="121.5405417"></trkpt>
      <trkpt lat="25.0550885" lon="121.5410105"></trkpt>
      <trkpt lat="25.0550440" lon="121.5421400"></trkpt>
      <trkpt lat="25.0549927" lon="121.5434950"></trkpt>
      <trkpt lat="25.0546725" lon="121.5434979"></trkpt>
      <trkpt lat="25.0545792" lon="121.5434988"></trkpt>
      <trkpt lat="25.0545802" lon="121.5439478"></trkpt>
      <trkpt lat="25.0545763" lon="121.5439802"></trkpt>
      <trkpt lat="25.0545731" lon="121.5440263"></trkpt>
      <trkpt lat="25.0545690" lon="121.5441700"></trkpt>
      <trkpt lat="25.0545649" lon="121.5443009"></trkpt>
      <trkpt lat="25.0545485" lon="121.5447837"></trkpt>
      <trkpt lat="25.0544626" lon="121.5447752"></trkpt>
      <trkpt lat="25.0538669" lon="121.5447630"></trkpt>
      <trkpt lat="25.0533421" lon="121.5447758"></trkpt>
      <trkpt lat="25.0532960" lon="121.5447769"></trkpt>
      <trkpt lat="25.0532856" lon="121.5450851"></trkpt>
      <trkpt lat="25.0532820" lon="121.5451930"></trkpt>
      <trkpt lat="25.0532295" lon="121.5452724"></trkpt>
      <trkpt lat="25.0529438" lon="121.5457041"></trkpt>
      <trkpt lat="25.0529001" lon="121.5457980"></trkpt>
      <trkpt lat="25.0528737" lon="121.5461151"></trkpt>
      <trkpt lat="25.0528705" lon="121.5463438"></trkpt>
      <trkpt lat="25.0528657" lon="121.5466877"></trkpt>
      <trkpt lat="25.0528650" lon="121.5467371"></trkpt>
      <trkpt lat="25.0524264" lon="121.5467304"></trkpt>
      <trkpt lat="25.0519617" lon="121.5467107"></trkpt>
      <trkpt lat="25.0519384" lon="121.5467097"></trkpt>
      <trkpt lat="25.0518639" lon="121.5467076"></trkpt>
      <trkpt lat="25.0517224" lon="121.5467004"></trkpt>
      <trkpt lat="25.0517125" lon="121.5471238"></trkpt>
      <trkpt lat="25.0516999" lon="121.5472055"></trkpt>
      <trkpt lat="25.0516905" lon="121.5474317"></trkpt>
      <trkpt lat="25.0516892" lon="121.5474651"></trkpt>
      <trkpt lat="25.0516856" lon="121.5475510"></trkpt>
      <trkpt lat="25.0516067" lon="121.5475508"></trkpt>
      <trkpt lat="25.0515938" lon="121.5479184"></trkpt>
      <trkpt lat="25.0515716" lon="121.5485529"></trkpt>
      <trkpt lat="25.0515598" lon="121.5485660"></trkpt>
      <trkpt lat="25.0515254" lon="121.5485841"></trkpt>
      <trkpt lat="25.0514776" lon="121.5486092"></trkpt>
      <trkpt lat="25.0514662" lon="121.5486152"></trkpt>
      <trkpt lat="25.0510191" lon="121.5486252"></trkpt>
      <trkpt lat="25.0509635" lon="121.5486264"></trkpt>
      <trkpt lat="25.0509273" lon="121.5486272"></trkpt>
      <trkpt lat="25.0506576" lon="121.5486232"></trkpt>
      <trkpt lat="25.0506227" lon="121.5486232"></trkpt>
      <trkpt lat="25.0505835" lon="121.5486232"></trkpt>
      <trkpt lat="25.0501419" lon="121.5486145"></trkpt>
      <trkpt lat="25.0501042" lon="121.5486123"></trkpt>
      <trkpt lat="25.0500714" lon="121.5486105"></trkpt>
      <trkpt lat="25.0500502" lon="121.5486101"></trkpt>
      <trkpt lat="25.0500434" lon="121.5486912"></trkpt>
      <trkpt lat="25.0500393" lon="121.5487593"></trkpt>
      <trkpt lat="25.0500332" lon="121.5488625"></trkpt>
      <trkpt lat="25.0500327" lon="121.5489507"></trkpt>
      <trkpt lat="25.0500301" lon="121.5490089"></trkpt>
      <trkpt lat="25.0500301" lon="121.5490671"></trkpt>
      <trkpt lat="25.0500167" lon="121.5490939"></trkpt>
      <trkpt lat="25.0499535" lon="121.5490946"></trkpt>
      <trkpt lat="25.0499305" lon="121.5491141"></trkpt>
      <trkpt lat="25.0499305" lon="121.5491395"></trkpt>
      <trkpt lat="25.0499304" lon="121.5491807"></trkpt>
      <trkpt lat="25.0499297" lon="121.5492736"></trkpt>
      <trkpt lat="25.0497525" lon="121.5492716"></trkpt>
      <trkpt lat="25.0496934" lon="121.5492704"></trkpt>
      <trkpt lat="25.0494807" lon="121.5492660"></trkpt>
      <trkpt lat="25.0484579" lon="121.5492448"></trkpt>
      <trkpt lat="25.0483544" lon="121.5492898"></trkpt>
      <trkpt lat="25.0483456" lon="121.5492941"></trkpt>
      <trkpt lat="25.0483236" lon="121.5493048"></trkpt>
      <trkpt lat="25.0482032" lon="121.5493021"></trkpt>
      <trkpt lat="25.0481959" lon="121.5494114"></trkpt>
      <trkpt lat="25.0481963" lon="121.5494750"></trkpt>
      <trkpt lat="25.0481939" lon="121.5497070"></trkpt>
      <trkpt lat="25.0481073" lon="121.5497065"></trkpt>
      <trkpt lat="25.0476111" lon="121.5497037"></trkpt>
      <trkpt lat="25.0471465" lon="121.5497003"></trkpt>
      <trkpt lat="25.0466153" lon="121.5496963"></trkpt>
      <trkpt lat="25.0461572" lon="121.5496900"></trkpt>
      <trkpt lat="25.0457679" lon="121.5496847"></trkpt>
      <trkpt lat="25.0455512" lon="121.5496807"></trkpt>
      <trkpt lat="25.0454660" lon="121.5496819"></trkpt>
      <trkpt lat="25.0453109" lon="121.5496841"></trkpt>
      <trkpt lat="25.0449163" lon="121.5496753"></trkpt>
      <trkpt lat="25.0448759" lon="121.5496721"></trkpt>
      <trkpt lat="25.0449118" lon="121.5493403"></trkpt>
      <trkpt lat="25.0449183" lon="121.5492802"></trkpt>
      <trkpt lat="25.0449241" lon="121.5492263"></trkpt>
      <trkpt lat="25.0449370" lon="121.5491411"></trkpt>
      <trkpt lat="25.0449620" lon="121.5489311"></trkpt>
      <trkpt lat="25.0449681" lon="121.5488856"></trkpt>
      <trkpt lat="25.0449924" lon="121.5486457"></trkpt>
      <trkpt lat="25.0447762" lon="121.5486443"></trkpt>
      <trkpt lat="25.0446937" lon="121.5486437"></trkpt>
      <trkpt lat="25.0446850" lon="121.5487211"></trkpt>
      <trkpt lat="25.0446762" lon="121.5487985"></trkpt>
      <trkpt lat="25.0446669" lon="121.5488810"></trkpt>
      <trkpt lat="25.0446587" lon="121.5489802"></trkpt>
      <trkpt lat="25.0446510" lon="121.5490585"></trkpt>
      <trkpt lat="25.0446432" lon="121.5491389"></trkpt>
      <trkpt lat="25.0446350" lon="121.5492228"></trkpt>
      <trkpt lat="25.0435742" lon="121.5492154"></trkpt>
      <trkpt lat="25.0435302" lon="121.5492151"></trkpt>
      <trkpt lat="25.0435316" lon="121.5491302"></trkpt>
      <trkpt lat="25.0435302" lon="121.5492151"></trkpt>
      <trkpt lat="25.0435050" lon="121.5492150"></trkpt>
      <trkpt lat="25.0434570" lon="121.5492149"></trkpt>
      <trkpt lat="25.0432849" lon="121.5492146"></trkpt>
      <trkpt lat="25.0431021" lon="121.5492143"></trkpt>
      <trkpt lat="25.0427100" lon="121.5492135"></trkpt>
      <trkpt lat="25.0427091" lon="121.5491258"></trkpt>
      <trkpt lat="25.0427069" lon="121.5489113"></trkpt>
      <trkpt lat="25.0427062" lon="121.5488710"></trkpt>
      <trkpt lat="25.0427041" lon="121.5486302"></trkpt>
      <trkpt lat="25.0426119" lon="121.5486299"></trkpt>
      <trkpt lat="25.0425104" lon="121.5486285"></trkpt>
      <trkpt lat="25.0418010" lon="121.5486187"></trkpt>
      <trkpt lat="25.0417638" lon="121.5486182"></trkpt>
      <trkpt lat="25.0417441" lon="121.5486181"></trkpt>
      <trkpt lat="25.0417258" lon="121.5486180"></trkpt>
      <trkpt lat="25.0417286" lon="121.5485273"></trkpt>
      <trkpt lat="25.0416972" lon="121.5484930"></trkpt>
      <trkpt lat="25.0416041" lon="121.5484900"></trkpt>
      <trkpt lat="25.0414689" lon="121.5484885"></trkpt>
      <trkpt lat="25.0413720" lon="121.5484880"></trkpt>
      <trkpt lat="25.0413861" lon="121.5472782"></trkpt>
      <trkpt lat="25.0413864" lon="121.5472392"></trkpt>
      <trkpt lat="25.0413867" lon="121.5472083"></trkpt>
      <trkpt lat="25.0409639" lon="121.5471994"></trkpt>
      <trkpt lat="25.0405694" lon="121.5471911"></trkpt>
      <trkpt lat="25.0401691" lon="121.5471827"></trkpt>
      <trkpt lat="25.0397535" lon="121.5471740"></trkpt>
      <trkpt lat="25.0397894" lon="121.5461549"></trkpt>
      <trkpt lat="25.0397916" lon="121.5460800"></trkpt>
      <trkpt lat="25.0397927" lon="121.5459997"></trkpt>
      <trkpt lat="25.0398027" lon="121.5452672"></trkpt>
      <trkpt lat="25.0398035" lon="121.5452051"></trkpt>
      <trkpt lat="25.0397446" lon="121.5452039"></trkpt>
      <trkpt lat="25.0393790" lon="121.5451964"></trkpt>
      <trkpt lat="25.0390143" lon="121.5451888"></trkpt>
      <trkpt lat="25.0386195" lon="121.5451807"></trkpt>
      <trkpt lat="25.0381952" lon="121.5451719"></trkpt>
      <trkpt lat="25.0381963" lon="121.5451229"></trkpt>
      <trkpt lat="25.0382111" lon="121.5444147"></trkpt>
      <trkpt lat="25.0382120" lon="121.5443730"></trkpt>
      <trkpt lat="25.0382129" lon="121.5443329"></trkpt>
      <trkpt lat="25.0382223" lon="121.5438743"></trkpt>
      <trkpt lat="25.0381522" lon="121.5438727"></trkpt>
      <trkpt lat="25.0381548" lon="121.5437649"></trkpt>
      <trkpt lat="25.0381580" lon="121.5436314"></trkpt>
      <trkpt lat="25.0381605" lon="121.5435289"></trkpt>
      <trkpt lat="25.0381613" lon="121.5434771"></trkpt>
      <trkpt lat="25.0381713" lon="121.5430013"></trkpt>
      <trkpt lat="25.0381886" lon="121.5419661"></trkpt>
      <trkpt lat="25.0383123" lon="121.5415345"></trkpt>
      <trkpt lat="25.0383817" lon="121.5412680"></trkpt>
      <trkpt lat="25.0384613" lon="121.5412693"></trkpt>
      <trkpt lat="25.0386114" lon="121.5412719"></trkpt>
      <trkpt lat="25.0390778" lon="121.5412797"></trkpt>
      <trkpt lat="25.0390770" lon="121.5413310"></trkpt>
      <trkpt lat="25.0390673" lon="121.5419837"></trkpt>
      <trkpt lat="25.0390456" lon="121.5430173"></trkpt>
      <trkpt lat="25.0394413" lon="121.5430259"></trkpt>
      <trkpt lat="25.0398362" lon="121.5430344"></trkpt>
      <trkpt lat="25.0398244" lon="121.5435501"></trkpt>
      <trkpt lat="25.0398239" lon="121.5435739"></trkpt>
      <trkpt lat="25.0398213" lon="121.5436858"></trkpt>
      <trkpt lat="25.0398186" lon="121.5438038"></trkpt>
      <trkpt lat="25.0398860" lon="121.5438051"></trkpt>
      <trkpt lat="25.0408272" lon="121.5438236"></trkpt>
      <trkpt lat="25.0408479" lon="121.5439288"></trkpt>
      <trkpt lat="25.0411348" lon="121.5439390"></trkpt>
      <trkpt lat="25.0413728" lon="121.5439464"></trkpt>
      <trkpt lat="25.0414298" lon="121.5439469"></trkpt>
      <trkpt lat="25.0414516" lon="121.5439669"></trkpt>
      <trkpt lat="25.0415533" lon="121.5439714"></trkpt>
      <trkpt lat="25.0416782" lon="121.5439715"></trkpt>
      <trkpt lat="25.0417850" lon="121.5439740"></trkpt>
      <trkpt lat="25.0417770" lon="121.5444550"></trkpt>
      <trkpt lat="25.0417723" lon="121.5447883"></trkpt>
      <trkpt lat="25.0417894" lon="121.5448634"></trkpt>
      <trkpt lat="25.0417865" lon="121.5450375"></trkpt>
      <trkpt lat="25.0417553" lon="121.5451022"></trkpt>
      <trkpt lat="25.0417461" lon="121.5452602"></trkpt>
      <trkpt lat="25.0424175" lon="121.5452786"></trkpt>
      <trkpt lat="25.0425746" lon="121.5453077"></trkpt>
      <trkpt lat="25.0431134" lon="121.5452986"></trkpt>
      <trkpt lat="25.0435961" lon="121.5453088"></trkpt>
      <trkpt lat="25.0435869" lon="121.5461909"></trkpt>
      <trkpt lat="25.0440097" lon="121.5461976"></trkpt>
      <trkpt lat="25.0442576" lon="121.5462084"></trkpt>
      <trkpt lat="25.0443785" lon="121.5462144"></trkpt>
      <trkpt lat="25.0444496" lon="121.5462164"></trkpt>
      <trkpt lat="25.0449204" lon="121.5462215"></trkpt>
      <trkpt lat="25.0450000" lon="121.5462252"></trkpt>
      <trkpt lat="25.0450706" lon="121.5460873"></trkpt>
      <trkpt lat="25.0452039" lon="121.5460253"></trkpt>
      <trkpt lat="25.0452412" lon="121.5460246"></trkpt>
      <trkpt lat="25.0457452" lon="121.5460181"></trkpt>
      <trkpt lat="25.0461082" lon="121.5460117"></trkpt>
      <trkpt lat="25.0463715" lon="121.5460028"></trkpt>
      <trkpt lat="25.0464396" lon="121.5460015"></trkpt>
      <trkpt lat="25.0467540" lon="121.5459927"></trkpt>
      <trkpt lat="25.0471355" lon="121.5459834"></trkpt>
      <trkpt lat="25.0475012" lon="121.5459800"></trkpt>
      <trkpt lat="25.0478835" lon="121.5459634"></trkpt>
      <trkpt lat="25.0479206" lon="121.5459514"></trkpt>
      <trkpt lat="25.0479644" lon="121.5459373"></trkpt>
      <trkpt lat="25.0480466" lon="121.5458956"></trkpt>
      <trkpt lat="25.0482494" lon="121.5456834"></trkpt>
      <trkpt lat="25.0482521" lon="121.5456478"></trkpt>
      <trkpt lat="25.0482515" lon="121.5455757"></trkpt>
      <trkpt lat="25.0482510" lon="121.5455127"></trkpt>
      <trkpt lat="25.0482441" lon="121.5446447"></trkpt>
      <trkpt lat="25.0482498" lon="121.5442660"></trkpt>
      <trkpt lat="25.0482518" lon="121.5441649"></trkpt>
      <trkpt lat="25.0482545" lon="121.5440173"></trkpt>
      <trkpt lat="25.0482567" lon="121.5438797"></trkpt>
      <trkpt lat="25.0482600" lon="121.5437342"></trkpt>
      <trkpt lat="25.0483419" lon="121.5437374"></trkpt>
      <trkpt lat="25.0483705" lon="121.5437991"></trkpt>
      <trkpt lat="25.0491215" lon="121.5438184"></trkpt>
      <trkpt lat="25.0498651" lon="121.5438386"></trkpt>
      <trkpt lat="25.0499187" lon="121.5438400"></trkpt>
      <trkpt lat="25.0499192" lon="121.5438168"></trkpt>
      <trkpt lat="25.0499286" lon="121.5434066"></trkpt>
      <trkpt lat="25.0503840" lon="121.5434174"></trkpt>
      <trkpt lat="25.0507121" lon="121.5434252"></trkpt>
      <trkpt lat="25.0511270" lon="121.5434351"></trkpt>
      <trkpt lat="25.0513874" lon="121.5434413"></trkpt>
      <trkpt lat="25.0516962" lon="121.5434484"></trkpt>
      <trkpt lat="25.0517043" lon="121.5431016"></trkpt>
      <trkpt lat="25.0517123" lon="121.5427917"></trkpt>
      <trkpt lat="25.0517256" lon="121.5421448"></trkpt>
      <trkpt lat="25.0517287" lon="121.5420599"></trkpt>
      <trkpt lat="25.0517145" lon="121.5420592"></trkpt>
      <trkpt lat="25.0516041" lon="121.5420538"></trkpt>
      <trkpt lat="25.0515344" lon="121.5420350"></trkpt>
      <trkpt lat="25.0514874" lon="121.5419941"></trkpt>
      <trkpt lat="25.0513056" lon="121.5416662"></trkpt>
      <trkpt lat="25.0513014" lon="121.5414932"></trkpt>
      <trkpt lat="25.0512670" lon="121.5404456"></trkpt>
      <trkpt lat="25.0517272" lon="121.5404584"></trkpt>
      <trkpt lat="25.0517302" lon="121.5403924"></trkpt>
      <trkpt lat="25.0517785" lon="121.5403012"></trkpt>
      <trkpt lat="25.0518461" lon="121.5403023"></trkpt>
      <trkpt lat="25.0519038" lon="121.5403035"></trkpt>
      <trkpt lat="25.0519319" lon="121.5403043"></trkpt>
      <trkpt lat="25.0520081" lon="121.5403053"></trkpt>
      <trkpt lat="25.0520793" lon="121.5403073"></trkpt>
      <trkpt lat="25.0520952" lon="121.5397601"></trkpt>
      <trkpt lat="25.0521180" lon="121.5388240"></trkpt>
      <trkpt lat="25.0521435" lon="121.5379912"></trkpt>
      <trkpt lat="25.0521651" lon="121.5371969"></trkpt>
      <trkpt lat="25.0521670" lon="121.5371223"></trkpt>
      <trkpt lat="25.0521672" lon="121.5370274"></trkpt>
      <trkpt lat="25.0521673" lon="121.5368932"></trkpt>
      <trkpt lat="25.0521745" lon="121.5368557"></trkpt>
      <trkpt lat="25.0521818" lon="121.5366941"></trkpt>
      <trkpt lat="25.0521932" lon="121.5366559"></trkpt>
      <trkpt lat="25.0521950" lon="121.5365444"></trkpt>
      <trkpt lat="25.0521959" lon="121.5364705"></trkpt>
      <trkpt lat="25.0521499" lon="121.5363958"></trkpt>
      <trkpt lat="25.0520786" lon="121.5363955"></trkpt>
      <trkpt lat="25.0520864" lon="121.5354381"></trkpt>
      <trkpt lat="25.0520883" lon="121.5348979"></trkpt>
      <trkpt lat="25.0520875" lon="121.5347941"></trkpt>
      <trkpt lat="25.0520864" lon="121.5346929"></trkpt>
      <trkpt lat="25.0519561" lon="121.5346934"></trkpt>
      <trkpt lat="25.0518588" lon="121.5346938"></trkpt>
      <trkpt lat="25.0518655" lon="121.5338113"></trkpt>
      <trkpt lat="25.0518714" lon="121.5331964"></trkpt>
      <trkpt lat="25.0518434" lon="121.5331670"></trkpt>
      <trkpt lat="25.0518439" lon="121.5330889"></trkpt>
      <trkpt lat="25.0518451" lon="121.5330343"></trkpt>
      <trkpt lat="25.0518457" lon="121.5330055"></trkpt>
      <trkpt lat="25.0518467" lon="121.5329333"></trkpt>
      <trkpt lat="25.0518480" lon="121.5328463"></trkpt>
      <trkpt lat="25.0514339" lon="121.5328360"></trkpt>
      <trkpt lat="25.0514080" lon="121.5328354"></trkpt>
      <trkpt lat="25.0513842" lon="121.5328352"></trkpt>
      <trkpt lat="25.0510229" lon="121.5328323"></trkpt>
      <trkpt lat="25.0509923" lon="121.5328321"></trkpt>
      <trkpt lat="25.0509761" lon="121.5328323"></trkpt>
      <trkpt lat="25.0505599" lon="121.5328385"></trkpt>
      <trkpt lat="25.0505414" lon="121.5328392"></trkpt>
      <trkpt lat="25.0505573" lon="121.5320657"></trkpt>
    </trkseg>
  </trk>
</gpx>
