<?xml version="1.0" encoding="UTF-8"?>
<gpx version="1.1" creator="shape-route-poc" xmlns="http://www.topografix.com/GPX/1/1" xmlns:xsi="http://www.w3.org/2001/XMLSchema-instance" xsi:schemaLocation="http://www.topografix.com/GPX/1/1 http://www.topografix.com/GPX/1/1/gpx.xsd">
  <metadata>
    <name>愛心路線</name>
    <desc>heart · 10.9 km · bike · shape distance 0.077</desc>
    <time>2026-09-11T17:44:28Z</time>
    <bounds minlat="25.0215084" minlon="121.5222904" maxlat="25.0431382" maxlon="121.5471827"/>
  </metadata>
  <rte>
    <name>愛心路線</name>
    <type>cycling</type>
    <rtept lat="25.0353303" lon="121.5346800"></rtept>
    <rtept lat="25.0353465" lon="121.5335498"></rtept>
    <rtept lat="25.0366082" lon="121.5335671"></rtept>
    <rtept lat="25.0366291" lon="121.5329779"></rtept>
    <rtept lat="25.0384120" lon="121.5330171"></rtept>
    <rtept lat="25.0383939" lon="121.5337927"></rtept>
    <rtept lat="25.0385640" lon="121.5344940"></rtept>
    <rtept lat="25.0384981" lon="121.5348216"></rtept>
    <rtept lat="25.0401574" lon="121.5348458"></rtept>
    <rtept lat="25.0401473" lon="121.5356884"></rtept>
    <rtept lat="25.0417394" lon="121.5357020"></rtept>
    <rtept lat="25.0416186" lon="121.5365995"></rtept>
    <rtept lat="25.0419575" lon="121.5366408"></rtept>
    <rtept lat="25.0418372" lon="121.5397101"></rtept>
    <rtept lat="25.0428335" lon="121.5397193"></rtept>
    <rtept lat="25.0428283" lon="121.5407048"></rtept>
    <rtept lat="25.0429926" lon="121.5407068"></rtept>
    <rtept lat="25.0429696" lon="121.5425161"></rtept>
    <rtept lat="25.0431382" lon="121.5424506"></rtept>
    <rtept lat="25.0430953" lon="121.5434545"></rtept>
    <rtept lat="25.0427933" lon="121.5437347"></rtept>
    <rtept lat="25.0418448" lon="121.5437125"></rtept>
    <rtept lat="25.0418431" lon="121.5439632"></rtept>
    <rtept lat="25.0414516" lon="121.5439669"></rtept>
    <rtept lat="25.0414240" lon="121.5452386"></rtept>
    <rtept lat="25.0402116" lon="121.5452136"></rtept>
    <rtept lat="25.0401691" lon="121.5471827"></rtept>
    <rtept lat="25.0381546" lon="121.5471066"></rtept>
    <rtept lat="25.0381065" lon="121.5460434"></rtept>
    <rtept lat="25.0335122" lon="121.5459773"></rtept>
    <rtept lat="25.0334897" lon="121.5461188"></rtept>
    <rtept lat="25.0331626" lon="121.5461160"></rtept>
    <rtept lat="25.0331474" lon="121.5459747"></rtept>
    <rtept lat="25.0310276" lon="121.5460621"></rtept>
    <rtept lat="25.0310276" lon="121.5451291"></rtept>
    <rtept lat="25.0291651" lon="121.5450862"></rtept>
    <rtept lat="25.0291509" lon="121.5445780"></rtept>
    <rtept lat="25.0283596" lon="121.5445615"></rtept>
    <rtept lat="25.0283833" lon="121.5440951"></rtept>
    <rtept lat="25.0265370" lon="121.5440431"></rtept>
    <rtept lat="25.0265125" lon="121.5433991"></rtept>
    <rtept lat="25.0215084" lon="121.5432065"></rtept>
    <rtept lat="25.0215176" lon="121.5428122"></rtept>
    <rtept lat="25.0229905" lon="121.5428467"></rtept>
    <rtept lat="25.0231291" lon="121.5411129"></rtept>
    <rtept lat="25.0233126" lon="121.5411172"></rtept>
    <rtept lat="25.0225726" lon="121.5406293"></rtept>
    <rtept lat="25.0233351" lon="121.5394629"></rtept>
    <rtept lat="25.0247264" lon="121.5396712"></rtept>
    <rtept lat="25.0249649" lon="121.5378957"></rtept>
    <rtept lat="25.0249602" lon="121.5349195"></rtept>
    <rtept lat="25.0239429" lon="121.5348053"></rtept>
    <rtept lat="25.0241437" lon="121.5333917"></rtept>
    <rtept lat="25.0251888" lon="121.5335114"></rtept>
    <rtept lat="25.0254872" lon="121.5309539"></rtept>
    <rtept lat="25.0254369" lon="121.5305070"></rtept>
    <rtept lat="25.0262775" lon="121.5304386"></rtept>
    <rtept lat="25.0265169" lon="121.5274813"></rtept>
    <rtept lat="25.0267541" lon="121.5275035"></rtept>
    <rtept lat="25.0269808" lon="121.5255570"></rtept>
    <rtept lat="25.0280906" lon="121.5255434"></rtept>
    <rtept lat="25.0281006" lon="121.5251558"></rtept>
    <rtept lat="25.0284264" lon="121.5252094"></rtept>
    <rtept lat="25.0285640" lon="121.5242374"></rtept>
    <rtept lat="25.0292166" lon="121.5242738"></rtept>
    <rtept lat="25.0292549" lon="121.5240298"></rtept>
    <rtept lat="25.0300258" lon="121.5241863"></rtept>
    <rtept lat="25.0301899" lon="121.5231429"></rtept>
    <rtept lat="25.0307064" lon="121.5232480"></rtept>
    <rtept lat="25.0308874" lon="121.5222904"></rtept>
    <rtept lat="25.0324039" lon="121.5225741"></rtept>
    <rtept lat="25.0339213" lon="121.5234716"></rtept>
    <rtept lat="25.0335225" lon="121.5241858"></rtept>
    <rtept lat="25.0344292" lon="121.5247164"></rtept>
    <rtept lat="25.0349826" lon="121.5249096"></rtept>
    <rtept lat="25.0352739" lon="121.5242732"></rtept>
    <rtept lat="25.0362032" lon="121.5245904"></rtept>
    <rtept lat="25.0356428" lon="121.5269681"></rtept>
    <rtept lat="25.0363061" lon="121.5271609"></rtept>
    <rtept lat="25.0362075" lon="121.5275746"></rtept>
    <rtept lat="25.0380585" lon="121.5281130"></rtept>
    <rtept lat="25.0380570" lon="121.5283938"></rtept>
    <rtept lat="25.0378024" lon="121.5283196"></rtept>
    <rtept lat="25.0374984" lon="121.5312220"></rtept>
    <rtept lat="25.0370380" lon="121.5318846"></rtept>
    <rtept lat="25.0366291" lon="121.5329779"></rtept>
    <rtept lat="25.0365903" lon="121.5341776"></rtept>
    <rtept lat="25.0362473" lon="121.5341745"></rtept>
    <rtept lat="25.0362335" lon="121.5347643"></rtept>
    <rtept lat="25.0353303" lon="121.5346800"></rtept>
  </rte>
  <trk>
    <name>愛心路線</name>
    <type>cycling</type>
    <trkseg>
      <trkpt lat="25.0353303" lon="121.5346800"></trkpt>
      <trkpt lat="25.0353465" lon="121.5335498"></trkpt>
      <trkpt lat="25.0357549" lon="121.5335565"></trkpt>
      <trkpt lat="25.0361629" lon="121.5335645"></trkpt>
      <trkpt lat="25.0366082" lon="121.5335671"></trkpt>
      <trkpt lat="25.0366291" lon="121.5329779"></trkpt>
      <trkpt lat="25.0366881" lon="121.5329772"></trkpt>
      <trkpt lat="25.0368260" lon="121.5329765"></trkpt>
      <trkpt lat="25.0370198" lon="121.5329750"></trkpt>
      <trkpt lat="25.0374198" lon="121.5329799"></trkpt>
      <trkpt lat="25.0378907" lon="121.5329821"></trkpt>
      <trkpt lat="25.0379208" lon="121.5330121"></trkpt>
      <trkpt lat="25.0379874" lon="121.5330131"></trkpt>
      <trkpt lat="25.0380755" lon="121.5330138"></trkpt>
      <trkpt lat="25.0381100" lon="121.5330140"></trkpt>
      <trkpt lat="25.0382091" lon="121.5330150"></trkpt>
      <trkpt lat="25.0382459" lon="121.5330154"></trkpt>
      <trkpt lat="25.0382754" lon="121.5330157"></trkpt>
      <trkpt lat="25.0383526" lon="121.5330165"></trkpt>
      <trkpt lat="25.0384120" lon="121.5330171"></trkpt>
      <trkpt lat="25.0384056" lon="121.5334079"></trkpt>
      <trkpt lat="25.0384054" lon="121.5334198"></trkpt>
      <trkpt lat="25.0383939" lon="121.5337927"></trkpt>
      <trkpt lat="25.0385640" lon="121.5344940"></trkpt>
      <trkpt lat="25.0385635" lon="121.5346151"></trkpt>
      <trkpt lat="25.0385628" lon="121.5348226"></trkpt>
      <trkpt lat="25.0384981" lon="121.5348216"></trkpt>
      <trkpt lat="25.0385628" lon="121.5348226"></trkpt>
      <trkpt lat="25.0389716" lon="121.5348316"></trkpt>
      <trkpt lat="25.0392834" lon="121.5348333"></trkpt>
      <trkpt lat="25.0393564" lon="121.5348367"></trkpt>
      <trkpt lat="25.0396358" lon="121.5348495"></trkpt>
      <trkpt lat="25.0397225" lon="121.5348485"></trkpt>
      <trkpt lat="25.0398296" lon="121.5348473"></trkpt>
      <trkpt lat="25.0401574" lon="121.5348458"></trkpt>
      <trkpt lat="25.0401473" lon="121.5356884"></trkpt>
      <trkpt lat="25.0404411" lon="121.5356945"></trkpt>
      <trkpt lat="25.0406527" lon="121.5356977"></trkpt>
      <trkpt lat="25.0411574" lon="121.5356647"></trkpt>
      <trkpt lat="25.0414861" lon="121.5356525"></trkpt>
      <trkpt lat="25.0417394" lon="121.5357020"></trkpt>
      <trkpt lat="25.0416186" lon="121.5365995"></trkpt>
      <trkpt lat="25.0417036" lon="121.5366055"></trkpt>
      <trkpt lat="25.0418489" lon="121.5366156"></trkpt>
      <trkpt lat="25.0419256" lon="121.5366210"></trkpt>
      <trkpt lat="25.0419575" lon="121.5366408"></trkpt>
      <trkpt lat="25.0419482" lon="121.5367278"></trkpt>
      <trkpt lat="25.0419347" lon="121.5368542"></trkpt>
      <trkpt lat="25.0418981" lon="121.5371971"></trkpt>
      <trkpt lat="25.0418876" lon="121.5372961"></trkpt>
      <trkpt lat="25.0418790" lon="121.5373764"></trkpt>
      <trkpt lat="25.0418647" lon="121.5373955"></trkpt>
      <trkpt lat="25.0418646" lon="121.5374727"></trkpt>
      <trkpt lat="25.0418592" lon="121.5379185"></trkpt>
      <trkpt lat="25.0418501" lon="121.5386562"></trkpt>
      <trkpt lat="25.0418496" lon="121.5387005"></trkpt>
      <trkpt lat="25.0418380" lon="121.5396395"></trkpt>
      <trkpt lat="25.0418372" lon="121.5397101"></trkpt>
      <trkpt lat="25.0420621" lon="121.5397125"></trkpt>
      <trkpt lat="25.0423273" lon="121.5397178"></trkpt>
      <trkpt lat="25.0425883" lon="121.5397183"></trkpt>
      <trkpt lat="25.0428335" lon="121.5397193"></trkpt>
      <trkpt lat="25.0428283" lon="121.5407048"></trkpt>
      <trkpt lat="25.0429926" lon="121.5407068"></trkpt>
      <trkpt lat="25.0429796" lon="121.5416517"></trkpt>
      <trkpt lat="25.0429708" lon="121.5424108"></trkpt>
      <trkpt lat="25.0429696" lon="121.5425161"></trkpt>
      <trkpt lat="25.0430411" lon="121.5424884"></trkpt>
      <trkpt lat="25.0431382" lon="121.5424506"></trkpt>
      <trkpt lat="25.0431146" lon="121.5424917"></trkpt>
      <trkpt lat="25.0430961" lon="121.5430575"></trkpt>
      <trkpt lat="25.0430955" lon="121.5433437"></trkpt>
      <trkpt lat="25.0430953" lon="121.5434545"></trkpt>
      <trkpt lat="25.0429477" lon="121.5435903"></trkpt>
      <trkpt lat="25.0428999" lon="121.5436342"></trkpt>
      <trkpt lat="25.0428602" lon="121.5436643"></trkpt>
      <trkpt lat="25.0427933" lon="121.5437347"></trkpt>
      <trkpt lat="25.0422993" lon="121.5437210"></trkpt>
      <trkpt lat="25.0418448" lon="121.5437125"></trkpt>
      <trkpt lat="25.0418438" lon="121.5438436"></trkpt>
      <trkpt lat="25.0418431" lon="121.5439632"></trkpt>
      <trkpt lat="25.0417850" lon="121.5439740"></trkpt>
      <trkpt lat="25.0416782" lon="121.5439715"></trkpt>
      <trkpt lat="25.0415533" lon="121.5439714"></trkpt>
      <trkpt lat="25.0414516" lon="121.5439669"></trkpt>
      <trkpt lat="25.0414434" lon="121.5444480"></trkpt>
      <trkpt lat="25.0414412" lon="121.5446564"></trkpt>
      <trkpt lat="25.0414273" lon="121.5451284"></trkpt>
      <trkpt lat="25.0414240" lon="121.5452386"></trkpt>
      <trkpt lat="25.0410014" lon="121.5452299"></trkpt>
      <trkpt lat="25.0406063" lon="121.5452217"></trkpt>
      <trkpt lat="25.0402116" lon="121.5452136"></trkpt>
      <trkpt lat="25.0401878" lon="121.5460886"></trkpt>
      <trkpt lat="25.0401691" lon="121.5471827"></trkpt>
      <trkpt lat="25.0397535" lon="121.5471740"></trkpt>
      <trkpt lat="25.0393495" lon="121.5471337"></trkpt>
      <trkpt lat="25.0389645" lon="121.5471250"></trkpt>
      <trkpt lat="25.0385877" lon="121.5471164"></trkpt>
      <trkpt lat="25.0381546" lon="121.5471066"></trkpt>
      <trkpt lat="25.0381555" lon="121.5470653"></trkpt>
      <trkpt lat="25.0381617" lon="121.5465536"></trkpt>
      <trkpt lat="25.0380957" lon="121.5465524"></trkpt>
      <trkpt lat="25.0381032" lon="121.5461544"></trkpt>
      <trkpt lat="25.0381065" lon="121.5460434"></trkpt>
      <trkpt lat="25.0380079" lon="121.5460420"></trkpt>
      <trkpt lat="25.0379854" lon="121.5460417"></trkpt>
      <trkpt lat="25.0378690" lon="121.5460393"></trkpt>
      <trkpt lat="25.0378366" lon="121.5460390"></trkpt>
      <trkpt lat="25.0377413" lon="121.5460382"></trkpt>
      <trkpt lat="25.0376373" lon="121.5460372"></trkpt>
      <trkpt lat="25.0372178" lon="121.5460290"></trkpt>
      <trkpt lat="25.0370695" lon="121.5460286"></trkpt>
      <trkpt lat="25.0368091" lon="121.5460249"></trkpt>
      <trkpt lat="25.0367760" lon="121.5460245"></trkpt>
      <trkpt lat="25.0364382" lon="121.5460196"></trkpt>
      <trkpt lat="25.0361057" lon="121.5460148"></trkpt>
      <trkpt lat="25.0360340" lon="121.5460138"></trkpt>
      <trkpt lat="25.0359486" lon="121.5460126"></trkpt>
      <trkpt lat="25.0355853" lon="121.5460075"></trkpt>
      <trkpt lat="25.0351243" lon="121.5460009"></trkpt>
      <trkpt lat="25.0347122" lon="121.5459950"></trkpt>
      <trkpt lat="25.0342888" lon="121.5459890"></trkpt>
      <trkpt lat="25.0339364" lon="121.5459840"></trkpt>
      <trkpt lat="25.0335122" lon="121.5459773"></trkpt>
      <trkpt lat="25.0335119" lon="121.5460279"></trkpt>
      <trkpt lat="25.0334910" lon="121.5460624"></trkpt>
      <trkpt lat="25.0334897" lon="121.5461188"></trkpt>
      <trkpt lat="25.0334174" lon="121.5461182"></trkpt>
      <trkpt lat="25.0333604" lon="121.5461177"></trkpt>
      <trkpt lat="25.0333200" lon="121.5461174"></trkpt>
      <trkpt lat="25.0332468" lon="121.5461167"></trkpt>
      <trkpt lat="25.0331626" lon="121.5461160"></trkpt>
      <trkpt lat="25.0331462" lon="121.5460326"></trkpt>
      <trkpt lat="25.0331474" lon="121.5459747"></trkpt>
      <trkpt lat="25.0329236" lon="121.5459787"></trkpt>
      <trkpt lat="25.0326983" lon="121.5459917"></trkpt>
      <trkpt lat="25.0324374" lon="121.5460037"></trkpt>
      <trkpt lat="25.0323492" lon="121.5460045"></trkpt>
      <trkpt lat="25.0320681" lon="121.5460207"></trkpt>
      <trkpt lat="25.0317242" lon="121.5460363"></trkpt>
      <trkpt lat="25.0316202" lon="121.5460400"></trkpt>
      <trkpt lat="25.0312972" lon="121.5460540"></trkpt>
      <trkpt lat="25.0310276" lon="121.5460621"></trkpt>
      <trkpt lat="25.0310276" lon="121.5451291"></trkpt>
      <trkpt lat="25.0306247" lon="121.5451134"></trkpt>
      <trkpt lat="25.0302748" lon="121.5451024"></trkpt>
      <trkpt lat="25.0299502" lon="121.5451004"></trkpt>
      <trkpt lat="25.0295560" lon="121.5450975"></trkpt>
      <trkpt lat="25.0291651" lon="121.5450862"></trkpt>
      <trkpt lat="25.0291509" lon="121.5445780"></trkpt>
      <trkpt lat="25.0289329" lon="121.5445847"></trkpt>
      <trkpt lat="25.0288376" lon="121.5445876"></trkpt>
      <trkpt lat="25.0287743" lon="121.5445863"></trkpt>
      <trkpt lat="25.0286708" lon="121.5445777"></trkpt>
      <trkpt lat="25.0286199" lon="121.5445746"></trkpt>
      <trkpt lat="25.0283596" lon="121.5445615"></trkpt>
      <trkpt lat="25.0283833" lon="121.5440951"></trkpt>
      <trkpt lat="25.0280923" lon="121.5440866"></trkpt>
      <trkpt lat="25.0277210" lon="121.5440743"></trkpt>
      <trkpt lat="25.0273319" lon="121.5440638"></trkpt>
      <trkpt lat="25.0272247" lon="121.5440609"></trkpt>
      <trkpt lat="25.0271401" lon="121.5440587"></trkpt>
      <trkpt lat="25.0265370" lon="121.5440431"></trkpt>
      <trkpt lat="25.0265386" lon="121.5436330"></trkpt>
      <trkpt lat="25.0265374" lon="121.5435291"></trkpt>
      <trkpt lat="25.0265125" lon="121.5433991"></trkpt>
      <trkpt lat="25.0264820" lon="121.5433984"></trkpt>
      <trkpt lat="25.0260599" lon="121.5433874"></trkpt>
      <trkpt lat="25.0255586" lon="121.5433743"></trkpt>
      <trkpt lat="25.0250524" lon="121.5433619"></trkpt>
      <trkpt lat="25.0249585" lon="121.5433612"></trkpt>
      <trkpt lat="25.0248300" lon="121.5433642"></trkpt>
      <trkpt lat="25.0247247" lon="121.5433637"></trkpt>
      <trkpt lat="25.0247276" lon="121.5432796"></trkpt>
      <trkpt lat="25.0245362" lon="121.5432768"></trkpt>
      <trkpt lat="25.0241052" lon="121.5432705"></trkpt>
      <trkpt lat="25.0236056" lon="121.5432632"></trkpt>
      <trkpt lat="25.0235335" lon="121.5432615"></trkpt>
      <trkpt lat="25.0227172" lon="121.5432433"></trkpt>
      <trkpt lat="25.0226695" lon="121.5432422"></trkpt>
      <trkpt lat="25.0215914" lon="121.5432219"></trkpt>
      <trkpt lat="25.0215820" lon="121.5432081"></trkpt>
      <trkpt lat="25.0215084" lon="121.5432065"></trkpt>
      <trkpt lat="25.0215176" lon="121.5428122"></trkpt>
      <trkpt lat="25.0215896" lon="121.5428139"></trkpt>
      <trkpt lat="25.0217711" lon="121.5428181"></trkpt>
      <trkpt lat="25.0219888" lon="121.5428232"></trkpt>
      <trkpt lat="25.0223349" lon="121.5428313"></trkpt>
      <trkpt lat="25.0226799" lon="121.5428394"></trkpt>
      <trkpt lat="25.0229905" lon="121.5428467"></trkpt>
      <trkpt lat="25.0231244" lon="121.5411650"></trkpt>
      <trkpt lat="25.0231291" lon="121.5411129"></trkpt>
      <trkpt lat="25.0233126" lon="121.5411172"></trkpt>
      <trkpt lat="25.0231271" lon="121.5409868"></trkpt>
      <trkpt lat="25.0228725" lon="121.5408231"></trkpt>
      <trkpt lat="25.0228382" lon="121.5407998"></trkpt>
      <trkpt lat="25.0226077" lon="121.5406560"></trkpt>
      <trkpt lat="25.0225726" lon="121.5406293"></trkpt>
      <trkpt lat="25.0226102" lon="121.5405632"></trkpt>
      <trkpt lat="25.0232815" lon="121.5395441"></trkpt>
      <trkpt lat="25.0233351" lon="121.5394629"></trkpt>
      <trkpt lat="25.0233564" lon="121.5394658"></trkpt>
      <trkpt lat="25.0235658" lon="121.5394919"></trkpt>
      <trkpt lat="25.0237780" lon="121.5395225"></trkpt>
      <trkpt lat="25.0242432" lon="121.5395988"></trkpt>
      <trkpt lat="25.0243543" lon="121.5396154"></trkpt>
      <trkpt lat="25.0247264" lon="121.5396712"></trkpt>
      <trkpt lat="25.0247327" lon="121.5396157"></trkpt>
      <trkpt lat="25.0249209" lon="121.5382422"></trkpt>
      <trkpt lat="25.0249560" lon="121.5379718"></trkpt>
      <trkpt lat="25.0249649" lon="121.5378957"></trkpt>
      <trkpt lat="25.0249684" lon="121.5375198"></trkpt>
      <trkpt lat="25.0249556" lon="121.5374357"></trkpt>
      <trkpt lat="25.0249338" lon="121.5373158"></trkpt>
      <trkpt lat="25.0249634" lon="121.5373159"></trkpt>
      <trkpt lat="25.0249629" lon="121.5369338"></trkpt>
      <trkpt lat="25.0249834" lon="121.5366362"></trkpt>
      <trkpt lat="25.0249620" lon="121.5362367"></trkpt>
      <trkpt lat="25.0249616" lon="121.5359231"></trkpt>
      <trkpt lat="25.0249602" lon="121.5349195"></trkpt>
      <trkpt lat="25.0245173" lon="121.5348698"></trkpt>
      <trkpt lat="25.0239429" lon="121.5348053"></trkpt>
      <trkpt lat="25.0239461" lon="121.5347689"></trkpt>
      <trkpt lat="25.0239526" lon="121.5346941"></trkpt>
      <trkpt lat="25.0239646" lon="121.5345582"></trkpt>
      <trkpt lat="25.0239714" lon="121.5344790"></trkpt>
      <trkpt lat="25.0240429" lon="121.5344831"></trkpt>
      <trkpt lat="25.0240450" lon="121.5344603"></trkpt>
      <trkpt lat="25.0241437" lon="121.5333917"></trkpt>
      <trkpt lat="25.0245723" lon="121.5334424"></trkpt>
      <trkpt lat="25.0246617" lon="121.5334526"></trkpt>
      <trkpt lat="25.0249120" lon="121.5334810"></trkpt>
      <trkpt lat="25.0250861" lon="121.5335009"></trkpt>
      <trkpt lat="25.0251888" lon="121.5335114"></trkpt>
      <trkpt lat="25.0252525" lon="121.5327803"></trkpt>
      <trkpt lat="25.0253552" lon="121.5317194"></trkpt>
      <trkpt lat="25.0253728" lon="121.5314991"></trkpt>
      <trkpt lat="25.0254294" lon="121.5315040"></trkpt>
      <trkpt lat="25.0254872" lon="121.5309539"></trkpt>
      <trkpt lat="25.0254369" lon="121.5305070"></trkpt>
      <trkpt lat="25.0257753" lon="121.5304795"></trkpt>
      <trkpt lat="25.0258284" lon="121.5304751"></trkpt>
      <trkpt lat="25.0261781" lon="121.5304467"></trkpt>
      <trkpt lat="25.0262775" lon="121.5304386"></trkpt>
      <trkpt lat="25.0262817" lon="121.5303902"></trkpt>
      <trkpt lat="25.0262916" lon="121.5302754"></trkpt>
      <trkpt lat="25.0263697" lon="121.5293115"></trkpt>
      <trkpt lat="25.0264275" lon="121.5285989"></trkpt>
      <trkpt lat="25.0264285" lon="121.5285860"></trkpt>
      <trkpt lat="25.0264349" lon="121.5284982"></trkpt>
      <trkpt lat="25.0264418" lon="121.5284094"></trkpt>
      <trkpt lat="25.0264514" lon="121.5282855"></trkpt>
      <trkpt lat="25.0264739" lon="121.5280051"></trkpt>
      <trkpt lat="25.0265085" lon="121.5275738"></trkpt>
      <trkpt lat="25.0265169" lon="121.5274813"></trkpt>
      <trkpt lat="25.0266032" lon="121.5274894"></trkpt>
      <trkpt lat="25.0267541" lon="121.5275035"></trkpt>
      <trkpt lat="25.0267758" lon="121.5272377"></trkpt>
      <trkpt lat="25.0268140" lon="121.5267782"></trkpt>
      <trkpt lat="25.0268729" lon="121.5260799"></trkpt>
      <trkpt lat="25.0268798" lon="121.5259982"></trkpt>
      <trkpt lat="25.0268884" lon="121.5258891"></trkpt>
      <trkpt lat="25.0268962" lon="121.5257928"></trkpt>
      <trkpt lat="25.0269583" lon="121.5257956"></trkpt>
      <trkpt lat="25.0269808" lon="121.5255570"></trkpt>
      <trkpt lat="25.0272888" lon="121.5255784"></trkpt>
      <trkpt lat="25.0274805" lon="121.5255812"></trkpt>
      <trkpt lat="25.0275416" lon="121.5255817"></trkpt>
      <trkpt lat="25.0277555" lon="121.5255475"></trkpt>
      <trkpt lat="25.0280906" lon="121.5255434"></trkpt>
      <trkpt lat="25.0281006" lon="121.5251558"></trkpt>
      <trkpt lat="25.0284264" lon="121.5252094"></trkpt>
      <trkpt lat="25.0284706" lon="121.5248627"></trkpt>
      <trkpt lat="25.0285226" lon="121.5244580"></trkpt>
      <trkpt lat="25.0285332" lon="121.5243709"></trkpt>
      <trkpt lat="25.0285640" lon="121.5242374"></trkpt>
      <trkpt lat="25.0292166" lon="121.5242738"></trkpt>
      <trkpt lat="25.0292404" lon="121.5241223"></trkpt>
      <trkpt lat="25.0292549" lon="121.5240298"></trkpt>
      <trkpt lat="25.0296345" lon="121.5241068"></trkpt>
      <trkpt lat="25.0297669" lon="121.5241337"></trkpt>
      <trkpt lat="25.0300258" lon="121.5241863"></trkpt>
      <trkpt lat="25.0301899" lon="121.5231429"></trkpt>
      <trkpt lat="25.0307064" lon="121.5232480"></trkpt>
      <trkpt lat="25.0307173" lon="121.5231896"></trkpt>
      <trkpt lat="25.0308322" lon="121.5224553"></trkpt>
      <trkpt lat="25.0308607" lon="121.5223733"></trkpt>
      <trkpt lat="25.0308874" lon="121.5222904"></trkpt>
      <trkpt lat="25.0309807" lon="121.5223073"></trkpt>
      <trkpt lat="25.0315928" lon="121.5224114"></trkpt>
      <trkpt lat="25.0321706" lon="121.5225199"></trkpt>
      <trkpt lat="25.0322812" lon="121.5225392"></trkpt>
      <trkpt lat="25.0324039" lon="121.5225741"></trkpt>
      <trkpt lat="25.0324941" lon="121.5226216"></trkpt>
      <trkpt lat="25.0328332" lon="121.5228298"></trkpt>
      <trkpt lat="25.0331329" lon="121.5230065"></trkpt>
      <trkpt lat="25.0339213" lon="121.5234716"></trkpt>
      <trkpt lat="25.0335225" lon="121.5241858"></trkpt>
      <trkpt lat="25.0338079" lon="121.5243645"></trkpt>
      <trkpt lat="25.0340239" lon="121.5244873"></trkpt>
      <trkpt lat="25.0341080" lon="121.5245347"></trkpt>
      <trkpt lat="25.0341770" lon="121.5245750"></trkpt>
      <trkpt lat="25.0343512" lon="121.5246758"></trkpt>
      <trkpt lat="25.0344292" lon="121.5247164"></trkpt>
      <trkpt lat="25.0345250" lon="121.5247516"></trkpt>
      <trkpt lat="25.0348300" lon="121.5248398"></trkpt>
      <trkpt lat="25.0348985" lon="121.5248718"></trkpt>
      <trkpt lat="25.0349826" lon="121.5249096"></trkpt>
      <trkpt lat="25.0349961" lon="121.5248798"></trkpt>
      <trkpt lat="25.0352078" lon="121.5244228"></trkpt>
      <trkpt lat="25.0352339" lon="121.5243596"></trkpt>
      <trkpt lat="25.0352739" lon="121.5242732"></trkpt>
      <trkpt lat="25.0353602" lon="121.5243116"></trkpt>
      <trkpt lat="25.0354583" lon="121.5243557"></trkpt>
      <trkpt lat="25.0355360" lon="121.5243915"></trkpt>
      <trkpt lat="25.0355965" lon="121.5244177"></trkpt>
      <trkpt lat="25.0362032" lon="121.5245904"></trkpt>
      <trkpt lat="25.0359558" lon="121.5256422"></trkpt>
      <trkpt lat="25.0356428" lon="121.5269681"></trkpt>
      <trkpt lat="25.0360518" lon="121.5270870"></trkpt>
      <trkpt lat="25.0363061" lon="121.5271609"></trkpt>
      <trkpt lat="25.0362075" lon="121.5275746"></trkpt>
      <trkpt lat="25.0362269" lon="121.5275803"></trkpt>
      <trkpt lat="25.0365719" lon="121.5276824"></trkpt>
      <trkpt lat="25.0365960" lon="121.5276895"></trkpt>
      <trkpt lat="25.0366143" lon="121.5276947"></trkpt>
      <trkpt lat="25.0368579" lon="121.5277641"></trkpt>
      <trkpt lat="25.0368768" lon="121.5277695"></trkpt>
      <trkpt lat="25.0368940" lon="121.5277745"></trkpt>
      <trkpt lat="25.0371897" lon="121.5278604"></trkpt>
      <trkpt lat="25.0372158" lon="121.5278680"></trkpt>
      <trkpt lat="25.0372423" lon="121.5278757"></trkpt>
      <trkpt lat="25.0377993" lon="121.5280377"></trkpt>
      <trkpt lat="25.0378297" lon="121.5280465"></trkpt>
      <trkpt lat="25.0378565" lon="121.5280543"></trkpt>
      <trkpt lat="25.0380585" lon="121.5281130"></trkpt>
      <trkpt lat="25.0380581" lon="121.5281956"></trkpt>
      <trkpt lat="25.0380575" lon="121.5283088"></trkpt>
      <trkpt lat="25.0380570" lon="121.5283938"></trkpt>
      <trkpt lat="25.0378313" lon="121.5283280"></trkpt>
      <trkpt lat="25.0378024" lon="121.5283196"></trkpt>
      <trkpt lat="25.0376810" lon="121.5292168"></trkpt>
      <trkpt lat="25.0376266" lon="121.5295912"></trkpt>
      <trkpt lat="25.0376545" lon="121.5296325"></trkpt>
      <trkpt lat="25.0377129" lon="121.5296515"></trkpt>
      <trkpt lat="25.0376575" lon="121.5300418"></trkpt>
      <trkpt lat="25.0375258" lon="121.5309391"></trkpt>
      <trkpt lat="25.0374984" lon="121.5312220"></trkpt>
      <trkpt lat="25.0372383" lon="121.5316465"></trkpt>
      <trkpt lat="25.0370380" lon="121.5318846"></trkpt>
      <trkpt lat="25.0369026" lon="121.5322998"></trkpt>
      <trkpt lat="25.0368059" lon="121.5325324"></trkpt>
      <trkpt lat="25.0367555" lon="121.5326662"></trkpt>
      <trkpt lat="25.0366948" lon="121.5328235"></trkpt>
      <trkpt lat="25.0366723" lon="121.5328763"></trkpt>
      <trkpt lat="25.0366554" lon="121.5329159"></trkpt>
      <trkpt lat="25.0366291" lon="121.5329779"></trkpt>
      <trkpt lat="25.0366082" lon="121.5335671"></trkpt>
      <trkpt lat="25.0365903" lon="121.5341776"></trkpt>
      <trkpt lat="25.0362473" lon="121.5341745"></trkpt>
      <trkpt lat="25.0362343" lon="121.5346893"></trkpt>
      <trkpt lat="25.0362335" lon="121.5347643"></trkpt>
      <trkpt lat="25.0361373" lon="121.5347675"></trkpt>
      <trkpt lat="25.0357401" lon="121.5347807"></trkpt>
      <trkpt lat="25.0357292" lon="121.5347795"></trkpt>
      <trkpt lat="25.0356824" lon="121.5347742"></trkpt>
      <trkpt lat="25.0356224" lon="121.5347582"></trkpt>
      <trkpt lat="25.0353303" lon="121.5346800"></trkpt>
    </trkseg>
  </trk>
</gpx>
