<?xml version="1.0" encoding="UTF-8"?>
<gpx version="1.1" creator="shape-route-poc" xmlns="http://www.topografix.com/GPX/1/1" xmlns:xsi="http://www.w3.org/2001/XMLSchema-instance" xsi:schemaLocation="http://www.topografix.com/GPX/1/1 http://www.topografix.com/GPX/1/1/gpx.xsd">
  <metadata>
    <name>五角星路線</name>
    <desc>star5 · 13.5 km · bike · shape distance 0.097</desc>
    <time>2026-09-12T09:10:10Z</time>
    <bounds minlat="25.0336056" minlon="121.5347954" maxlat="25.0577845" maxlon="121.5625825"/>
  </metadata>
  <rte>
    <name>五角星路線</name>
    <type>cycling</type>
    <rtept lat="25.0336056" lon="121.5419008"></rtept>
    <rtept lat="25.0339288" lon="121.5419059"></rtept>
    <rtept lat="25.0339237" lon="121.5429885"></rtept>
    <rtept lat="25.0343472" lon="121.5429914"></rtept>
    <rtept lat="25.0343387" lon="121.5434749"></rtept>
    <rtept lat="25.0349917" lon="121.5434870"></rtept>
    <rtept lat="25.0349928" lon="121.5438043"></rtept>
    <rtept lat="25.0356199" lon="121.5438157"></rtept>
    <rtept lat="25.0355992" lon="121.5451227"></rtept>
    <rtept lat="25.0364399" lon="121.5451303"></rtept>
    <rtept lat="25.0364382" lon="121.5460196"></rtept>
    <rtept lat="25.0378366" lon="121.5460390"></rtept>
    <rtept lat="25.0378025" lon="121.5477657"></rtept>
    <rtept lat="25.0381414" lon="121.5477776"></rtept>
    <rtept lat="25.0387993" lon="121.5485314"></rtept>
    <rtept lat="25.0387920" lon="121.5490987"></rtept>
    <rtept lat="25.0402183" lon="121.5491884"></rtept>
    <rtept lat="25.0394887" lon="121.5499762"></rtept>
    <rtept lat="25.0394223" lon="121.5529518"></rtept>
    <rtept lat="25.0380624" lon="121.5529402"></rtept>
    <rtept lat="25.0379766" lon="121.5552972"></rtept>
    <rtept lat="25.0374672" lon="121.5553734"></rtept>
    <rtept lat="25.0374358" lon="121.5577099"></rtept>
    <rtept lat="25.0361703" lon="121.5576840"></rtept>
    <rtept lat="25.0361335" lon="121.5592186"></rtept>
    <rtept lat="25.0374599" lon="121.5592216"></rtept>
    <rtept lat="25.0375132" lon="121.5577397"></rtept>
    <rtept lat="25.0378411" lon="121.5577521"></rtept>
    <rtept lat="25.0378955" lon="121.5576454"></rtept>
    <rtept lat="25.0402502" lon="121.5577077"></rtept>
    <rtept lat="25.0402533" lon="121.5575932"></rtept>
    <rtept lat="25.0402502" lon="121.5577077"></rtept>
    <rtept lat="25.0414128" lon="121.5577437"></rtept>
    <rtept lat="25.0414279" lon="121.5567722"></rtept>
    <rtept lat="25.0419791" lon="121.5567694"></rtept>
    <rtept lat="25.0426423" lon="121.5565411"></rtept>
    <rtept lat="25.0430229" lon="121.5562375"></rtept>
    <rtept lat="25.0429221" lon="121.5560617"></rtept>
    <rtept lat="25.0430229" lon="121.5562375"></rtept>
    <rtept lat="25.0434452" lon="121.5555986"></rtept>
    <rtept lat="25.0445740" lon="121.5556360"></rtept>
    <rtept lat="25.0450423" lon="121.5578240"></rtept>
    <rtept lat="25.0476374" lon="121.5578683"></rtept>
    <rtept lat="25.0478672" lon="121.5601622"></rtept>
    <rtept lat="25.0484150" lon="121.5601019"></rtept>
    <rtept lat="25.0484899" lon="121.5608683"></rtept>
    <rtept lat="25.0501519" lon="121.5607757"></rtept>
    <rtept lat="25.0503374" lon="121.5625651"></rtept>
    <rtept lat="25.0508221" lon="121.5625825"></rtept>
    <rtept lat="25.0509475" lon="121.5579308"></rtept>
    <rtept lat="25.0513301" lon="121.5579424"></rtept>
    <rtept lat="25.0513334" lon="121.5578314"></rtept>
    <rtept lat="25.0509371" lon="121.5578233"></rtept>
    <rtept lat="25.0509724" lon="121.5563791"></rtept>
    <rtept lat="25.0514059" lon="121.5563880"></rtept>
    <rtept lat="25.0514458" lon="121.5551121"></rtept>
    <rtept lat="25.0510673" lon="121.5548345"></rtept>
    <rtept lat="25.0504469" lon="121.5546968"></rtept>
    <rtept lat="25.0505000" lon="121.5527175"></rtept>
    <rtept lat="25.0514765" lon="121.5527538"></rtept>
    <rtept lat="25.0517288" lon="121.5526396"></rtept>
    <rtept lat="25.0518123" lon="121.5499276"></rtept>
    <rtept lat="25.0523521" lon="121.5499413"></rtept>
    <rtept lat="25.0523486" lon="121.5502711"></rtept>
    <rtept lat="25.0537944" lon="121.5502721"></rtept>
    <rtept lat="25.0538035" lon="121.5499316"></rtept>
    <rtept lat="25.0559400" lon="121.5499553"></rtept>
    <rtept lat="25.0557573" lon="121.5492384"></rtept>
    <rtept lat="25.0577800" lon="121.5492853"></rtept>
    <rtept lat="25.0577845" lon="121.5486472"></rtept>
    <rtept lat="25.0576322" lon="121.5486475"></rtept>
    <rtept lat="25.0532820" lon="121.5451930"></rtept>
    <rtept lat="25.0529001" lon="121.5457980"></rtept>
    <rtept lat="25.0528650" lon="121.5467371"></rtept>
    <rtept lat="25.0524264" lon="121.5467304"></rtept>
    <rtept lat="25.0524403" lon="121.5454262"></rtept>
    <rtept lat="25.0519033" lon="121.5453849"></rtept>
    <rtept lat="25.0519240" lon="121.5443146"></rtept>
    <rtept lat="25.0516702" lon="121.5443093"></rtept>
    <rtept lat="25.0516606" lon="121.5447333"></rtept>
    <rtept lat="25.0492759" lon="121.5446714"></rtept>
    <rtept lat="25.0492912" lon="121.5440464"></rtept>
    <rtept lat="25.0501540" lon="121.5440706"></rtept>
    <rtept lat="25.0501580" lon="121.5438465"></rtept>
    <rtept lat="25.0499187" lon="121.5438400"></rtept>
    <rtept lat="25.0499565" lon="121.5421834"></rtept>
    <rtept lat="25.0495318" lon="121.5421788"></rtept>
    <rtept lat="25.0495340" lon="121.5404205"></rtept>
    <rtept lat="25.0483277" lon="121.5404047"></rtept>
    <rtept lat="25.0484254" lon="121.5347995"></rtept>
    <rtept lat="25.0483501" lon="121.5347954"></rtept>
    <rtept lat="25.0482770" lon="121.5364680"></rtept>
    <rtept lat="25.0465841" lon="121.5364323"></rtept>
    <rtept lat="25.0467420" lon="121.5374198"></rtept>
    <rtept lat="25.0462166" lon="121.5375184"></rtept>
    <rtept lat="25.0465728" lon="121.5397712"></rtept>
    <rtept lat="25.0453306" lon="121.5400631"></rtept>
    <rtept lat="25.0452611" lon="121.5414537"></rtept>
    <rtept lat="25.0454474" lon="121.5421639"></rtept>
    <rtept lat="25.0445830" lon="121.5424291"></rtept>
    <rtept lat="25.0447253" lon="121.5436721"></rtept>
    <rtept lat="25.0431399" lon="121.5436663"></rtept>
    <rtept lat="25.0431348" lon="121.5439934"></rtept>
    <rtept lat="25.0418431" lon="121.5439632"></rtept>
    <rtept lat="25.0418448" lon="121.5437125"></rtept>
    <rtept lat="25.0413727" lon="121.5437123"></rtept>
    <rtept lat="25.0413738" lon="121.5436009"></rtept>
    <rtept lat="25.0377193" lon="121.5435218"></rtept>
    <rtept lat="25.0377333" lon="121.5420059"></rtept>
    <rtept lat="25.0336056" lon="121.5419008"></rtept>
  </rte>
  <trk>
    <name>五角星路線</name>
    <type>cycling</type>
    <trkseg>
      <trkpt lat="25.0336056" lon="121.5419008"></trkpt>
      <trkpt lat="25.0339288" lon="121.5419059"></trkpt>
      <trkpt lat="25.0339237" lon="121.5429885"></trkpt>
      <trkpt lat="25.0343472" lon="121.5429914"></trkpt>
      <trkpt lat="25.0343395" lon="121.5434310"></trkpt>
      <trkpt lat="25.0343387" lon="121.5434749"></trkpt>
      <trkpt lat="25.0349917" lon="121.5434870"></trkpt>
      <trkpt lat="25.0349920" lon="121.5435740"></trkpt>
      <trkpt lat="25.0349913" lon="121.5437089"></trkpt>
      <trkpt lat="25.0349928" lon="121.5438043"></trkpt>
      <trkpt lat="25.0351182" lon="121.5438065"></trkpt>
      <trkpt lat="25.0351602" lon="121.5438073"></trkpt>
      <trkpt lat="25.0351794" lon="121.5438077"></trkpt>
      <trkpt lat="25.0352225" lon="121.5438085"></trkpt>
      <trkpt lat="25.0355955" lon="121.5438153"></trkpt>
      <trkpt lat="25.0356199" lon="121.5438157"></trkpt>
      <trkpt lat="25.0356117" lon="121.5443327"></trkpt>
      <trkpt lat="25.0355992" lon="121.5451227"></trkpt>
      <trkpt lat="25.0359651" lon="121.5451289"></trkpt>
      <trkpt lat="25.0360505" lon="121.5451304"></trkpt>
      <trkpt lat="25.0361292" lon="121.5451304"></trkpt>
      <trkpt lat="25.0364399" lon="121.5451303"></trkpt>
      <trkpt lat="25.0364382" lon="121.5460196"></trkpt>
      <trkpt lat="25.0367760" lon="121.5460245"></trkpt>
      <trkpt lat="25.0368091" lon="121.5460249"></trkpt>
      <trkpt lat="25.0370695" lon="121.5460286"></trkpt>
      <trkpt lat="25.0372178" lon="121.5460290"></trkpt>
      <trkpt lat="25.0376373" lon="121.5460372"></trkpt>
      <trkpt lat="25.0377413" lon="121.5460382"></trkpt>
      <trkpt lat="25.0378366" lon="121.5460390"></trkpt>
      <trkpt lat="25.0378343" lon="121.5461708"></trkpt>
      <trkpt lat="25.0378025" lon="121.5477657"></trkpt>
      <trkpt lat="25.0378311" lon="121.5477681"></trkpt>
      <trkpt lat="25.0379375" lon="121.5477697"></trkpt>
      <trkpt lat="25.0379676" lon="121.5477711"></trkpt>
      <trkpt lat="25.0379915" lon="121.5477722"></trkpt>
      <trkpt lat="25.0380688" lon="121.5477758"></trkpt>
      <trkpt lat="25.0381414" lon="121.5477776"></trkpt>
      <trkpt lat="25.0381418" lon="121.5478135"></trkpt>
      <trkpt lat="25.0381493" lon="121.5478488"></trkpt>
      <trkpt lat="25.0381638" lon="121.5478815"></trkpt>
      <trkpt lat="25.0381844" lon="121.5479099"></trkpt>
      <trkpt lat="25.0382102" lon="121.5479325"></trkpt>
      <trkpt lat="25.0382612" lon="121.5479602"></trkpt>
      <trkpt lat="25.0383108" lon="121.5479910"></trkpt>
      <trkpt lat="25.0383589" lon="121.5480247"></trkpt>
      <trkpt lat="25.0384052" lon="121.5480612"></trkpt>
      <trkpt lat="25.0384308" lon="121.5480909"></trkpt>
      <trkpt lat="25.0384734" lon="121.5481418"></trkpt>
      <trkpt lat="25.0386794" lon="121.5484697"></trkpt>
      <trkpt lat="25.0387134" lon="121.5485260"></trkpt>
      <trkpt lat="25.0387993" lon="121.5485314"></trkpt>
      <trkpt lat="25.0387984" lon="121.5485987"></trkpt>
      <trkpt lat="25.0387952" lon="121.5488448"></trkpt>
      <trkpt lat="25.0387920" lon="121.5490987"></trkpt>
      <trkpt lat="25.0389364" lon="121.5490977"></trkpt>
      <trkpt lat="25.0389379" lon="121.5491694"></trkpt>
      <trkpt lat="25.0397912" lon="121.5491842"></trkpt>
      <trkpt lat="25.0399760" lon="121.5491860"></trkpt>
      <trkpt lat="25.0400976" lon="121.5491872"></trkpt>
      <trkpt lat="25.0402183" lon="121.5491884"></trkpt>
      <trkpt lat="25.0398042" lon="121.5496335"></trkpt>
      <trkpt lat="25.0397681" lon="121.5496726"></trkpt>
      <trkpt lat="25.0394887" lon="121.5499762"></trkpt>
      <trkpt lat="25.0394714" lon="121.5507559"></trkpt>
      <trkpt lat="25.0394483" lon="121.5517870"></trkpt>
      <trkpt lat="25.0394223" lon="121.5529518"></trkpt>
      <trkpt lat="25.0389663" lon="121.5529501"></trkpt>
      <trkpt lat="25.0384969" lon="121.5529482"></trkpt>
      <trkpt lat="25.0380624" lon="121.5529402"></trkpt>
      <trkpt lat="25.0380610" lon="121.5530200"></trkpt>
      <trkpt lat="25.0380212" lon="121.5530467"></trkpt>
      <trkpt lat="25.0380051" lon="121.5540707"></trkpt>
      <trkpt lat="25.0379766" lon="121.5552972"></trkpt>
      <trkpt lat="25.0379214" lon="121.5553229"></trkpt>
      <trkpt lat="25.0378793" lon="121.5553426"></trkpt>
      <trkpt lat="25.0378215" lon="121.5553463"></trkpt>
      <trkpt lat="25.0377968" lon="121.5553479"></trkpt>
      <trkpt lat="25.0376647" lon="121.5553577"></trkpt>
      <trkpt lat="25.0376478" lon="121.5553589"></trkpt>
      <trkpt lat="25.0376279" lon="121.5553604"></trkpt>
      <trkpt lat="25.0375471" lon="121.5553665"></trkpt>
      <trkpt lat="25.0374672" lon="121.5553734"></trkpt>
      <trkpt lat="25.0374550" lon="121.5554982"></trkpt>
      <trkpt lat="25.0374563" lon="121.5556298"></trkpt>
      <trkpt lat="25.0374401" lon="121.5568398"></trkpt>
      <trkpt lat="25.0374433" lon="121.5569234"></trkpt>
      <trkpt lat="25.0374380" lon="121.5573953"></trkpt>
      <trkpt lat="25.0374297" lon="121.5574262"></trkpt>
      <trkpt lat="25.0374373" lon="121.5575184"></trkpt>
      <trkpt lat="25.0374383" lon="121.5576455"></trkpt>
      <trkpt lat="25.0374358" lon="121.5577099"></trkpt>
      <trkpt lat="25.0373732" lon="121.5577093"></trkpt>
      <trkpt lat="25.0371847" lon="121.5577048"></trkpt>
      <trkpt lat="25.0368728" lon="121.5577099"></trkpt>
      <trkpt lat="25.0365395" lon="121.5576972"></trkpt>
      <trkpt lat="25.0363978" lon="121.5576934"></trkpt>
      <trkpt lat="25.0361703" lon="121.5576840"></trkpt>
      <trkpt lat="25.0361633" lon="121.5581668"></trkpt>
      <trkpt lat="25.0361692" lon="121.5584266"></trkpt>
      <trkpt lat="25.0361335" lon="121.5592186"></trkpt>
      <trkpt lat="25.0364916" lon="121.5592279"></trkpt>
      <trkpt lat="25.0368229" lon="121.5592138"></trkpt>
      <trkpt lat="25.0371542" lon="121.5592161"></trkpt>
      <trkpt lat="25.0374599" lon="121.5592216"></trkpt>
      <trkpt lat="25.0374862" lon="121.5584401"></trkpt>
      <trkpt lat="25.0375132" lon="121.5577397"></trkpt>
      <trkpt lat="25.0375787" lon="121.5577418"></trkpt>
      <trkpt lat="25.0376306" lon="121.5577434"></trkpt>
      <trkpt lat="25.0376839" lon="121.5577450"></trkpt>
      <trkpt lat="25.0377263" lon="121.5577464"></trkpt>
      <trkpt lat="25.0377559" lon="121.5577473"></trkpt>
      <trkpt lat="25.0377938" lon="121.5577485"></trkpt>
      <trkpt lat="25.0378411" lon="121.5577521"></trkpt>
      <trkpt lat="25.0378952" lon="121.5577202"></trkpt>
      <trkpt lat="25.0378955" lon="121.5576454"></trkpt>
      <trkpt lat="25.0383654" lon="121.5576576"></trkpt>
      <trkpt lat="25.0392646" lon="121.5576839"></trkpt>
      <trkpt lat="25.0393115" lon="121.5576852"></trkpt>
      <trkpt lat="25.0394278" lon="121.5576885"></trkpt>
      <trkpt lat="25.0395218" lon="121.5576907"></trkpt>
      <trkpt lat="25.0402502" lon="121.5577077"></trkpt>
      <trkpt lat="25.0402533" lon="121.5575932"></trkpt>
      <trkpt lat="25.0402502" lon="121.5577077"></trkpt>
      <trkpt lat="25.0411150" lon="121.5577328"></trkpt>
      <trkpt lat="25.0411752" lon="121.5577346"></trkpt>
      <trkpt lat="25.0412799" lon="121.5577382"></trkpt>
      <trkpt lat="25.0414128" lon="121.5577437"></trkpt>
      <trkpt lat="25.0414157" lon="121.5576181"></trkpt>
      <trkpt lat="25.0414155" lon="121.5575025"></trkpt>
      <trkpt lat="25.0414279" lon="121.5567722"></trkpt>
      <trkpt lat="25.0415236" lon="121.5567744"></trkpt>
      <trkpt lat="25.0418003" lon="121.5567806"></trkpt>
      <trkpt lat="25.0418252" lon="121.5567791"></trkpt>
      <trkpt lat="25.0419791" lon="121.5567694"></trkpt>
      <trkpt lat="25.0421709" lon="121.5567309"></trkpt>
      <trkpt lat="25.0423581" lon="121.5566735"></trkpt>
      <trkpt lat="25.0424161" lon="121.5566484"></trkpt>
      <trkpt lat="25.0426423" lon="121.5565411"></trkpt>
      <trkpt lat="25.0428483" lon="121.5564003"></trkpt>
      <trkpt lat="25.0430229" lon="121.5562375"></trkpt>
      <trkpt lat="25.0429221" lon="121.5560617"></trkpt>
      <trkpt lat="25.0430229" lon="121.5562375"></trkpt>
      <trkpt lat="25.0430673" lon="121.5561846"></trkpt>
      <trkpt lat="25.0431617" lon="121.5560724"></trkpt>
      <trkpt lat="25.0433112" lon="121.5558719"></trkpt>
      <trkpt lat="25.0434309" lon="121.5556385"></trkpt>
      <trkpt lat="25.0434452" lon="121.5555986"></trkpt>
      <trkpt lat="25.0434873" lon="121.5556000"></trkpt>
      <trkpt lat="25.0437529" lon="121.5556088"></trkpt>
      <trkpt lat="25.0438086" lon="121.5556106"></trkpt>
      <trkpt lat="25.0438804" lon="121.5556130"></trkpt>
      <trkpt lat="25.0439878" lon="121.5556166"></trkpt>
      <trkpt lat="25.0443427" lon="121.5556284"></trkpt>
      <trkpt lat="25.0445171" lon="121.5556341"></trkpt>
      <trkpt lat="25.0445740" lon="121.5556360"></trkpt>
      <trkpt lat="25.0447779" lon="121.5567015"></trkpt>
      <trkpt lat="25.0448595" lon="121.5571249"></trkpt>
      <trkpt lat="25.0449278" lon="121.5574786"></trkpt>
      <trkpt lat="25.0449650" lon="121.5576030"></trkpt>
      <trkpt lat="25.0449905" lon="121.5576844"></trkpt>
      <trkpt lat="25.0450423" lon="121.5578240"></trkpt>
      <trkpt lat="25.0451338" lon="121.5578214"></trkpt>
      <trkpt lat="25.0452444" lon="121.5578168"></trkpt>
      <trkpt lat="25.0452874" lon="121.5578158"></trkpt>
      <trkpt lat="25.0457047" lon="121.5578268"></trkpt>
      <trkpt lat="25.0461701" lon="121.5578368"></trkpt>
      <trkpt lat="25.0466576" lon="121.5578473"></trkpt>
      <trkpt lat="25.0467587" lon="121.5578495"></trkpt>
      <trkpt lat="25.0471474" lon="121.5578578"></trkpt>
      <trkpt lat="25.0476374" lon="121.5578683"></trkpt>
      <trkpt lat="25.0476429" lon="121.5579208"></trkpt>
      <trkpt lat="25.0477796" lon="121.5592142"></trkpt>
      <trkpt lat="25.0478672" lon="121.5601622"></trkpt>
      <trkpt lat="25.0482985" lon="121.5601064"></trkpt>
      <trkpt lat="25.0483247" lon="121.5601030"></trkpt>
      <trkpt lat="25.0484150" lon="121.5601019"></trkpt>
      <trkpt lat="25.0484204" lon="121.5601570"></trkpt>
      <trkpt lat="25.0484233" lon="121.5601911"></trkpt>
      <trkpt lat="25.0484733" lon="121.5607086"></trkpt>
      <trkpt lat="25.0484788" lon="121.5607659"></trkpt>
      <trkpt lat="25.0484815" lon="121.5607898"></trkpt>
      <trkpt lat="25.0484899" lon="121.5608683"></trkpt>
      <trkpt lat="25.0485927" lon="121.5608585"></trkpt>
      <trkpt lat="25.0486459" lon="121.5608540"></trkpt>
      <trkpt lat="25.0491128" lon="121.5608144"></trkpt>
      <trkpt lat="25.0495275" lon="121.5607854"></trkpt>
      <trkpt lat="25.0501519" lon="121.5607757"></trkpt>
      <trkpt lat="25.0502141" lon="121.5614084"></trkpt>
      <trkpt lat="25.0503374" lon="121.5625651"></trkpt>
      <trkpt lat="25.0508221" lon="121.5625825"></trkpt>
      <trkpt lat="25.0508965" lon="121.5608010"></trkpt>
      <trkpt lat="25.0509181" lon="121.5591608"></trkpt>
      <trkpt lat="25.0509383" lon="121.5585015"></trkpt>
      <trkpt lat="25.0509457" lon="121.5580439"></trkpt>
      <trkpt lat="25.0509462" lon="121.5580087"></trkpt>
      <trkpt lat="25.0509475" lon="121.5579308"></trkpt>
      <trkpt lat="25.0512180" lon="121.5579395"></trkpt>
      <trkpt lat="25.0512713" lon="121.5579402"></trkpt>
      <trkpt lat="25.0513301" lon="121.5579424"></trkpt>
      <trkpt lat="25.0513334" lon="121.5578314"></trkpt>
      <trkpt lat="25.0509371" lon="121.5578233"></trkpt>
      <trkpt lat="25.0509370" lon="121.5577651"></trkpt>
      <trkpt lat="25.0509724" lon="121.5563791"></trkpt>
      <trkpt lat="25.0513434" lon="121.5563867"></trkpt>
      <trkpt lat="25.0514059" lon="121.5563880"></trkpt>
      <trkpt lat="25.0514335" lon="121.5552391"></trkpt>
      <trkpt lat="25.0514458" lon="121.5551121"></trkpt>
      <trkpt lat="25.0512875" lon="121.5550053"></trkpt>
      <trkpt lat="25.0510673" lon="121.5548345"></trkpt>
      <trkpt lat="25.0507126" lon="121.5547397"></trkpt>
      <trkpt lat="25.0504469" lon="121.5546968"></trkpt>
      <trkpt lat="25.0504763" lon="121.5536621"></trkpt>
      <trkpt lat="25.0504828" lon="121.5533444"></trkpt>
      <trkpt lat="25.0504983" lon="121.5527784"></trkpt>
      <trkpt lat="25.0505000" lon="121.5527175"></trkpt>
      <trkpt lat="25.0505497" lon="121.5527194"></trkpt>
      <trkpt lat="25.0508023" lon="121.5527284"></trkpt>
      <trkpt lat="25.0508242" lon="121.5527296"></trkpt>
      <trkpt lat="25.0514149" lon="121.5527515"></trkpt>
      <trkpt lat="25.0514435" lon="121.5527526"></trkpt>
      <trkpt lat="25.0514765" lon="121.5527538"></trkpt>
      <trkpt lat="25.0515962" lon="121.5527163"></trkpt>
      <trkpt lat="25.0517288" lon="121.5526396"></trkpt>
      <trkpt lat="25.0517246" lon="121.5524779"></trkpt>
      <trkpt lat="25.0517495" lon="121.5511481"></trkpt>
      <trkpt lat="25.0517499" lon="121.5510065"></trkpt>
      <trkpt lat="25.0517715" lon="121.5509007"></trkpt>
      <trkpt lat="25.0517990" lon="121.5503875"></trkpt>
      <trkpt lat="25.0518108" lon="121.5499789"></trkpt>
      <trkpt lat="25.0518123" lon="121.5499276"></trkpt>
      <trkpt lat="25.0518764" lon="121.5499278"></trkpt>
      <trkpt lat="25.0523521" lon="121.5499413"></trkpt>
      <trkpt lat="25.0523486" lon="121.5502711"></trkpt>
      <trkpt lat="25.0528382" lon="121.5502566"></trkpt>
      <trkpt lat="25.0533296" lon="121.5502613"></trkpt>
      <trkpt lat="25.0535115" lon="121.5502587"></trkpt>
      <trkpt lat="25.0537944" lon="121.5502721"></trkpt>
      <trkpt lat="25.0538035" lon="121.5499316"></trkpt>
      <trkpt lat="25.0542321" lon="121.5499351"></trkpt>
      <trkpt lat="25.0542961" lon="121.5499379"></trkpt>
      <trkpt lat="25.0543495" lon="121.5499368"></trkpt>
      <trkpt lat="25.0547692" lon="121.5499423"></trkpt>
      <trkpt lat="25.0551952" lon="121.5499471"></trkpt>
      <trkpt lat="25.0558292" lon="121.5499541"></trkpt>
      <trkpt lat="25.0558806" lon="121.5499546"></trkpt>
      <trkpt lat="25.0559400" lon="121.5499553"></trkpt>
      <trkpt lat="25.0558329" lon="121.5495268"></trkpt>
      <trkpt lat="25.0558125" lon="121.5494537"></trkpt>
      <trkpt lat="25.0557982" lon="121.5494054"></trkpt>
      <trkpt lat="25.0557789" lon="121.5493386"></trkpt>
      <trkpt lat="25.0557573" lon="121.5492384"></trkpt>
      <trkpt lat="25.0572111" lon="121.5492602"></trkpt>
      <trkpt lat="25.0573562" lon="121.5492605"></trkpt>
      <trkpt lat="25.0575005" lon="121.5492629"></trkpt>
      <trkpt lat="25.0575505" lon="121.5492634"></trkpt>
      <trkpt lat="25.0575838" lon="121.5492638"></trkpt>
      <trkpt lat="25.0576739" lon="121.5492647"></trkpt>
      <trkpt lat="25.0577800" lon="121.5492853"></trkpt>
      <trkpt lat="25.0577816" lon="121.5490498"></trkpt>
      <trkpt lat="25.0577836" lon="121.5487977"></trkpt>
      <trkpt lat="25.0577845" lon="121.5486472"></trkpt>
      <trkpt lat="25.0577230" lon="121.5486464"></trkpt>
      <trkpt lat="25.0576273" lon="121.5485759"></trkpt>
      <trkpt lat="25.0576322" lon="121.5486475"></trkpt>
      <trkpt lat="25.0575168" lon="121.5485494"></trkpt>
      <trkpt lat="25.0574748" lon="121.5485137"></trkpt>
      <trkpt lat="25.0569135" lon="121.5480745"></trkpt>
      <trkpt lat="25.0566782" lon="121.5478780"></trkpt>
      <trkpt lat="25.0566554" lon="121.5478590"></trkpt>
      <trkpt lat="25.0558271" lon="121.5471883"></trkpt>
      <trkpt lat="25.0557864" lon="121.5471554"></trkpt>
      <trkpt lat="25.0557262" lon="121.5471096"></trkpt>
      <trkpt lat="25.0556471" lon="121.5470542"></trkpt>
      <trkpt lat="25.0547053" lon="121.5462963"></trkpt>
      <trkpt lat="25.0546625" lon="121.5462631"></trkpt>
      <trkpt lat="25.0546187" lon="121.5462341"></trkpt>
      <trkpt lat="25.0545102" lon="121.5461893"></trkpt>
      <trkpt lat="25.0543845" lon="121.5460827"></trkpt>
      <trkpt lat="25.0542900" lon="121.5460027"></trkpt>
      <trkpt lat="25.0540217" lon="121.5457872"></trkpt>
      <trkpt lat="25.0532820" lon="121.5451930"></trkpt>
      <trkpt lat="25.0532295" lon="121.5452724"></trkpt>
      <trkpt lat="25.0529438" lon="121.5457041"></trkpt>
      <trkpt lat="25.0529001" lon="121.5457980"></trkpt>
      <trkpt lat="25.0528737" lon="121.5461151"></trkpt>
      <trkpt lat="25.0528705" lon="121.5463438"></trkpt>
      <trkpt lat="25.0528657" lon="121.5466877"></trkpt>
      <trkpt lat="25.0528650" lon="121.5467371"></trkpt>
      <trkpt lat="25.0524264" lon="121.5467304"></trkpt>
      <trkpt lat="25.0524345" lon="121.5457901"></trkpt>
      <trkpt lat="25.0524403" lon="121.5454262"></trkpt>
      <trkpt lat="25.0519619" lon="121.5453895"></trkpt>
      <trkpt lat="25.0519033" lon="121.5453849"></trkpt>
      <trkpt lat="25.0519223" lon="121.5444000"></trkpt>
      <trkpt lat="25.0519229" lon="121.5443708"></trkpt>
      <trkpt lat="25.0519240" lon="121.5443146"></trkpt>
      <trkpt lat="25.0518598" lon="121.5443133"></trkpt>
      <trkpt lat="25.0518346" lon="121.5443127"></trkpt>
      <trkpt lat="25.0517628" lon="121.5443112"></trkpt>
      <trkpt lat="25.0516702" lon="121.5443093"></trkpt>
      <trkpt lat="25.0516606" lon="121.5447333"></trkpt>
      <trkpt lat="25.0511884" lon="121.5447210"></trkpt>
      <trkpt lat="25.0507182" lon="121.5447088"></trkpt>
      <trkpt lat="25.0504900" lon="121.5447029"></trkpt>
      <trkpt lat="25.0501883" lon="121.5446951"></trkpt>
      <trkpt lat="25.0497264" lon="121.5446831"></trkpt>
      <trkpt lat="25.0492759" lon="121.5446714"></trkpt>
      <trkpt lat="25.0492840" lon="121.5443368"></trkpt>
      <trkpt lat="25.0492858" lon="121.5442771"></trkpt>
      <trkpt lat="25.0492870" lon="121.5442168"></trkpt>
      <trkpt lat="25.0492882" lon="121.5441666"></trkpt>
      <trkpt lat="25.0492912" lon="121.5440464"></trkpt>
      <trkpt lat="25.0498050" lon="121.5440608"></trkpt>
      <trkpt lat="25.0498890" lon="121.5440632"></trkpt>
      <trkpt lat="25.0501540" lon="121.5440706"></trkpt>
      <trkpt lat="25.0501565" lon="121.5439306"></trkpt>
      <trkpt lat="25.0501580" lon="121.5438465"></trkpt>
      <trkpt lat="25.0499723" lon="121.5438415"></trkpt>
      <trkpt lat="25.0499187" lon="121.5438400"></trkpt>
      <trkpt lat="25.0499192" lon="121.5438168"></trkpt>
      <trkpt lat="25.0499286" lon="121.5434066"></trkpt>
      <trkpt lat="25.0499548" lon="121.5422595"></trkpt>
      <trkpt lat="25.0499565" lon="121.5421834"></trkpt>
      <trkpt lat="25.0499088" lon="121.5421829"></trkpt>
      <trkpt lat="25.0495318" lon="121.5421788"></trkpt>
      <trkpt lat="25.0495165" lon="121.5413198"></trkpt>
      <trkpt lat="25.0495340" lon="121.5404205"></trkpt>
      <trkpt lat="25.0491786" lon="121.5404154"></trkpt>
      <trkpt lat="25.0487941" lon="121.5404098"></trkpt>
      <trkpt lat="25.0484293" lon="121.5404081"></trkpt>
      <trkpt lat="25.0483277" lon="121.5404047"></trkpt>
      <trkpt lat="25.0483314" lon="121.5402875"></trkpt>
      <trkpt lat="25.0483441" lon="121.5396916"></trkpt>
      <trkpt lat="25.0483551" lon="121.5391780"></trkpt>
      <trkpt lat="25.0483571" lon="121.5391067"></trkpt>
      <trkpt lat="25.0483572" lon="121.5390361"></trkpt>
      <trkpt lat="25.0483593" lon="121.5382508"></trkpt>
      <trkpt lat="25.0483616" lon="121.5380689"></trkpt>
      <trkpt lat="25.0483625" lon="121.5379848"></trkpt>
      <trkpt lat="25.0483659" lon="121.5377215"></trkpt>
      <trkpt lat="25.0483745" lon="121.5370332"></trkpt>
      <trkpt lat="25.0483757" lon="121.5369385"></trkpt>
      <trkpt lat="25.0483926" lon="121.5365879"></trkpt>
      <trkpt lat="25.0483935" lon="121.5365289"></trkpt>
      <trkpt lat="25.0483945" lon="121.5364678"></trkpt>
      <trkpt lat="25.0484007" lon="121.5363839"></trkpt>
      <trkpt lat="25.0484035" lon="121.5359854"></trkpt>
      <trkpt lat="25.0484066" lon="121.5358190"></trkpt>
      <trkpt lat="25.0484254" lon="121.5347995"></trkpt>
      <trkpt lat="25.0483501" lon="121.5347954"></trkpt>
      <trkpt lat="25.0483276" lon="121.5359830"></trkpt>
      <trkpt lat="25.0483216" lon="121.5363853"></trkpt>
      <trkpt lat="25.0482882" lon="121.5364007"></trkpt>
      <trkpt lat="25.0482770" lon="121.5364680"></trkpt>
      <trkpt lat="25.0479273" lon="121.5364582"></trkpt>
      <trkpt lat="25.0475362" lon="121.5364444"></trkpt>
      <trkpt lat="25.0471800" lon="121.5364406"></trkpt>
      <trkpt lat="25.0468535" lon="121.5364368"></trkpt>
      <trkpt lat="25.0465841" lon="121.5364323"></trkpt>
      <trkpt lat="25.0466149" lon="121.5369403"></trkpt>
      <trkpt lat="25.0466786" lon="121.5369449"></trkpt>
      <trkpt lat="25.0466865" lon="121.5370038"></trkpt>
      <trkpt lat="25.0467420" lon="121.5374198"></trkpt>
      <trkpt lat="25.0466424" lon="121.5374409"></trkpt>
      <trkpt lat="25.0463020" lon="121.5375029"></trkpt>
      <trkpt lat="25.0462166" lon="121.5375184"></trkpt>
      <trkpt lat="25.0462348" lon="121.5376203"></trkpt>
      <trkpt lat="25.0462892" lon="121.5379842"></trkpt>
      <trkpt lat="25.0462981" lon="121.5380433"></trkpt>
      <trkpt lat="25.0463051" lon="121.5380903"></trkpt>
      <trkpt lat="25.0463191" lon="121.5381732"></trkpt>
      <trkpt lat="25.0463317" lon="121.5382434"></trkpt>
      <trkpt lat="25.0463375" lon="121.5382789"></trkpt>
      <trkpt lat="25.0463459" lon="121.5383393"></trkpt>
      <trkpt lat="25.0464362" lon="121.5389394"></trkpt>
      <trkpt lat="25.0464452" lon="121.5389991"></trkpt>
      <trkpt lat="25.0464554" lon="121.5390669"></trkpt>
      <trkpt lat="25.0464662" lon="121.5391356"></trkpt>
      <trkpt lat="25.0464798" lon="121.5392181"></trkpt>
      <trkpt lat="25.0464825" lon="121.5392486"></trkpt>
      <trkpt lat="25.0464877" lon="121.5392797"></trkpt>
      <trkpt lat="25.0464924" lon="121.5393128"></trkpt>
      <trkpt lat="25.0465645" lon="121.5397211"></trkpt>
      <trkpt lat="25.0465728" lon="121.5397712"></trkpt>
      <trkpt lat="25.0464793" lon="121.5397918"></trkpt>
      <trkpt lat="25.0453306" lon="121.5400631"></trkpt>
      <trkpt lat="25.0453212" lon="121.5403201"></trkpt>
      <trkpt lat="25.0453202" lon="121.5403468"></trkpt>
      <trkpt lat="25.0453142" lon="121.5405098"></trkpt>
      <trkpt lat="25.0452925" lon="121.5408560"></trkpt>
      <trkpt lat="25.0452735" lon="121.5411238"></trkpt>
      <trkpt lat="25.0452611" lon="121.5414537"></trkpt>
      <trkpt lat="25.0454474" lon="121.5421639"></trkpt>
      <trkpt lat="25.0448537" lon="121.5423416"></trkpt>
      <trkpt lat="25.0448277" lon="121.5423494"></trkpt>
      <trkpt lat="25.0447967" lon="121.5423587"></trkpt>
      <trkpt lat="25.0446152" lon="121.5424185"></trkpt>
      <trkpt lat="25.0445830" lon="121.5424291"></trkpt>
      <trkpt lat="25.0446677" lon="121.5431525"></trkpt>
      <trkpt lat="25.0447168" lon="121.5435931"></trkpt>
      <trkpt lat="25.0447253" lon="121.5436721"></trkpt>
      <trkpt lat="25.0446690" lon="121.5436698"></trkpt>
      <trkpt lat="25.0446340" lon="121.5436965"></trkpt>
      <trkpt lat="25.0442993" lon="121.5436967"></trkpt>
      <trkpt lat="25.0437228" lon="121.5436833"></trkpt>
      <trkpt lat="25.0431399" lon="121.5436663"></trkpt>
      <trkpt lat="25.0431387" lon="121.5437442"></trkpt>
      <trkpt lat="25.0431365" lon="121.5438857"></trkpt>
      <trkpt lat="25.0431348" lon="121.5439934"></trkpt>
      <trkpt lat="25.0426889" lon="121.5439804"></trkpt>
      <trkpt lat="25.0425177" lon="121.5439764"></trkpt>
      <trkpt lat="25.0420250" lon="121.5439662"></trkpt>
      <trkpt lat="25.0418431" lon="121.5439632"></trkpt>
      <trkpt lat="25.0418438" lon="121.5438436"></trkpt>
      <trkpt lat="25.0418448" lon="121.5437125"></trkpt>
      <trkpt lat="25.0416931" lon="121.5437139"></trkpt>
      <trkpt lat="25.0415580" lon="121.5437139"></trkpt>
      <trkpt lat="25.0413727" lon="121.5437123"></trkpt>
      <trkpt lat="25.0413738" lon="121.5436009"></trkpt>
      <trkpt lat="25.0406494" lon="121.5435828"></trkpt>
      <trkpt lat="25.0398244" lon="121.5435501"></trkpt>
      <trkpt lat="25.0397451" lon="121.5435484"></trkpt>
      <trkpt lat="25.0390369" lon="121.5435406"></trkpt>
      <trkpt lat="25.0390359" lon="121.5435662"></trkpt>
      <trkpt lat="25.0382550" lon="121.5435509"></trkpt>
      <trkpt lat="25.0382010" lon="121.5435287"></trkpt>
      <trkpt lat="25.0381605" lon="121.5435289"></trkpt>
      <trkpt lat="25.0380474" lon="121.5435263"></trkpt>
      <trkpt lat="25.0380253" lon="121.5435267"></trkpt>
      <trkpt lat="25.0379144" lon="121.5435235"></trkpt>
      <trkpt lat="25.0378789" lon="121.5435228"></trkpt>
      <trkpt lat="25.0377911" lon="121.5435212"></trkpt>
      <trkpt lat="25.0377193" lon="121.5435218"></trkpt>
      <trkpt lat="25.0377195" lon="121.5435046"></trkpt>
      <trkpt lat="25.0377199" lon="121.5434632"></trkpt>
      <trkpt lat="25.0377333" lon="121.5420059"></trkpt>
      <trkpt lat="25.0371877" lon="121.5419879"></trkpt>
      <trkpt lat="25.0367513" lon="121.5419841"></trkpt>
      <trkpt lat="25.0366345" lon="121.5419811"></trkpt>
      <trkpt lat="25.0361230" lon="121.5419679"></trkpt>
      <trkpt lat="25.0356201" lon="121.5419450"></trkpt>
      <trkpt lat="25.0351084" lon="121.5419338"></trkpt>
      <trkpt lat="25.0348156" lon="121.5419269"></trkpt>
      <trkpt lat="25.0347570" lon="121.5419261"></trkpt>
      <trkpt lat="25.0343661" lon="121.5419162"></trkpt>
      <trkpt lat="25.0339288" lon="121.5419059"></trkpt>
      <trkpt lat="25.0336056" lon="121.5419008"></trkpt>
    </trkseg>
  </trk>
</gpx>
