<?xml version="1.0" encoding="UTF-8"?>
<gpx version="1.1" creator="shape-route-poc" xmlns="http://www.topografix.com/GPX/1/1" xmlns:xsi="http://www.w3.org/2001/XMLSchema-instance" xsi:schemaLocation="http://www.topografix.com/GPX/1/1 http://www.topografix.com/GPX/1/1/gpx.xsd">
  <metadata>
    <name>台北恐龍路線 (sized)</name>
    <desc>trex · 30.7 km · bike · shape distance 0.095 · 17 repeated segments</desc>
    <time>2026-09-11T14:28:25Z</time>
    <bounds minlat="25.0274715" minlon="121.5070295" maxlat="25.0683535" maxlon="121.5554242"/>
  </metadata>
  <rte>
    <name>台北恐龍路線 (sized)</name>
    <type>cycling</type>
    <rtept lat="25.0450049" lon="121.5537203"></rtept>
    <rtept lat="25.0442475" lon="121.5537594"></rtept>
    <rtept lat="25.0420249" lon="121.5543214"></rtept>
    <rtept lat="25.0420200" lon="121.5545849"></rtept>
    <rtept lat="25.0425985" lon="121.5544912"></rtept>
    <rtept lat="25.0425351" lon="121.5541924"></rtept>
    <rtept lat="25.0378200" lon="121.5554242"></rtept>
    <rtept lat="25.0374672" lon="121.5553734"></rtept>
    <rtept lat="25.0374820" lon="121.5544683"></rtept>
    <rtept lat="25.0354070" lon="121.5543933"></rtept>
    <rtept lat="25.0346412" lon="121.5550422"></rtept>
    <rtept lat="25.0342849" lon="121.5545111"></rtept>
    <rtept lat="25.0339017" lon="121.5543119"></rtept>
    <rtept lat="25.0305487" lon="121.5542412"></rtept>
    <rtept lat="25.0296943" lon="121.5540977"></rtept>
    <rtept lat="25.0300108" lon="121.5527823"></rtept>
    <rtept lat="25.0303399" lon="121.5524219"></rtept>
    <rtept lat="25.0294276" lon="121.5513596"></rtept>
    <rtept lat="25.0292052" lon="121.5516383"></rtept>
    <rtept lat="25.0289013" lon="121.5512735"></rtept>
    <rtept lat="25.0283179" lon="121.5516020"></rtept>
    <rtept lat="25.0281850" lon="121.5511438"></rtept>
    <rtept lat="25.0277795" lon="121.5512439"></rtept>
    <rtept lat="25.0276250" lon="121.5507244"></rtept>
    <rtept lat="25.0280185" lon="121.5505787"></rtept>
    <rtept lat="25.0281367" lon="121.5485085"></rtept>
    <rtept lat="25.0274787" lon="121.5485027"></rtept>
    <rtept lat="25.0274799" lon="121.5480283"></rtept>
    <rtept lat="25.0281777" lon="121.5480422"></rtept>
    <rtept lat="25.0284021" lon="121.5436892"></rtept>
    <rtept lat="25.0284846" lon="121.5436891"></rtept>
    <rtept lat="25.0284800" lon="121.5434497"></rtept>
    <rtept lat="25.0284810" lon="121.5435712"></rtept>
    <rtept lat="25.0311118" lon="121.5436283"></rtept>
    <rtept lat="25.0311181" lon="121.5434182"></rtept>
    <rtept lat="25.0377193" lon="121.5435218"></rtept>
    <rtept lat="25.0375941" lon="121.5399743"></rtept>
    <rtept lat="25.0371734" lon="121.5399555"></rtept>
    <rtept lat="25.0371742" lon="121.5408100"></rtept>
    <rtept lat="25.0353485" lon="121.5408176"></rtept>
    <rtept lat="25.0353336" lon="121.5414313"></rtept>
    <rtept lat="25.0337501" lon="121.5413860"></rtept>
    <rtept lat="25.0336538" lon="121.5394811"></rtept>
    <rtept lat="25.0311407" lon="121.5394327"></rtept>
    <rtept lat="25.0311162" lon="121.5405542"></rtept>
    <rtept lat="25.0306880" lon="121.5405508"></rtept>
    <rtept lat="25.0307842" lon="121.5380466"></rtept>
    <rtept lat="25.0306650" lon="121.5379911"></rtept>
    <rtept lat="25.0344991" lon="121.5380453"></rtept>
    <rtept lat="25.0363806" lon="121.5382512"></rtept>
    <rtept lat="25.0363960" lon="121.5373732"></rtept>
    <rtept lat="25.0376509" lon="121.5373920"></rtept>
    <rtept lat="25.0378671" lon="121.5375427"></rtept>
    <rtept lat="25.0383187" lon="121.5375383"></rtept>
    <rtept lat="25.0385263" lon="121.5373928"></rtept>
    <rtept lat="25.0401542" lon="121.5373375"></rtept>
    <rtept lat="25.0401872" lon="121.5330717"></rtept>
    <rtept lat="25.0400831" lon="121.5330015"></rtept>
    <rtept lat="25.0400837" lon="121.5326160"></rtept>
    <rtept lat="25.0380587" lon="121.5325432"></rtept>
    <rtept lat="25.0380639" lon="121.5323139"></rtept>
    <rtept lat="25.0375766" lon="121.5322150"></rtept>
    <rtept lat="25.0375907" lon="121.5320320"></rtept>
    <rtept lat="25.0370380" lon="121.5318846"></rtept>
    <rtept lat="25.0368059" lon="121.5325324"></rtept>
    <rtept lat="25.0354604" lon="121.5325155"></rtept>
    <rtept lat="25.0354646" lon="121.5319563"></rtept>
    <rtept lat="25.0353176" lon="121.5315795"></rtept>
    <rtept lat="25.0348424" lon="121.5311655"></rtept>
    <rtept lat="25.0358848" lon="121.5302179"></rtept>
    <rtept lat="25.0356308" lon="121.5297689"></rtept>
    <rtept lat="25.0346471" lon="121.5300436"></rtept>
    <rtept lat="25.0346636" lon="121.5289549"></rtept>
    <rtept lat="25.0349384" lon="121.5279525"></rtept>
    <rtept lat="25.0346778" lon="121.5278865"></rtept>
    <rtept lat="25.0347553" lon="121.5274885"></rtept>
    <rtept lat="25.0359107" lon="121.5276896"></rtept>
    <rtept lat="25.0380575" lon="121.5283088"></rtept>
    <rtept lat="25.0380585" lon="121.5281130"></rtept>
    <rtept lat="25.0372158" lon="121.5278680"></rtept>
    <rtept lat="25.0380585" lon="121.5281130"></rtept>
    <rtept lat="25.0380575" lon="121.5283088"></rtept>
    <rtept lat="25.0382105" lon="121.5283589"></rtept>
    <rtept lat="25.0381322" lon="121.5293719"></rtept>
    <rtept lat="25.0381355" lon="121.5292838"></rtept>
    <rtept lat="25.0383407" lon="121.5293416"></rtept>
    <rtept lat="25.0384523" lon="121.5282377"></rtept>
    <rtept lat="25.0390899" lon="121.5284559"></rtept>
    <rtept lat="25.0392403" lon="121.5277995"></rtept>
    <rtept lat="25.0400826" lon="121.5280459"></rtept>
    <rtept lat="25.0392403" lon="121.5277995"></rtept>
    <rtept lat="25.0397664" lon="121.5256483"></rtept>
    <rtept lat="25.0401911" lon="121.5257785"></rtept>
    <rtept lat="25.0409805" lon="121.5223981"></rtept>
    <rtept lat="25.0411196" lon="121.5221965"></rtept>
    <rtept lat="25.0425287" lon="121.5225568"></rtept>
    <rtept lat="25.0426263" lon="121.5221797"></rtept>
    <rtept lat="25.0425530" lon="121.5225957"></rtept>
    <rtept lat="25.0436559" lon="121.5228801"></rtept>
    <rtept lat="25.0451931" lon="121.5170759"></rtept>
    <rtept lat="25.0451127" lon="121.5161130"></rtept>
    <rtept lat="25.0455127" lon="121.5161186"></rtept>
    <rtept lat="25.0455141" lon="121.5150270"></rtept>
    <rtept lat="25.0459780" lon="121.5150238"></rtept>
    <rtept lat="25.0459813" lon="121.5141958"></rtept>
    <rtept lat="25.0456629" lon="121.5141842"></rtept>
    <rtept lat="25.0456622" lon="121.5138157"></rtept>
    <rtept lat="25.0451684" lon="121.5138245"></rtept>
    <rtept lat="25.0454882" lon="121.5138144"></rtept>
    <rtept lat="25.0454986" lon="121.5132454"></rtept>
    <rtept lat="25.0445291" lon="121.5132349"></rtept>
    <rtept lat="25.0443971" lon="121.5123479"></rtept>
    <rtept lat="25.0440815" lon="121.5123685"></rtept>
    <rtept lat="25.0441362" lon="121.5107071"></rtept>
    <rtept lat="25.0422218" lon="121.5107316"></rtept>
    <rtept lat="25.0421049" lon="121.5087628"></rtept>
    <rtept lat="25.0422353" lon="121.5082471"></rtept>
    <rtept lat="25.0421407" lon="121.5082194"></rtept>
    <rtept lat="25.0420788" lon="121.5084597"></rtept>
    <rtept lat="25.0458905" lon="121.5095571"></rtept>
    <rtept lat="25.0460480" lon="121.5092146"></rtept>
    <rtept lat="25.0456100" lon="121.5090889"></rtept>
    <rtept lat="25.0459338" lon="121.5075081"></rtept>
    <rtept lat="25.0451594" lon="121.5072363"></rtept>
    <rtept lat="25.0464023" lon="121.5076437"></rtept>
    <rtept lat="25.0465546" lon="121.5070295"></rtept>
    <rtept lat="25.0475788" lon="121.5073284"></rtept>
    <rtept lat="25.0469757" lon="121.5098844"></rtept>
    <rtept lat="25.0470365" lon="121.5110275"></rtept>
    <rtept lat="25.0469757" lon="121.5098844"></rtept>
    <rtept lat="25.0478370" lon="121.5100552"></rtept>
    <rtept lat="25.0482293" lon="121.5100062"></rtept>
    <rtept lat="25.0500666" lon="121.5104996"></rtept>
    <rtept lat="25.0497824" lon="121.5119380"></rtept>
    <rtept lat="25.0493059" lon="121.5133750"></rtept>
    <rtept lat="25.0501188" lon="121.5135590"></rtept>
    <rtept lat="25.0498731" lon="121.5146463"></rtept>
    <rtept lat="25.0495697" lon="121.5145837"></rtept>
    <rtept lat="25.0495015" lon="121.5149647"></rtept>
    <rtept lat="25.0518873" lon="121.5156196"></rtept>
    <rtept lat="25.0512603" lon="121.5154408"></rtept>
    <rtept lat="25.0516479" lon="121.5135996"></rtept>
    <rtept lat="25.0532098" lon="121.5136153"></rtept>
    <rtept lat="25.0526400" lon="121.5127320"></rtept>
    <rtept lat="25.0539462" lon="121.5126763"></rtept>
    <rtept lat="25.0539121" lon="121.5123280"></rtept>
    <rtept lat="25.0551692" lon="121.5122251"></rtept>
    <rtept lat="25.0550618" lon="121.5116897"></rtept>
    <rtept lat="25.0549195" lon="121.5116978"></rtept>
    <rtept lat="25.0548364" lon="121.5109701"></rtept>
    <rtept lat="25.0544409" lon="121.5109970"></rtept>
    <rtept lat="25.0544119" lon="121.5104594"></rtept>
    <rtept lat="25.0537905" lon="121.5104851"></rtept>
    <rtept lat="25.0537044" lon="121.5102663"></rtept>
    <rtept lat="25.0538570" lon="121.5087559"></rtept>
    <rtept lat="25.0534136" lon="121.5087000"></rtept>
    <rtept lat="25.0535379" lon="121.5081736"></rtept>
    <rtept lat="25.0521502" lon="121.5080264"></rtept>
    <rtept lat="25.0523944" lon="121.5072941"></rtept>
    <rtept lat="25.0542445" lon="121.5076039"></rtept>
    <rtept lat="25.0577197" lon="121.5084849"></rtept>
    <rtept lat="25.0578201" lon="121.5089182"></rtept>
    <rtept lat="25.0581034" lon="121.5088652"></rtept>
    <rtept lat="25.0582652" lon="121.5104751"></rtept>
    <rtept lat="25.0576622" lon="121.5106165"></rtept>
    <rtept lat="25.0577054" lon="121.5127083"></rtept>
    <rtept lat="25.0575881" lon="121.5127131"></rtept>
    <rtept lat="25.0575977" lon="121.5136266"></rtept>
    <rtept lat="25.0569905" lon="121.5136941"></rtept>
    <rtept lat="25.0570137" lon="121.5155743"></rtept>
    <rtept lat="25.0575026" lon="121.5154096"></rtept>
    <rtept lat="25.0579867" lon="121.5167098"></rtept>
    <rtept lat="25.0576124" lon="121.5169856"></rtept>
    <rtept lat="25.0578108" lon="121.5173825"></rtept>
    <rtept lat="25.0576714" lon="121.5177946"></rtept>
    <rtept lat="25.0572995" lon="121.5178658"></rtept>
    <rtept lat="25.0573470" lon="121.5182477"></rtept>
    <rtept lat="25.0602073" lon="121.5183044"></rtept>
    <rtept lat="25.0603378" lon="121.5210066"></rtept>
    <rtept lat="25.0621046" lon="121.5210304"></rtept>
    <rtept lat="25.0627572" lon="121.5208322"></rtept>
    <rtept lat="25.0626942" lon="121.5227569"></rtept>
    <rtept lat="25.0649189" lon="121.5223647"></rtept>
    <rtept lat="25.0649255" lon="121.5242703"></rtept>
    <rtept lat="25.0658310" lon="121.5242967"></rtept>
    <rtept lat="25.0657786" lon="121.5257460"></rtept>
    <rtept lat="25.0683535" lon="121.5257514"></rtept>
    <rtept lat="25.0680701" lon="121.5396938"></rtept>
    <rtept lat="25.0655614" lon="121.5396679"></rtept>
    <rtept lat="25.0660032" lon="121.5396724"></rtept>
    <rtept lat="25.0660254" lon="121.5369612"></rtept>
    <rtept lat="25.0653430" lon="121.5374850"></rtept>
    <rtept lat="25.0643089" lon="121.5377986"></rtept>
    <rtept lat="25.0643165" lon="121.5372626"></rtept>
    <rtept lat="25.0650540" lon="121.5370282"></rtept>
    <rtept lat="25.0646604" lon="121.5361144"></rtept>
    <rtept lat="25.0646807" lon="121.5350294"></rtept>
    <rtept lat="25.0630175" lon="121.5349662"></rtept>
    <rtept lat="25.0630441" lon="121.5342735"></rtept>
    <rtept lat="25.0625468" lon="121.5342565"></rtept>
    <rtept lat="25.0626027" lon="121.5317240"></rtept>
    <rtept lat="25.0603386" lon="121.5316999"></rtept>
    <rtept lat="25.0603343" lon="121.5289685"></rtept>
    <rtept lat="25.0553202" lon="121.5288772"></rtept>
    <rtept lat="25.0552683" lon="121.5315507"></rtept>
    <rtept lat="25.0536533" lon="121.5315333"></rtept>
    <rtept lat="25.0535714" lon="121.5332088"></rtept>
    <rtept lat="25.0529201" lon="121.5332056"></rtept>
    <rtept lat="25.0529096" lon="121.5348136"></rtept>
    <rtept lat="25.0509899" lon="121.5348272"></rtept>
    <rtept lat="25.0509931" lon="121.5347091"></rtept>
    <rtept lat="25.0506601" lon="121.5347091"></rtept>
    <rtept lat="25.0506284" lon="121.5344986"></rtept>
    <rtept lat="25.0497577" lon="121.5345160"></rtept>
    <rtept lat="25.0497203" lon="121.5350318"></rtept>
    <rtept lat="25.0501613" lon="121.5350374"></rtept>
    <rtept lat="25.0501486" lon="121.5365187"></rtept>
    <rtept lat="25.0483935" lon="121.5365289"></rtept>
    <rtept lat="25.0483625" lon="121.5379848"></rtept>
    <rtept lat="25.0477910" lon="121.5379823"></rtept>
    <rtept lat="25.0477446" lon="121.5403887"></rtept>
    <rtept lat="25.0477907" lon="121.5433664"></rtept>
    <rtept lat="25.0482670" lon="121.5433739"></rtept>
    <rtept lat="25.0482567" lon="121.5438797"></rtept>
    <rtept lat="25.0475633" lon="121.5438654"></rtept>
    <rtept lat="25.0482040" lon="121.5468407"></rtept>
    <rtept lat="25.0481930" lon="121.5507403"></rtept>
    <rtept lat="25.0461655" lon="121.5507207"></rtept>
    <rtept lat="25.0461635" lon="121.5520180"></rtept>
    <rtept lat="25.0453133" lon="121.5520071"></rtept>
    <rtept lat="25.0453910" lon="121.5536698"></rtept>
    <rtept lat="25.0450049" lon="121.5537203"></rtept>
  </rte>
  <trk>
    <name>台北恐龍路線 (sized)</name>
    <type>cycling</type>
    <trkseg>
      <trkpt lat="25.0450049" lon="121.5537203"></trkpt>
      <trkpt lat="25.0446746" lon="121.5537635"></trkpt>
      <trkpt lat="25.0445441" lon="121.5537782"></trkpt>
      <trkpt lat="25.0445125" lon="121.5537795"></trkpt>
      <trkpt lat="25.0442475" lon="121.5537594"></trkpt>
      <trkpt lat="25.0441950" lon="121.5537730"></trkpt>
      <trkpt lat="25.0439362" lon="121.5538402"></trkpt>
      <trkpt lat="25.0438152" lon="121.5538700"></trkpt>
      <trkpt lat="25.0435695" lon="121.5539308"></trkpt>
      <trkpt lat="25.0433570" lon="121.5539846"></trkpt>
      <trkpt lat="25.0426146" lon="121.5541723"></trkpt>
      <trkpt lat="25.0425351" lon="121.5541924"></trkpt>
      <trkpt lat="25.0420249" lon="121.5543214"></trkpt>
      <trkpt lat="25.0420236" lon="121.5543941"></trkpt>
      <trkpt lat="25.0420200" lon="121.5545849"></trkpt>
      <trkpt lat="25.0423199" lon="121.5545357"></trkpt>
      <trkpt lat="25.0425985" lon="121.5544912"></trkpt>
      <trkpt lat="25.0425656" lon="121.5542581"></trkpt>
      <trkpt lat="25.0425351" lon="121.5541924"></trkpt>
      <trkpt lat="25.0420249" lon="121.5543214"></trkpt>
      <trkpt lat="25.0415600" lon="121.5544389"></trkpt>
      <trkpt lat="25.0414800" lon="121.5544785"></trkpt>
      <trkpt lat="25.0413414" lon="121.5545010"></trkpt>
      <trkpt lat="25.0412488" lon="121.5545209"></trkpt>
      <trkpt lat="25.0407641" lon="121.5546511"></trkpt>
      <trkpt lat="25.0402979" lon="121.5547764"></trkpt>
      <trkpt lat="25.0398294" lon="121.5549022"></trkpt>
      <trkpt lat="25.0393724" lon="121.5550249"></trkpt>
      <trkpt lat="25.0389199" lon="121.5551528"></trkpt>
      <trkpt lat="25.0387259" lon="121.5551986"></trkpt>
      <trkpt lat="25.0384359" lon="121.5552684"></trkpt>
      <trkpt lat="25.0380469" lon="121.5553699"></trkpt>
      <trkpt lat="25.0379975" lon="121.5553831"></trkpt>
      <trkpt lat="25.0379194" lon="121.5554010"></trkpt>
      <trkpt lat="25.0378200" lon="121.5554242"></trkpt>
      <trkpt lat="25.0378215" lon="121.5553463"></trkpt>
      <trkpt lat="25.0377968" lon="121.5553479"></trkpt>
      <trkpt lat="25.0376647" lon="121.5553577"></trkpt>
      <trkpt lat="25.0376478" lon="121.5553589"></trkpt>
      <trkpt lat="25.0376279" lon="121.5553604"></trkpt>
      <trkpt lat="25.0375471" lon="121.5553665"></trkpt>
      <trkpt lat="25.0374672" lon="121.5553734"></trkpt>
      <trkpt lat="25.0374805" lon="121.5549202"></trkpt>
      <trkpt lat="25.0374820" lon="121.5544683"></trkpt>
      <trkpt lat="25.0370485" lon="121.5544633"></trkpt>
      <trkpt lat="25.0370275" lon="121.5544631"></trkpt>
      <trkpt lat="25.0368120" lon="121.5544604"></trkpt>
      <trkpt lat="25.0365970" lon="121.5544594"></trkpt>
      <trkpt lat="25.0362171" lon="121.5544557"></trkpt>
      <trkpt lat="25.0357880" lon="121.5544522"></trkpt>
      <trkpt lat="25.0354565" lon="121.5544528"></trkpt>
      <trkpt lat="25.0354070" lon="121.5543933"></trkpt>
      <trkpt lat="25.0346936" lon="121.5549978"></trkpt>
      <trkpt lat="25.0346412" lon="121.5550422"></trkpt>
      <trkpt lat="25.0344696" lon="121.5547424"></trkpt>
      <trkpt lat="25.0344180" lon="121.5546521"></trkpt>
      <trkpt lat="25.0343854" lon="121.5546123"></trkpt>
      <trkpt lat="25.0342849" lon="121.5545111"></trkpt>
      <trkpt lat="25.0342370" lon="121.5544723"></trkpt>
      <trkpt lat="25.0342052" lon="121.5544466"></trkpt>
      <trkpt lat="25.0341277" lon="121.5544000"></trkpt>
      <trkpt lat="25.0339984" lon="121.5543444"></trkpt>
      <trkpt lat="25.0339017" lon="121.5543119"></trkpt>
      <trkpt lat="25.0338409" lon="121.5543027"></trkpt>
      <trkpt lat="25.0333384" lon="121.5542934"></trkpt>
      <trkpt lat="25.0332451" lon="121.5542928"></trkpt>
      <trkpt lat="25.0331653" lon="121.5542912"></trkpt>
      <trkpt lat="25.0330886" lon="121.5542896"></trkpt>
      <trkpt lat="25.0329931" lon="121.5542879"></trkpt>
      <trkpt lat="25.0324499" lon="121.5542865"></trkpt>
      <trkpt lat="25.0320757" lon="121.5542755"></trkpt>
      <trkpt lat="25.0316955" lon="121.5542720"></trkpt>
      <trkpt lat="25.0313136" lon="121.5542602"></trkpt>
      <trkpt lat="25.0309303" lon="121.5542439"></trkpt>
      <trkpt lat="25.0305487" lon="121.5542412"></trkpt>
      <trkpt lat="25.0304730" lon="121.5542366"></trkpt>
      <trkpt lat="25.0301939" lon="121.5542198"></trkpt>
      <trkpt lat="25.0296943" lon="121.5540977"></trkpt>
      <trkpt lat="25.0297449" lon="121.5538532"></trkpt>
      <trkpt lat="25.0298868" lon="121.5532964"></trkpt>
      <trkpt lat="25.0299326" lon="121.5530980"></trkpt>
      <trkpt lat="25.0300108" lon="121.5527823"></trkpt>
      <trkpt lat="25.0303399" lon="121.5524219"></trkpt>
      <trkpt lat="25.0300293" lon="121.5520679"></trkpt>
      <trkpt lat="25.0298625" lon="121.5519001"></trkpt>
      <trkpt lat="25.0296609" lon="121.5516882"></trkpt>
      <trkpt lat="25.0294276" lon="121.5513596"></trkpt>
      <trkpt lat="25.0292052" lon="121.5516383"></trkpt>
      <trkpt lat="25.0289013" lon="121.5512735"></trkpt>
      <trkpt lat="25.0287207" lon="121.5513575"></trkpt>
      <trkpt lat="25.0284056" lon="121.5515864"></trkpt>
      <trkpt lat="25.0283179" lon="121.5516020"></trkpt>
      <trkpt lat="25.0282135" lon="121.5512421"></trkpt>
      <trkpt lat="25.0281850" lon="121.5511438"></trkpt>
      <trkpt lat="25.0281055" lon="121.5511261"></trkpt>
      <trkpt lat="25.0277795" lon="121.5512439"></trkpt>
      <trkpt lat="25.0277679" lon="121.5512049"></trkpt>
      <trkpt lat="25.0276250" lon="121.5507244"></trkpt>
      <trkpt lat="25.0277407" lon="121.5506789"></trkpt>
      <trkpt lat="25.0280185" lon="121.5505787"></trkpt>
      <trkpt lat="25.0280476" lon="121.5500251"></trkpt>
      <trkpt lat="25.0280508" lon="121.5498941"></trkpt>
      <trkpt lat="25.0280584" lon="121.5497686"></trkpt>
      <trkpt lat="25.0280574" lon="121.5497358"></trkpt>
      <trkpt lat="25.0280863" lon="121.5491906"></trkpt>
      <trkpt lat="25.0280894" lon="121.5491315"></trkpt>
      <trkpt lat="25.0280927" lon="121.5490692"></trkpt>
      <trkpt lat="25.0280986" lon="121.5489949"></trkpt>
      <trkpt lat="25.0281204" lon="121.5487519"></trkpt>
      <trkpt lat="25.0281367" lon="121.5485085"></trkpt>
      <trkpt lat="25.0280880" lon="121.5485081"></trkpt>
      <trkpt lat="25.0274787" lon="121.5485027"></trkpt>
      <trkpt lat="25.0274715" lon="121.5484367"></trkpt>
      <trkpt lat="25.0274799" lon="121.5480283"></trkpt>
      <trkpt lat="25.0278555" lon="121.5480411"></trkpt>
      <trkpt lat="25.0281119" lon="121.5480419"></trkpt>
      <trkpt lat="25.0281777" lon="121.5480422"></trkpt>
      <trkpt lat="25.0281851" lon="121.5479500"></trkpt>
      <trkpt lat="25.0282236" lon="121.5472731"></trkpt>
      <trkpt lat="25.0282299" lon="121.5470135"></trkpt>
      <trkpt lat="25.0282354" lon="121.5469300"></trkpt>
      <trkpt lat="25.0282350" lon="121.5468733"></trkpt>
      <trkpt lat="25.0282693" lon="121.5461071"></trkpt>
      <trkpt lat="25.0282705" lon="121.5460803"></trkpt>
      <trkpt lat="25.0282733" lon="121.5460188"></trkpt>
      <trkpt lat="25.0282738" lon="121.5460143"></trkpt>
      <trkpt lat="25.0282747" lon="121.5459903"></trkpt>
      <trkpt lat="25.0282772" lon="121.5459253"></trkpt>
      <trkpt lat="25.0282988" lon="121.5453531"></trkpt>
      <trkpt lat="25.0283290" lon="121.5450835"></trkpt>
      <trkpt lat="25.0283596" lon="121.5445615"></trkpt>
      <trkpt lat="25.0283833" lon="121.5440951"></trkpt>
      <trkpt lat="25.0284021" lon="121.5436892"></trkpt>
      <trkpt lat="25.0284583" lon="121.5436891"></trkpt>
      <trkpt lat="25.0284846" lon="121.5436891"></trkpt>
      <trkpt lat="25.0284810" lon="121.5435712"></trkpt>
      <trkpt lat="25.0284800" lon="121.5434497"></trkpt>
      <trkpt lat="25.0284810" lon="121.5435712"></trkpt>
      <trkpt lat="25.0289038" lon="121.5435804"></trkpt>
      <trkpt lat="25.0291443" lon="121.5435856"></trkpt>
      <trkpt lat="25.0291843" lon="121.5435865"></trkpt>
      <trkpt lat="25.0298221" lon="121.5436003"></trkpt>
      <trkpt lat="25.0298466" lon="121.5436008"></trkpt>
      <trkpt lat="25.0299409" lon="121.5436029"></trkpt>
      <trkpt lat="25.0300766" lon="121.5436055"></trkpt>
      <trkpt lat="25.0303481" lon="121.5436107"></trkpt>
      <trkpt lat="25.0307548" lon="121.5436205"></trkpt>
      <trkpt lat="25.0310097" lon="121.5436261"></trkpt>
      <trkpt lat="25.0310809" lon="121.5436276"></trkpt>
      <trkpt lat="25.0311118" lon="121.5436283"></trkpt>
      <trkpt lat="25.0311141" lon="121.5434962"></trkpt>
      <trkpt lat="25.0311181" lon="121.5434182"></trkpt>
      <trkpt lat="25.0318926" lon="121.5434277"></trkpt>
      <trkpt lat="25.0327403" lon="121.5434463"></trkpt>
      <trkpt lat="25.0331456" lon="121.5434562"></trkpt>
      <trkpt lat="25.0331847" lon="121.5434569"></trkpt>
      <trkpt lat="25.0332577" lon="121.5433896"></trkpt>
      <trkpt lat="25.0333007" lon="121.5433902"></trkpt>
      <trkpt lat="25.0333985" lon="121.5433953"></trkpt>
      <trkpt lat="25.0334749" lon="121.5433965"></trkpt>
      <trkpt lat="25.0335042" lon="121.5433968"></trkpt>
      <trkpt lat="25.0336090" lon="121.5434612"></trkpt>
      <trkpt lat="25.0339232" lon="121.5434658"></trkpt>
      <trkpt lat="25.0343387" lon="121.5434749"></trkpt>
      <trkpt lat="25.0349917" lon="121.5434870"></trkpt>
      <trkpt lat="25.0350872" lon="121.5434888"></trkpt>
      <trkpt lat="25.0352247" lon="121.5434913"></trkpt>
      <trkpt lat="25.0360070" lon="121.5435056"></trkpt>
      <trkpt lat="25.0360415" lon="121.5434888"></trkpt>
      <trkpt lat="25.0360918" lon="121.5434903"></trkpt>
      <trkpt lat="25.0361646" lon="121.5434924"></trkpt>
      <trkpt lat="25.0362110" lon="121.5435049"></trkpt>
      <trkpt lat="25.0371569" lon="121.5435260"></trkpt>
      <trkpt lat="25.0376831" lon="121.5435378"></trkpt>
      <trkpt lat="25.0377193" lon="121.5435218"></trkpt>
      <trkpt lat="25.0377195" lon="121.5435046"></trkpt>
      <trkpt lat="25.0377199" lon="121.5434632"></trkpt>
      <trkpt lat="25.0377333" lon="121.5420059"></trkpt>
      <trkpt lat="25.0377349" lon="121.5419369"></trkpt>
      <trkpt lat="25.0375768" lon="121.5412972"></trkpt>
      <trkpt lat="25.0375794" lon="121.5409983"></trkpt>
      <trkpt lat="25.0375842" lon="121.5408379"></trkpt>
      <trkpt lat="25.0375933" lon="121.5400935"></trkpt>
      <trkpt lat="25.0375941" lon="121.5399743"></trkpt>
      <trkpt lat="25.0371734" lon="121.5399555"></trkpt>
      <trkpt lat="25.0371742" lon="121.5408100"></trkpt>
      <trkpt lat="25.0370115" lon="121.5408076"></trkpt>
      <trkpt lat="25.0353485" lon="121.5408176"></trkpt>
      <trkpt lat="25.0353336" lon="121.5414313"></trkpt>
      <trkpt lat="25.0353138" lon="121.5414308"></trkpt>
      <trkpt lat="25.0351409" lon="121.5414265"></trkpt>
      <trkpt lat="25.0347626" lon="121.5414241"></trkpt>
      <trkpt lat="25.0346872" lon="121.5414237"></trkpt>
      <trkpt lat="25.0344972" lon="121.5414201"></trkpt>
      <trkpt lat="25.0338102" lon="121.5414040"></trkpt>
      <trkpt lat="25.0337501" lon="121.5413860"></trkpt>
      <trkpt lat="25.0337561" lon="121.5406506"></trkpt>
      <trkpt lat="25.0337600" lon="121.5404053"></trkpt>
      <trkpt lat="25.0336574" lon="121.5404069"></trkpt>
      <trkpt lat="25.0336305" lon="121.5404053"></trkpt>
      <trkpt lat="25.0336514" lon="121.5395905"></trkpt>
      <trkpt lat="25.0336538" lon="121.5394811"></trkpt>
      <trkpt lat="25.0335585" lon="121.5394799"></trkpt>
      <trkpt lat="25.0334640" lon="121.5394772"></trkpt>
      <trkpt lat="25.0333794" lon="121.5394748"></trkpt>
      <trkpt lat="25.0332976" lon="121.5394753"></trkpt>
      <trkpt lat="25.0330311" lon="121.5394714"></trkpt>
      <trkpt lat="25.0328205" lon="121.5394682"></trkpt>
      <trkpt lat="25.0324293" lon="121.5394632"></trkpt>
      <trkpt lat="25.0320386" lon="121.5394496"></trkpt>
      <trkpt lat="25.0316221" lon="121.5394417"></trkpt>
      <trkpt lat="25.0312012" lon="121.5394338"></trkpt>
      <trkpt lat="25.0311407" lon="121.5394327"></trkpt>
      <trkpt lat="25.0311393" lon="121.5394882"></trkpt>
      <trkpt lat="25.0311162" lon="121.5405542"></trkpt>
      <trkpt lat="25.0306880" lon="121.5405508"></trkpt>
      <trkpt lat="25.0306862" lon="121.5399077"></trkpt>
      <trkpt lat="25.0306902" lon="121.5394267"></trkpt>
      <trkpt lat="25.0307867" lon="121.5394299"></trkpt>
      <trkpt lat="25.0307866" lon="121.5393664"></trkpt>
      <trkpt lat="25.0307842" lon="121.5380466"></trkpt>
      <trkpt lat="25.0306621" lon="121.5380463"></trkpt>
      <trkpt lat="25.0306650" lon="121.5379911"></trkpt>
      <trkpt lat="25.0307841" lon="121.5379902"></trkpt>
      <trkpt lat="25.0311729" lon="121.5379980"></trkpt>
      <trkpt lat="25.0316417" lon="121.5379957"></trkpt>
      <trkpt lat="25.0320651" lon="121.5380020"></trkpt>
      <trkpt lat="25.0321984" lon="121.5380032"></trkpt>
      <trkpt lat="25.0322796" lon="121.5380040"></trkpt>
      <trkpt lat="25.0323754" lon="121.5380054"></trkpt>
      <trkpt lat="25.0324614" lon="121.5380066"></trkpt>
      <trkpt lat="25.0328553" lon="121.5380122"></trkpt>
      <trkpt lat="25.0333101" lon="121.5380171"></trkpt>
      <trkpt lat="25.0334100" lon="121.5380201"></trkpt>
      <trkpt lat="25.0334940" lon="121.5380232"></trkpt>
      <trkpt lat="25.0335897" lon="121.5380255"></trkpt>
      <trkpt lat="25.0336636" lon="121.5380285"></trkpt>
      <trkpt lat="25.0343745" lon="121.5380405"></trkpt>
      <trkpt lat="25.0344187" lon="121.5380421"></trkpt>
      <trkpt lat="25.0344444" lon="121.5380439"></trkpt>
      <trkpt lat="25.0344991" lon="121.5380453"></trkpt>
      <trkpt lat="25.0345544" lon="121.5380536"></trkpt>
      <trkpt lat="25.0347595" lon="121.5380821"></trkpt>
      <trkpt lat="25.0352063" lon="121.5380868"></trkpt>
      <trkpt lat="25.0353960" lon="121.5380920"></trkpt>
      <trkpt lat="25.0356820" lon="121.5381602"></trkpt>
      <trkpt lat="25.0359319" lon="121.5382207"></trkpt>
      <trkpt lat="25.0361670" lon="121.5382516"></trkpt>
      <trkpt lat="25.0362177" lon="121.5382509"></trkpt>
      <trkpt lat="25.0363806" lon="121.5382512"></trkpt>
      <trkpt lat="25.0363958" lon="121.5374625"></trkpt>
      <trkpt lat="25.0363960" lon="121.5373732"></trkpt>
      <trkpt lat="25.0364565" lon="121.5373742"></trkpt>
      <trkpt lat="25.0368390" lon="121.5373811"></trkpt>
      <trkpt lat="25.0368897" lon="121.5373820"></trkpt>
      <trkpt lat="25.0370526" lon="121.5373850"></trkpt>
      <trkpt lat="25.0372036" lon="121.5373876"></trkpt>
      <trkpt lat="25.0372617" lon="121.5373886"></trkpt>
      <trkpt lat="25.0376509" lon="121.5373920"></trkpt>
      <trkpt lat="25.0376854" lon="121.5374214"></trkpt>
      <trkpt lat="25.0377131" lon="121.5374450"></trkpt>
      <trkpt lat="25.0378671" lon="121.5375427"></trkpt>
      <trkpt lat="25.0379692" lon="121.5375417"></trkpt>
      <trkpt lat="25.0380331" lon="121.5375411"></trkpt>
      <trkpt lat="25.0381470" lon="121.5375400"></trkpt>
      <trkpt lat="25.0381666" lon="121.5375398"></trkpt>
      <trkpt lat="25.0382157" lon="121.5375393"></trkpt>
      <trkpt lat="25.0383187" lon="121.5375383"></trkpt>
      <trkpt lat="25.0384620" lon="121.5374419"></trkpt>
      <trkpt lat="25.0384877" lon="121.5374240"></trkpt>
      <trkpt lat="25.0385263" lon="121.5373928"></trkpt>
      <trkpt lat="25.0385543" lon="121.5374109"></trkpt>
      <trkpt lat="25.0396636" lon="121.5374162"></trkpt>
      <trkpt lat="25.0401542" lon="121.5373375"></trkpt>
      <trkpt lat="25.0401445" lon="121.5359233"></trkpt>
      <trkpt lat="25.0401473" lon="121.5356884"></trkpt>
      <trkpt lat="25.0401574" lon="121.5348458"></trkpt>
      <trkpt lat="25.0401614" lon="121.5345115"></trkpt>
      <trkpt lat="25.0401742" lon="121.5334455"></trkpt>
      <trkpt lat="25.0401851" lon="121.5331298"></trkpt>
      <trkpt lat="25.0401872" lon="121.5330717"></trkpt>
      <trkpt lat="25.0401422" lon="121.5330717"></trkpt>
      <trkpt lat="25.0400831" lon="121.5330015"></trkpt>
      <trkpt lat="25.0400832" lon="121.5329550"></trkpt>
      <trkpt lat="25.0400832" lon="121.5329146"></trkpt>
      <trkpt lat="25.0400833" lon="121.5328746"></trkpt>
      <trkpt lat="25.0400835" lon="121.5327324"></trkpt>
      <trkpt lat="25.0400837" lon="121.5326160"></trkpt>
      <trkpt lat="25.0390031" lon="121.5325836"></trkpt>
      <trkpt lat="25.0383915" lon="121.5325859"></trkpt>
      <trkpt lat="25.0383544" lon="121.5325497"></trkpt>
      <trkpt lat="25.0382825" lon="121.5325481"></trkpt>
      <trkpt lat="25.0382172" lon="121.5325467"></trkpt>
      <trkpt lat="25.0381820" lon="121.5325459"></trkpt>
      <trkpt lat="25.0381235" lon="121.5325446"></trkpt>
      <trkpt lat="25.0381056" lon="121.5325444"></trkpt>
      <trkpt lat="25.0380587" lon="121.5325432"></trkpt>
      <trkpt lat="25.0380639" lon="121.5323139"></trkpt>
      <trkpt lat="25.0380186" lon="121.5323048"></trkpt>
      <trkpt lat="25.0375766" lon="121.5322150"></trkpt>
      <trkpt lat="25.0375907" lon="121.5320320"></trkpt>
      <trkpt lat="25.0373418" lon="121.5319714"></trkpt>
      <trkpt lat="25.0371120" lon="121.5319144"></trkpt>
      <trkpt lat="25.0370380" lon="121.5318846"></trkpt>
      <trkpt lat="25.0369026" lon="121.5322998"></trkpt>
      <trkpt lat="25.0368059" lon="121.5325324"></trkpt>
      <trkpt lat="25.0367189" lon="121.5325306"></trkpt>
      <trkpt lat="25.0366116" lon="121.5325376"></trkpt>
      <trkpt lat="25.0365972" lon="121.5325386"></trkpt>
      <trkpt lat="25.0361426" lon="121.5325277"></trkpt>
      <trkpt lat="25.0354604" lon="121.5325155"></trkpt>
      <trkpt lat="25.0354630" lon="121.5321666"></trkpt>
      <trkpt lat="25.0354646" lon="121.5319563"></trkpt>
      <trkpt lat="25.0353176" lon="121.5315795"></trkpt>
      <trkpt lat="25.0350786" lon="121.5313459"></trkpt>
      <trkpt lat="25.0349418" lon="121.5312123"></trkpt>
      <trkpt lat="25.0348424" lon="121.5311655"></trkpt>
      <trkpt lat="25.0352213" lon="121.5308197"></trkpt>
      <trkpt lat="25.0353817" lon="121.5306772"></trkpt>
      <trkpt lat="25.0355516" lon="121.5305505"></trkpt>
      <trkpt lat="25.0357942" lon="121.5303659"></trkpt>
      <trkpt lat="25.0358848" lon="121.5302179"></trkpt>
      <trkpt lat="25.0358416" lon="121.5301649"></trkpt>
      <trkpt lat="25.0356308" lon="121.5297689"></trkpt>
      <trkpt lat="25.0352419" lon="121.5299289"></trkpt>
      <trkpt lat="25.0351791" lon="121.5299404"></trkpt>
      <trkpt lat="25.0351332" lon="121.5299490"></trkpt>
      <trkpt lat="25.0346806" lon="121.5300129"></trkpt>
      <trkpt lat="25.0346471" lon="121.5300436"></trkpt>
      <trkpt lat="25.0346579" lon="121.5293895"></trkpt>
      <trkpt lat="25.0346636" lon="121.5289549"></trkpt>
      <trkpt lat="25.0346854" lon="121.5288742"></trkpt>
      <trkpt lat="25.0346939" lon="121.5288429"></trkpt>
      <trkpt lat="25.0347760" lon="121.5285395"></trkpt>
      <trkpt lat="25.0348601" lon="121.5282285"></trkpt>
      <trkpt lat="25.0349384" lon="121.5279525"></trkpt>
      <trkpt lat="25.0346778" lon="121.5278865"></trkpt>
      <trkpt lat="25.0346962" lon="121.5278301"></trkpt>
      <trkpt lat="25.0347346" lon="121.5276321"></trkpt>
      <trkpt lat="25.0347553" lon="121.5274885"></trkpt>
      <trkpt lat="25.0350587" lon="121.5275149"></trkpt>
      <trkpt lat="25.0354415" lon="121.5276308"></trkpt>
      <trkpt lat="25.0354761" lon="121.5276413"></trkpt>
      <trkpt lat="25.0355026" lon="121.5276490"></trkpt>
      <trkpt lat="25.0358666" lon="121.5277552"></trkpt>
      <trkpt lat="25.0358946" lon="121.5277634"></trkpt>
      <trkpt lat="25.0359107" lon="121.5276896"></trkpt>
      <trkpt lat="25.0361562" lon="121.5277606"></trkpt>
      <trkpt lat="25.0368269" lon="121.5279523"></trkpt>
      <trkpt lat="25.0371743" lon="121.5280490"></trkpt>
      <trkpt lat="25.0373967" lon="121.5281133"></trkpt>
      <trkpt lat="25.0376051" lon="121.5281760"></trkpt>
      <trkpt lat="25.0378136" lon="121.5282387"></trkpt>
      <trkpt lat="25.0380575" lon="121.5283088"></trkpt>
      <trkpt lat="25.0380581" lon="121.5281956"></trkpt>
      <trkpt lat="25.0380585" lon="121.5281130"></trkpt>
      <trkpt lat="25.0378565" lon="121.5280543"></trkpt>
      <trkpt lat="25.0378297" lon="121.5280465"></trkpt>
      <trkpt lat="25.0377993" lon="121.5280377"></trkpt>
      <trkpt lat="25.0372423" lon="121.5278757"></trkpt>
      <trkpt lat="25.0372158" lon="121.5278680"></trkpt>
      <trkpt lat="25.0372423" lon="121.5278757"></trkpt>
      <trkpt lat="25.0377993" lon="121.5280377"></trkpt>
      <trkpt lat="25.0378297" lon="121.5280465"></trkpt>
      <trkpt lat="25.0378565" lon="121.5280543"></trkpt>
      <trkpt lat="25.0380585" lon="121.5281130"></trkpt>
      <trkpt lat="25.0380581" lon="121.5281956"></trkpt>
      <trkpt lat="25.0380575" lon="121.5283088"></trkpt>
      <trkpt lat="25.0381416" lon="121.5283333"></trkpt>
      <trkpt lat="25.0382105" lon="121.5283589"></trkpt>
      <trkpt lat="25.0382090" lon="121.5284564"></trkpt>
      <trkpt lat="25.0381912" lon="121.5292995"></trkpt>
      <trkpt lat="25.0381894" lon="121.5293840"></trkpt>
      <trkpt lat="25.0381322" lon="121.5293719"></trkpt>
      <trkpt lat="25.0381355" lon="121.5292838"></trkpt>
      <trkpt lat="25.0381912" lon="121.5292995"></trkpt>
      <trkpt lat="25.0382341" lon="121.5293116"></trkpt>
      <trkpt lat="25.0382713" lon="121.5293221"></trkpt>
      <trkpt lat="25.0383407" lon="121.5293416"></trkpt>
      <trkpt lat="25.0383474" lon="121.5286988"></trkpt>
      <trkpt lat="25.0383964" lon="121.5286991"></trkpt>
      <trkpt lat="25.0383993" lon="121.5285647"></trkpt>
      <trkpt lat="25.0384461" lon="121.5285301"></trkpt>
      <trkpt lat="25.0384486" lon="121.5284483"></trkpt>
      <trkpt lat="25.0384522" lon="121.5283115"></trkpt>
      <trkpt lat="25.0384523" lon="121.5282377"></trkpt>
      <trkpt lat="25.0386412" lon="121.5283046"></trkpt>
      <trkpt lat="25.0386566" lon="121.5283101"></trkpt>
      <trkpt lat="25.0386808" lon="121.5283187"></trkpt>
      <trkpt lat="25.0390573" lon="121.5284430"></trkpt>
      <trkpt lat="25.0390899" lon="121.5284559"></trkpt>
      <trkpt lat="25.0392403" lon="121.5277995"></trkpt>
      <trkpt lat="25.0396873" lon="121.5279283"></trkpt>
      <trkpt lat="25.0400826" lon="121.5280459"></trkpt>
      <trkpt lat="25.0396873" lon="121.5279283"></trkpt>
      <trkpt lat="25.0392403" lon="121.5277995"></trkpt>
      <trkpt lat="25.0395280" lon="121.5266213"></trkpt>
      <trkpt lat="25.0397456" lon="121.5257487"></trkpt>
      <trkpt lat="25.0397664" lon="121.5256483"></trkpt>
      <trkpt lat="25.0400474" lon="121.5257366"></trkpt>
      <trkpt lat="25.0400761" lon="121.5257450"></trkpt>
      <trkpt lat="25.0401911" lon="121.5257785"></trkpt>
      <trkpt lat="25.0402106" lon="121.5256966"></trkpt>
      <trkpt lat="25.0402199" lon="121.5256575"></trkpt>
      <trkpt lat="25.0403652" lon="121.5249724"></trkpt>
      <trkpt lat="25.0405763" lon="121.5240948"></trkpt>
      <trkpt lat="25.0405979" lon="121.5240140"></trkpt>
      <trkpt lat="25.0406210" lon="121.5239232"></trkpt>
      <trkpt lat="25.0406879" lon="121.5236405"></trkpt>
      <trkpt lat="25.0407551" lon="121.5233413"></trkpt>
      <trkpt lat="25.0408658" lon="121.5229075"></trkpt>
      <trkpt lat="25.0409805" lon="121.5223981"></trkpt>
      <trkpt lat="25.0410396" lon="121.5224142"></trkpt>
      <trkpt lat="25.0410700" lon="121.5223905"></trkpt>
      <trkpt lat="25.0410985" lon="121.5222771"></trkpt>
      <trkpt lat="25.0411196" lon="121.5221965"></trkpt>
      <trkpt lat="25.0423327" lon="121.5225365"></trkpt>
      <trkpt lat="25.0423481" lon="121.5225166"></trkpt>
      <trkpt lat="25.0423582" lon="121.5225036"></trkpt>
      <trkpt lat="25.0424452" lon="121.5225321"></trkpt>
      <trkpt lat="25.0425287" lon="121.5225568"></trkpt>
      <trkpt lat="25.0426263" lon="121.5221797"></trkpt>
      <trkpt lat="25.0425287" lon="121.5225568"></trkpt>
      <trkpt lat="25.0425390" lon="121.5225733"></trkpt>
      <trkpt lat="25.0425530" lon="121.5225957"></trkpt>
      <trkpt lat="25.0430422" lon="121.5227352"></trkpt>
      <trkpt lat="25.0435591" lon="121.5228827"></trkpt>
      <trkpt lat="25.0435761" lon="121.5228626"></trkpt>
      <trkpt lat="25.0436559" lon="121.5228801"></trkpt>
      <trkpt lat="25.0437034" lon="121.5226843"></trkpt>
      <trkpt lat="25.0437867" lon="121.5223406"></trkpt>
      <trkpt lat="25.0438244" lon="121.5221849"></trkpt>
      <trkpt lat="25.0438980" lon="121.5218812"></trkpt>
      <trkpt lat="25.0439420" lon="121.5216997"></trkpt>
      <trkpt lat="25.0440123" lon="121.5214094"></trkpt>
      <trkpt lat="25.0440602" lon="121.5214233"></trkpt>
      <trkpt lat="25.0440678" lon="121.5214042"></trkpt>
      <trkpt lat="25.0441119" lon="121.5213606"></trkpt>
      <trkpt lat="25.0441241" lon="121.5213051"></trkpt>
      <trkpt lat="25.0441471" lon="121.5212265"></trkpt>
      <trkpt lat="25.0441471" lon="121.5211111"></trkpt>
      <trkpt lat="25.0442580" lon="121.5206232"></trkpt>
      <trkpt lat="25.0443518" lon="121.5202182"></trkpt>
      <trkpt lat="25.0445226" lon="121.5194803"></trkpt>
      <trkpt lat="25.0445724" lon="121.5194643"></trkpt>
      <trkpt lat="25.0445818" lon="121.5194254"></trkpt>
      <trkpt lat="25.0446067" lon="121.5193228"></trkpt>
      <trkpt lat="25.0446148" lon="121.5192892"></trkpt>
      <trkpt lat="25.0446233" lon="121.5192540"></trkpt>
      <trkpt lat="25.0446426" lon="121.5191735"></trkpt>
      <trkpt lat="25.0446526" lon="121.5191330"></trkpt>
      <trkpt lat="25.0446258" lon="121.5190915"></trkpt>
      <trkpt lat="25.0446294" lon="121.5190750"></trkpt>
      <trkpt lat="25.0449017" lon="121.5180628"></trkpt>
      <trkpt lat="25.0450718" lon="121.5172916"></trkpt>
      <trkpt lat="25.0451026" lon="121.5172753"></trkpt>
      <trkpt lat="25.0451169" lon="121.5172678"></trkpt>
      <trkpt lat="25.0451398" lon="121.5171907"></trkpt>
      <trkpt lat="25.0451727" lon="121.5170700"></trkpt>
      <trkpt lat="25.0451931" lon="121.5170759"></trkpt>
      <trkpt lat="25.0451932" lon="121.5170621"></trkpt>
      <trkpt lat="25.0451968" lon="121.5169981"></trkpt>
      <trkpt lat="25.0451960" lon="121.5169257"></trkpt>
      <trkpt lat="25.0451931" lon="121.5166505"></trkpt>
      <trkpt lat="25.0451448" lon="121.5166429"></trkpt>
      <trkpt lat="25.0451399" lon="121.5166133"></trkpt>
      <trkpt lat="25.0451044" lon="121.5166143"></trkpt>
      <trkpt lat="25.0451127" lon="121.5161130"></trkpt>
      <trkpt lat="25.0455127" lon="121.5161186"></trkpt>
      <trkpt lat="25.0455136" lon="121.5154448"></trkpt>
      <trkpt lat="25.0455140" lon="121.5151066"></trkpt>
      <trkpt lat="25.0455141" lon="121.5150270"></trkpt>
      <trkpt lat="25.0459780" lon="121.5150238"></trkpt>
      <trkpt lat="25.0459778" lon="121.5149076"></trkpt>
      <trkpt lat="25.0459813" lon="121.5141958"></trkpt>
      <trkpt lat="25.0456881" lon="121.5141851"></trkpt>
      <trkpt lat="25.0456629" lon="121.5141842"></trkpt>
      <trkpt lat="25.0456622" lon="121.5138157"></trkpt>
      <trkpt lat="25.0454882" lon="121.5138144"></trkpt>
      <trkpt lat="25.0451684" lon="121.5138245"></trkpt>
      <trkpt lat="25.0454882" lon="121.5138144"></trkpt>
      <trkpt lat="25.0454973" lon="121.5133166"></trkpt>
      <trkpt lat="25.0454986" lon="121.5132454"></trkpt>
      <trkpt lat="25.0452333" lon="121.5132436"></trkpt>
      <trkpt lat="25.0451709" lon="121.5132432"></trkpt>
      <trkpt lat="25.0450863" lon="121.5132422"></trkpt>
      <trkpt lat="25.0447786" lon="121.5132382"></trkpt>
      <trkpt lat="25.0445291" lon="121.5132349"></trkpt>
      <trkpt lat="25.0445342" lon="121.5131719"></trkpt>
      <trkpt lat="25.0445348" lon="121.5131609"></trkpt>
      <trkpt lat="25.0445344" lon="121.5130083"></trkpt>
      <trkpt lat="25.0444742" lon="121.5126572"></trkpt>
      <trkpt lat="25.0443971" lon="121.5123479"></trkpt>
      <trkpt lat="25.0440815" lon="121.5123685"></trkpt>
      <trkpt lat="25.0440870" lon="121.5122418"></trkpt>
      <trkpt lat="25.0441167" lon="121.5116120"></trkpt>
      <trkpt lat="25.0441224" lon="121.5115374"></trkpt>
      <trkpt lat="25.0441243" lon="121.5114874"></trkpt>
      <trkpt lat="25.0441362" lon="121.5107071"></trkpt>
      <trkpt lat="25.0440900" lon="121.5107062"></trkpt>
      <trkpt lat="25.0435185" lon="121.5106948"></trkpt>
      <trkpt lat="25.0434897" lon="121.5107255"></trkpt>
      <trkpt lat="25.0434608" lon="121.5107562"></trkpt>
      <trkpt lat="25.0431034" lon="121.5107491"></trkpt>
      <trkpt lat="25.0430424" lon="121.5107479"></trkpt>
      <trkpt lat="25.0427823" lon="121.5107427"></trkpt>
      <trkpt lat="25.0426185" lon="121.5107395"></trkpt>
      <trkpt lat="25.0422218" lon="121.5107316"></trkpt>
      <trkpt lat="25.0422147" lon="121.5105481"></trkpt>
      <trkpt lat="25.0422131" lon="121.5105148"></trkpt>
      <trkpt lat="25.0422061" lon="121.5103715"></trkpt>
      <trkpt lat="25.0421877" lon="121.5098338"></trkpt>
      <trkpt lat="25.0421800" lon="121.5096086"></trkpt>
      <trkpt lat="25.0421649" lon="121.5091657"></trkpt>
      <trkpt lat="25.0421156" lon="121.5089728"></trkpt>
      <trkpt lat="25.0421049" lon="121.5087628"></trkpt>
      <trkpt lat="25.0421311" lon="121.5086616"></trkpt>
      <trkpt lat="25.0421415" lon="121.5086215"></trkpt>
      <trkpt lat="25.0421791" lon="121.5084866"></trkpt>
      <trkpt lat="25.0422050" lon="121.5083771"></trkpt>
      <trkpt lat="25.0422353" lon="121.5082471"></trkpt>
      <trkpt lat="25.0422082" lon="121.5082391"></trkpt>
      <trkpt lat="25.0421407" lon="121.5082194"></trkpt>
      <trkpt lat="25.0421069" lon="121.5083483"></trkpt>
      <trkpt lat="25.0420788" lon="121.5084597"></trkpt>
      <trkpt lat="25.0421791" lon="121.5084866"></trkpt>
      <trkpt lat="25.0422985" lon="121.5085206"></trkpt>
      <trkpt lat="25.0430073" lon="121.5087246"></trkpt>
      <trkpt lat="25.0438180" lon="121.5089579"></trkpt>
      <trkpt lat="25.0441191" lon="121.5090445"></trkpt>
      <trkpt lat="25.0442089" lon="121.5090703"></trkpt>
      <trkpt lat="25.0443203" lon="121.5091024"></trkpt>
      <trkpt lat="25.0447131" lon="121.5092155"></trkpt>
      <trkpt lat="25.0449429" lon="121.5092816"></trkpt>
      <trkpt lat="25.0450740" lon="121.5093193"></trkpt>
      <trkpt lat="25.0451564" lon="121.5093430"></trkpt>
      <trkpt lat="25.0452515" lon="121.5093752"></trkpt>
      <trkpt lat="25.0456854" lon="121.5095057"></trkpt>
      <trkpt lat="25.0458905" lon="121.5095571"></trkpt>
      <trkpt lat="25.0459813" lon="121.5095045"></trkpt>
      <trkpt lat="25.0460224" lon="121.5093266"></trkpt>
      <trkpt lat="25.0460480" lon="121.5092146"></trkpt>
      <trkpt lat="25.0459723" lon="121.5091930"></trkpt>
      <trkpt lat="25.0456100" lon="121.5090889"></trkpt>
      <trkpt lat="25.0456312" lon="121.5089849"></trkpt>
      <trkpt lat="25.0457337" lon="121.5083866"></trkpt>
      <trkpt lat="25.0457461" lon="121.5083210"></trkpt>
      <trkpt lat="25.0458330" lon="121.5079548"></trkpt>
      <trkpt lat="25.0458453" lon="121.5079027"></trkpt>
      <trkpt lat="25.0458569" lon="121.5078457"></trkpt>
      <trkpt lat="25.0459235" lon="121.5075318"></trkpt>
      <trkpt lat="25.0459338" lon="121.5075081"></trkpt>
      <trkpt lat="25.0457687" lon="121.5074523"></trkpt>
      <trkpt lat="25.0456345" lon="121.5074125"></trkpt>
      <trkpt lat="25.0455929" lon="121.5073950"></trkpt>
      <trkpt lat="25.0455395" lon="121.5073602"></trkpt>
      <trkpt lat="25.0451594" lon="121.5072363"></trkpt>
      <trkpt lat="25.0455395" lon="121.5073602"></trkpt>
      <trkpt lat="25.0455929" lon="121.5073950"></trkpt>
      <trkpt lat="25.0456345" lon="121.5074125"></trkpt>
      <trkpt lat="25.0457687" lon="121.5074523"></trkpt>
      <trkpt lat="25.0459338" lon="121.5075081"></trkpt>
      <trkpt lat="25.0459763" lon="121.5075188"></trkpt>
      <trkpt lat="25.0464023" lon="121.5076437"></trkpt>
      <trkpt lat="25.0465299" lon="121.5071269"></trkpt>
      <trkpt lat="25.0465546" lon="121.5070295"></trkpt>
      <trkpt lat="25.0466194" lon="121.5070490"></trkpt>
      <trkpt lat="25.0472829" lon="121.5072384"></trkpt>
      <trkpt lat="25.0475002" lon="121.5073005"></trkpt>
      <trkpt lat="25.0475788" lon="121.5073284"></trkpt>
      <trkpt lat="25.0475564" lon="121.5074115"></trkpt>
      <trkpt lat="25.0473426" lon="121.5083263"></trkpt>
      <trkpt lat="25.0470951" lon="121.5093889"></trkpt>
      <trkpt lat="25.0470665" lon="121.5095062"></trkpt>
      <trkpt lat="25.0470339" lon="121.5096417"></trkpt>
      <trkpt lat="25.0469757" lon="121.5098844"></trkpt>
      <trkpt lat="25.0469669" lon="121.5100315"></trkpt>
      <trkpt lat="25.0469677" lon="121.5100403"></trkpt>
      <trkpt lat="25.0469986" lon="121.5105123"></trkpt>
      <trkpt lat="25.0470227" lon="121.5107880"></trkpt>
      <trkpt lat="25.0470308" lon="121.5109612"></trkpt>
      <trkpt lat="25.0470335" lon="121.5109987"></trkpt>
      <trkpt lat="25.0470365" lon="121.5110275"></trkpt>
      <trkpt lat="25.0470335" lon="121.5109987"></trkpt>
      <trkpt lat="25.0470308" lon="121.5109612"></trkpt>
      <trkpt lat="25.0470227" lon="121.5107880"></trkpt>
      <trkpt lat="25.0469986" lon="121.5105123"></trkpt>
      <trkpt lat="25.0469677" lon="121.5100403"></trkpt>
      <trkpt lat="25.0469669" lon="121.5100315"></trkpt>
      <trkpt lat="25.0469757" lon="121.5098844"></trkpt>
      <trkpt lat="25.0470238" lon="121.5099029"></trkpt>
      <trkpt lat="25.0470850" lon="121.5099197"></trkpt>
      <trkpt lat="25.0474050" lon="121.5099464"></trkpt>
      <trkpt lat="25.0478370" lon="121.5100552"></trkpt>
      <trkpt lat="25.0480761" lon="121.5099848"></trkpt>
      <trkpt lat="25.0482293" lon="121.5100062"></trkpt>
      <trkpt lat="25.0483958" lon="121.5100584"></trkpt>
      <trkpt lat="25.0484956" lon="121.5100855"></trkpt>
      <trkpt lat="25.0488721" lon="121.5101837"></trkpt>
      <trkpt lat="25.0491982" lon="121.5102682"></trkpt>
      <trkpt lat="25.0494087" lon="121.5103236"></trkpt>
      <trkpt lat="25.0499592" lon="121.5104695"></trkpt>
      <trkpt lat="25.0500666" lon="121.5104996"></trkpt>
      <trkpt lat="25.0500508" lon="121.5106333"></trkpt>
      <trkpt lat="25.0498610" lon="121.5116197"></trkpt>
      <trkpt lat="25.0497824" lon="121.5119380"></trkpt>
      <trkpt lat="25.0493633" lon="121.5131907"></trkpt>
      <trkpt lat="25.0493427" lon="121.5132521"></trkpt>
      <trkpt lat="25.0493059" lon="121.5133750"></trkpt>
      <trkpt lat="25.0494352" lon="121.5133644"></trkpt>
      <trkpt lat="25.0495362" lon="121.5133588"></trkpt>
      <trkpt lat="25.0501188" lon="121.5135590"></trkpt>
      <trkpt lat="25.0499717" lon="121.5142368"></trkpt>
      <trkpt lat="25.0499551" lon="121.5143135"></trkpt>
      <trkpt lat="25.0498985" lon="121.5145744"></trkpt>
      <trkpt lat="25.0498731" lon="121.5146463"></trkpt>
      <trkpt lat="25.0495697" lon="121.5145837"></trkpt>
      <trkpt lat="25.0495015" lon="121.5149647"></trkpt>
      <trkpt lat="25.0497094" lon="121.5150287"></trkpt>
      <trkpt lat="25.0498372" lon="121.5150623"></trkpt>
      <trkpt lat="25.0500336" lon="121.5151133"></trkpt>
      <trkpt lat="25.0502151" lon="121.5151659"></trkpt>
      <trkpt lat="25.0502853" lon="121.5151862"></trkpt>
      <trkpt lat="25.0503519" lon="121.5152062"></trkpt>
      <trkpt lat="25.0504705" lon="121.5152389"></trkpt>
      <trkpt lat="25.0507422" lon="121.5153107"></trkpt>
      <trkpt lat="25.0509616" lon="121.5153696"></trkpt>
      <trkpt lat="25.0511680" lon="121.5154188"></trkpt>
      <trkpt lat="25.0512603" lon="121.5154408"></trkpt>
      <trkpt lat="25.0513490" lon="121.5154666"></trkpt>
      <trkpt lat="25.0518873" lon="121.5156196"></trkpt>
      <trkpt lat="25.0513490" lon="121.5154666"></trkpt>
      <trkpt lat="25.0512603" lon="121.5154408"></trkpt>
      <trkpt lat="25.0512732" lon="121.5153676"></trkpt>
      <trkpt lat="25.0513561" lon="121.5148968"></trkpt>
      <trkpt lat="25.0513621" lon="121.5148521"></trkpt>
      <trkpt lat="25.0513848" lon="121.5147512"></trkpt>
      <trkpt lat="25.0513893" lon="121.5147321"></trkpt>
      <trkpt lat="25.0515334" lon="121.5140949"></trkpt>
      <trkpt lat="25.0515594" lon="121.5139798"></trkpt>
      <trkpt lat="25.0515788" lon="121.5138510"></trkpt>
      <trkpt lat="25.0515943" lon="121.5137937"></trkpt>
      <trkpt lat="25.0516479" lon="121.5135996"></trkpt>
      <trkpt lat="25.0518120" lon="121.5136167"></trkpt>
      <trkpt lat="25.0519132" lon="121.5136219"></trkpt>
      <trkpt lat="25.0522960" lon="121.5136519"></trkpt>
      <trkpt lat="25.0532098" lon="121.5136153"></trkpt>
      <trkpt lat="25.0529533" lon="121.5132213"></trkpt>
      <trkpt lat="25.0528956" lon="121.5131312"></trkpt>
      <trkpt lat="25.0526400" lon="121.5127320"></trkpt>
      <trkpt lat="25.0533974" lon="121.5127368"></trkpt>
      <trkpt lat="25.0534258" lon="121.5127185"></trkpt>
      <trkpt lat="25.0534573" lon="121.5126989"></trkpt>
      <trkpt lat="25.0539462" lon="121.5126763"></trkpt>
      <trkpt lat="25.0539121" lon="121.5123280"></trkpt>
      <trkpt lat="25.0544667" lon="121.5122824"></trkpt>
      <trkpt lat="25.0549151" lon="121.5122455"></trkpt>
      <trkpt lat="25.0551692" lon="121.5122251"></trkpt>
      <trkpt lat="25.0550618" lon="121.5116897"></trkpt>
      <trkpt lat="25.0549195" lon="121.5116978"></trkpt>
      <trkpt lat="25.0549114" lon="121.5116272"></trkpt>
      <trkpt lat="25.0548364" lon="121.5109701"></trkpt>
      <trkpt lat="25.0546440" lon="121.5109816"></trkpt>
      <trkpt lat="25.0544409" lon="121.5109970"></trkpt>
      <trkpt lat="25.0544119" lon="121.5104594"></trkpt>
      <trkpt lat="25.0537905" lon="121.5104851"></trkpt>
      <trkpt lat="25.0537877" lon="121.5104597"></trkpt>
      <trkpt lat="25.0537659" lon="121.5102574"></trkpt>
      <trkpt lat="25.0537044" lon="121.5102663"></trkpt>
      <trkpt lat="25.0537198" lon="121.5101760"></trkpt>
      <trkpt lat="25.0537815" lon="121.5095617"></trkpt>
      <trkpt lat="25.0538076" lon="121.5092265"></trkpt>
      <trkpt lat="25.0538302" lon="121.5089375"></trkpt>
      <trkpt lat="25.0538570" lon="121.5087559"></trkpt>
      <trkpt lat="25.0534790" lon="121.5087120"></trkpt>
      <trkpt lat="25.0534136" lon="121.5087000"></trkpt>
      <trkpt lat="25.0534220" lon="121.5086633"></trkpt>
      <trkpt lat="25.0535228" lon="121.5082173"></trkpt>
      <trkpt lat="25.0535379" lon="121.5081736"></trkpt>
      <trkpt lat="25.0521502" lon="121.5080264"></trkpt>
      <trkpt lat="25.0523811" lon="121.5073906"></trkpt>
      <trkpt lat="25.0523944" lon="121.5072941"></trkpt>
      <trkpt lat="25.0525252" lon="121.5073220"></trkpt>
      <trkpt lat="25.0535140" lon="121.5075055"></trkpt>
      <trkpt lat="25.0535938" lon="121.5074702"></trkpt>
      <trkpt lat="25.0537132" lon="121.5074963"></trkpt>
      <trkpt lat="25.0538096" lon="121.5075128"></trkpt>
      <trkpt lat="25.0542445" lon="121.5076039"></trkpt>
      <trkpt lat="25.0544632" lon="121.5076665"></trkpt>
      <trkpt lat="25.0550569" lon="121.5078198"></trkpt>
      <trkpt lat="25.0552556" lon="121.5078661"></trkpt>
      <trkpt lat="25.0553994" lon="121.5078965"></trkpt>
      <trkpt lat="25.0559817" lon="121.5080547"></trkpt>
      <trkpt lat="25.0563049" lon="121.5081390"></trkpt>
      <trkpt lat="25.0568704" lon="121.5082879"></trkpt>
      <trkpt lat="25.0569678" lon="121.5083199"></trkpt>
      <trkpt lat="25.0574549" lon="121.5084426"></trkpt>
      <trkpt lat="25.0577197" lon="121.5084849"></trkpt>
      <trkpt lat="25.0577492" lon="121.5086643"></trkpt>
      <trkpt lat="25.0578201" lon="121.5089182"></trkpt>
      <trkpt lat="25.0580319" lon="121.5088786"></trkpt>
      <trkpt lat="25.0581034" lon="121.5088652"></trkpt>
      <trkpt lat="25.0581776" lon="121.5096264"></trkpt>
      <trkpt lat="25.0582077" lon="121.5096919"></trkpt>
      <trkpt lat="25.0582138" lon="121.5097386"></trkpt>
      <trkpt lat="25.0582434" lon="121.5101899"></trkpt>
      <trkpt lat="25.0582652" lon="121.5104751"></trkpt>
      <trkpt lat="25.0582553" lon="121.5105463"></trkpt>
      <trkpt lat="25.0581591" lon="121.5105714"></trkpt>
      <trkpt lat="25.0576622" lon="121.5106165"></trkpt>
      <trkpt lat="25.0576404" lon="121.5109462"></trkpt>
      <trkpt lat="25.0576381" lon="121.5110782"></trkpt>
      <trkpt lat="25.0576318" lon="121.5115399"></trkpt>
      <trkpt lat="25.0576793" lon="121.5115370"></trkpt>
      <trkpt lat="25.0576821" lon="121.5116101"></trkpt>
      <trkpt lat="25.0576933" lon="121.5119724"></trkpt>
      <trkpt lat="25.0577054" lon="121.5127083"></trkpt>
      <trkpt lat="25.0575881" lon="121.5127131"></trkpt>
      <trkpt lat="25.0575919" lon="121.5130820"></trkpt>
      <trkpt lat="25.0575977" lon="121.5136266"></trkpt>
      <trkpt lat="25.0570910" lon="121.5136751"></trkpt>
      <trkpt lat="25.0569905" lon="121.5136941"></trkpt>
      <trkpt lat="25.0569922" lon="121.5138554"></trkpt>
      <trkpt lat="25.0569925" lon="121.5141126"></trkpt>
      <trkpt lat="25.0570090" lon="121.5154746"></trkpt>
      <trkpt lat="25.0570137" lon="121.5155743"></trkpt>
      <trkpt lat="25.0572536" lon="121.5155147"></trkpt>
      <trkpt lat="25.0575026" lon="121.5154096"></trkpt>
      <trkpt lat="25.0575630" lon="121.5155322"></trkpt>
      <trkpt lat="25.0577257" lon="121.5162108"></trkpt>
      <trkpt lat="25.0579867" lon="121.5167098"></trkpt>
      <trkpt lat="25.0578181" lon="121.5168276"></trkpt>
      <trkpt lat="25.0576124" lon="121.5169856"></trkpt>
      <trkpt lat="25.0577598" lon="121.5172272"></trkpt>
      <trkpt lat="25.0577779" lon="121.5172800"></trkpt>
      <trkpt lat="25.0578108" lon="121.5173825"></trkpt>
      <trkpt lat="25.0576714" lon="121.5177946"></trkpt>
      <trkpt lat="25.0575787" lon="121.5178152"></trkpt>
      <trkpt lat="25.0572995" lon="121.5178658"></trkpt>
      <trkpt lat="25.0573126" lon="121.5179717"></trkpt>
      <trkpt lat="25.0573274" lon="121.5180899"></trkpt>
      <trkpt lat="25.0573470" lon="121.5182477"></trkpt>
      <trkpt lat="25.0574672" lon="121.5182594"></trkpt>
      <trkpt lat="25.0576993" lon="121.5182640"></trkpt>
      <trkpt lat="25.0580888" lon="121.5182745"></trkpt>
      <trkpt lat="25.0583709" lon="121.5182787"></trkpt>
      <trkpt lat="25.0584411" lon="121.5182746"></trkpt>
      <trkpt lat="25.0585205" lon="121.5182700"></trkpt>
      <trkpt lat="25.0588067" lon="121.5182750"></trkpt>
      <trkpt lat="25.0591509" lon="121.5182807"></trkpt>
      <trkpt lat="25.0595085" lon="121.5182884"></trkpt>
      <trkpt lat="25.0601029" lon="121.5183023"></trkpt>
      <trkpt lat="25.0602073" lon="121.5183044"></trkpt>
      <trkpt lat="25.0602054" lon="121.5183960"></trkpt>
      <trkpt lat="25.0602126" lon="121.5186045"></trkpt>
      <trkpt lat="25.0602282" lon="121.5188111"></trkpt>
      <trkpt lat="25.0602699" lon="121.5193642"></trkpt>
      <trkpt lat="25.0603002" lon="121.5198764"></trkpt>
      <trkpt lat="25.0603292" lon="121.5202416"></trkpt>
      <trkpt lat="25.0603340" lon="121.5203248"></trkpt>
      <trkpt lat="25.0603445" lon="121.5206612"></trkpt>
      <trkpt lat="25.0603400" lon="121.5209230"></trkpt>
      <trkpt lat="25.0603378" lon="121.5210066"></trkpt>
      <trkpt lat="25.0603795" lon="121.5210101"></trkpt>
      <trkpt lat="25.0609689" lon="121.5210474"></trkpt>
      <trkpt lat="25.0610080" lon="121.5210485"></trkpt>
      <trkpt lat="25.0614130" lon="121.5210640"></trkpt>
      <trkpt lat="25.0618002" lon="121.5210425"></trkpt>
      <trkpt lat="25.0621046" lon="121.5210304"></trkpt>
      <trkpt lat="25.0621683" lon="121.5210258"></trkpt>
      <trkpt lat="25.0623449" lon="121.5209657"></trkpt>
      <trkpt lat="25.0625369" lon="121.5208282"></trkpt>
      <trkpt lat="25.0626487" lon="121.5208284"></trkpt>
      <trkpt lat="25.0627572" lon="121.5208322"></trkpt>
      <trkpt lat="25.0627547" lon="121.5209258"></trkpt>
      <trkpt lat="25.0627434" lon="121.5213466"></trkpt>
      <trkpt lat="25.0627076" lon="121.5216952"></trkpt>
      <trkpt lat="25.0626985" lon="121.5220281"></trkpt>
      <trkpt lat="25.0626878" lon="121.5224210"></trkpt>
      <trkpt lat="25.0627012" lon="121.5225195"></trkpt>
      <trkpt lat="25.0626975" lon="121.5226448"></trkpt>
      <trkpt lat="25.0626942" lon="121.5227569"></trkpt>
      <trkpt lat="25.0628383" lon="121.5227163"></trkpt>
      <trkpt lat="25.0629747" lon="121.5226862"></trkpt>
      <trkpt lat="25.0636735" lon="121.5225308"></trkpt>
      <trkpt lat="25.0639207" lon="121.5224725"></trkpt>
      <trkpt lat="25.0641082" lon="121.5224375"></trkpt>
      <trkpt lat="25.0642862" lon="121.5224120"></trkpt>
      <trkpt lat="25.0646520" lon="121.5223747"></trkpt>
      <trkpt lat="25.0648095" lon="121.5223688"></trkpt>
      <trkpt lat="25.0649189" lon="121.5223647"></trkpt>
      <trkpt lat="25.0649241" lon="121.5224221"></trkpt>
      <trkpt lat="25.0649525" lon="121.5228949"></trkpt>
      <trkpt lat="25.0649255" lon="121.5242703"></trkpt>
      <trkpt lat="25.0654149" lon="121.5242836"></trkpt>
      <trkpt lat="25.0658310" lon="121.5242967"></trkpt>
      <trkpt lat="25.0658233" lon="121.5252210"></trkpt>
      <trkpt lat="25.0657786" lon="121.5257460"></trkpt>
      <trkpt lat="25.0661657" lon="121.5257315"></trkpt>
      <trkpt lat="25.0665840" lon="121.5257452"></trkpt>
      <trkpt lat="25.0666702" lon="121.5257480"></trkpt>
      <trkpt lat="25.0667304" lon="121.5257489"></trkpt>
      <trkpt lat="25.0670679" lon="121.5257538"></trkpt>
      <trkpt lat="25.0674586" lon="121.5257686"></trkpt>
      <trkpt lat="25.0679124" lon="121.5257603"></trkpt>
      <trkpt lat="25.0682815" lon="121.5257495"></trkpt>
      <trkpt lat="25.0683535" lon="121.5257514"></trkpt>
      <trkpt lat="25.0683523" lon="121.5258411"></trkpt>
      <trkpt lat="25.0683515" lon="121.5259006"></trkpt>
      <trkpt lat="25.0683347" lon="121.5264000"></trkpt>
      <trkpt lat="25.0683141" lon="121.5274990"></trkpt>
      <trkpt lat="25.0683134" lon="121.5275382"></trkpt>
      <trkpt lat="25.0683119" lon="121.5276173"></trkpt>
      <trkpt lat="25.0683068" lon="121.5276981"></trkpt>
      <trkpt lat="25.0682904" lon="121.5280469"></trkpt>
      <trkpt lat="25.0682871" lon="121.5281249"></trkpt>
      <trkpt lat="25.0682672" lon="121.5294660"></trkpt>
      <trkpt lat="25.0682418" lon="121.5303703"></trkpt>
      <trkpt lat="25.0682382" lon="121.5304608"></trkpt>
      <trkpt lat="25.0682361" lon="121.5306073"></trkpt>
      <trkpt lat="25.0682327" lon="121.5308022"></trkpt>
      <trkpt lat="25.0682228" lon="121.5314191"></trkpt>
      <trkpt lat="25.0682157" lon="121.5318484"></trkpt>
      <trkpt lat="25.0682045" lon="121.5324842"></trkpt>
      <trkpt lat="25.0682023" lon="121.5326184"></trkpt>
      <trkpt lat="25.0682058" lon="121.5328105"></trkpt>
      <trkpt lat="25.0682069" lon="121.5328722"></trkpt>
      <trkpt lat="25.0682076" lon="121.5329153"></trkpt>
      <trkpt lat="25.0682039" lon="121.5330745"></trkpt>
      <trkpt lat="25.0681940" lon="121.5333384"></trkpt>
      <trkpt lat="25.0681928" lon="121.5335240"></trkpt>
      <trkpt lat="25.0681879" lon="121.5335649"></trkpt>
      <trkpt lat="25.0681872" lon="121.5336584"></trkpt>
      <trkpt lat="25.0681769" lon="121.5342609"></trkpt>
      <trkpt lat="25.0681429" lon="121.5357274"></trkpt>
      <trkpt lat="25.0681347" lon="121.5360832"></trkpt>
      <trkpt lat="25.0681333" lon="121.5361423"></trkpt>
      <trkpt lat="25.0681316" lon="121.5362184"></trkpt>
      <trkpt lat="25.0681299" lon="121.5362909"></trkpt>
      <trkpt lat="25.0681258" lon="121.5364983"></trkpt>
      <trkpt lat="25.0681225" lon="121.5366514"></trkpt>
      <trkpt lat="25.0681197" lon="121.5368088"></trkpt>
      <trkpt lat="25.0680976" lon="121.5379239"></trkpt>
      <trkpt lat="25.0680965" lon="121.5379783"></trkpt>
      <trkpt lat="25.0680948" lon="121.5380662"></trkpt>
      <trkpt lat="25.0680932" lon="121.5381318"></trkpt>
      <trkpt lat="25.0680890" lon="121.5383468"></trkpt>
      <trkpt lat="25.0680883" lon="121.5384357"></trkpt>
      <trkpt lat="25.0680873" lon="121.5387061"></trkpt>
      <trkpt lat="25.0680701" lon="121.5396938"></trkpt>
      <trkpt lat="25.0680180" lon="121.5396933"></trkpt>
      <trkpt lat="25.0679821" lon="121.5396929"></trkpt>
      <trkpt lat="25.0676124" lon="121.5396891"></trkpt>
      <trkpt lat="25.0672000" lon="121.5396848"></trkpt>
      <trkpt lat="25.0668177" lon="121.5396808"></trkpt>
      <trkpt lat="25.0664087" lon="121.5396766"></trkpt>
      <trkpt lat="25.0660466" lon="121.5396729"></trkpt>
      <trkpt lat="25.0660032" lon="121.5396724"></trkpt>
      <trkpt lat="25.0659241" lon="121.5396716"></trkpt>
      <trkpt lat="25.0655614" lon="121.5396679"></trkpt>
      <trkpt lat="25.0659241" lon="121.5396716"></trkpt>
      <trkpt lat="25.0660032" lon="121.5396724"></trkpt>
      <trkpt lat="25.0660039" lon="121.5395925"></trkpt>
      <trkpt lat="25.0660143" lon="121.5383175"></trkpt>
      <trkpt lat="25.0660219" lon="121.5373846"></trkpt>
      <trkpt lat="25.0660254" lon="121.5369612"></trkpt>
      <trkpt lat="25.0656633" lon="121.5372817"></trkpt>
      <trkpt lat="25.0655834" lon="121.5373348"></trkpt>
      <trkpt lat="25.0653430" lon="121.5374850"></trkpt>
      <trkpt lat="25.0651900" lon="121.5375531"></trkpt>
      <trkpt lat="25.0649977" lon="121.5376310"></trkpt>
      <trkpt lat="25.0646356" lon="121.5377356"></trkpt>
      <trkpt lat="25.0644071" lon="121.5377797"></trkpt>
      <trkpt lat="25.0643729" lon="121.5377863"></trkpt>
      <trkpt lat="25.0643089" lon="121.5377986"></trkpt>
      <trkpt lat="25.0643144" lon="121.5373846"></trkpt>
      <trkpt lat="25.0643148" lon="121.5373545"></trkpt>
      <trkpt lat="25.0643165" lon="121.5372626"></trkpt>
      <trkpt lat="25.0646159" lon="121.5371907"></trkpt>
      <trkpt lat="25.0648223" lon="121.5371220"></trkpt>
      <trkpt lat="25.0648860" lon="121.5371008"></trkpt>
      <trkpt lat="25.0649283" lon="121.5370825"></trkpt>
      <trkpt lat="25.0650540" lon="121.5370282"></trkpt>
      <trkpt lat="25.0650066" lon="121.5369166"></trkpt>
      <trkpt lat="25.0648987" lon="121.5366627"></trkpt>
      <trkpt lat="25.0648656" lon="121.5365849"></trkpt>
      <trkpt lat="25.0648348" lon="121.5365143"></trkpt>
      <trkpt lat="25.0648072" lon="121.5364510"></trkpt>
      <trkpt lat="25.0646604" lon="121.5361144"></trkpt>
      <trkpt lat="25.0646807" lon="121.5350294"></trkpt>
      <trkpt lat="25.0644670" lon="121.5350217"></trkpt>
      <trkpt lat="25.0642010" lon="121.5350130"></trkpt>
      <trkpt lat="25.0638167" lon="121.5349898"></trkpt>
      <trkpt lat="25.0634202" lon="121.5349857"></trkpt>
      <trkpt lat="25.0630175" lon="121.5349662"></trkpt>
      <trkpt lat="25.0630441" lon="121.5342735"></trkpt>
      <trkpt lat="25.0626248" lon="121.5342566"></trkpt>
      <trkpt lat="25.0625468" lon="121.5342565"></trkpt>
      <trkpt lat="25.0625690" lon="121.5334997"></trkpt>
      <trkpt lat="25.0625708" lon="121.5334371"></trkpt>
      <trkpt lat="25.0625718" lon="121.5334027"></trkpt>
      <trkpt lat="25.0625640" lon="121.5332820"></trkpt>
      <trkpt lat="25.0625671" lon="121.5331517"></trkpt>
      <trkpt lat="25.0625692" lon="121.5330180"></trkpt>
      <trkpt lat="25.0625934" lon="121.5318379"></trkpt>
      <trkpt lat="25.0626027" lon="121.5317240"></trkpt>
      <trkpt lat="25.0624571" lon="121.5317680"></trkpt>
      <trkpt lat="25.0623447" lon="121.5317738"></trkpt>
      <trkpt lat="25.0619429" lon="121.5317673"></trkpt>
      <trkpt lat="25.0615420" lon="121.5317634"></trkpt>
      <trkpt lat="25.0611524" lon="121.5317620"></trkpt>
      <trkpt lat="25.0607742" lon="121.5317190"></trkpt>
      <trkpt lat="25.0603386" lon="121.5316999"></trkpt>
      <trkpt lat="25.0603504" lon="121.5307827"></trkpt>
      <trkpt lat="25.0603508" lon="121.5302574"></trkpt>
      <trkpt lat="25.0603227" lon="121.5301651"></trkpt>
      <trkpt lat="25.0603244" lon="121.5297516"></trkpt>
      <trkpt lat="25.0603334" lon="121.5290371"></trkpt>
      <trkpt lat="25.0603343" lon="121.5289685"></trkpt>
      <trkpt lat="25.0598075" lon="121.5289609"></trkpt>
      <trkpt lat="25.0593621" lon="121.5289505"></trkpt>
      <trkpt lat="25.0589611" lon="121.5289342"></trkpt>
      <trkpt lat="25.0585197" lon="121.5289340"></trkpt>
      <trkpt lat="25.0580019" lon="121.5288959"></trkpt>
      <trkpt lat="25.0574066" lon="121.5289143"></trkpt>
      <trkpt lat="25.0571662" lon="121.5289067"></trkpt>
      <trkpt lat="25.0568139" lon="121.5288923"></trkpt>
      <trkpt lat="25.0564774" lon="121.5288998"></trkpt>
      <trkpt lat="25.0560576" lon="121.5288916"></trkpt>
      <trkpt lat="25.0556804" lon="121.5288842"></trkpt>
      <trkpt lat="25.0553202" lon="121.5288772"></trkpt>
      <trkpt lat="25.0552968" lon="121.5301568"></trkpt>
      <trkpt lat="25.0552683" lon="121.5315507"></trkpt>
      <trkpt lat="25.0549049" lon="121.5315643"></trkpt>
      <trkpt lat="25.0548207" lon="121.5315631"></trkpt>
      <trkpt lat="25.0543745" lon="121.5315453"></trkpt>
      <trkpt lat="25.0540249" lon="121.5315415"></trkpt>
      <trkpt lat="25.0536533" lon="121.5315333"></trkpt>
      <trkpt lat="25.0536477" lon="121.5320157"></trkpt>
      <trkpt lat="25.0536430" lon="121.5325516"></trkpt>
      <trkpt lat="25.0536437" lon="121.5328034"></trkpt>
      <trkpt lat="25.0536439" lon="121.5328925"></trkpt>
      <trkpt lat="25.0536421" lon="121.5329760"></trkpt>
      <trkpt lat="25.0535783" lon="121.5329761"></trkpt>
      <trkpt lat="25.0535753" lon="121.5331183"></trkpt>
      <trkpt lat="25.0535714" lon="121.5332088"></trkpt>
      <trkpt lat="25.0529449" lon="121.5332057"></trkpt>
      <trkpt lat="25.0529201" lon="121.5332056"></trkpt>
      <trkpt lat="25.0529131" lon="121.5336224"></trkpt>
      <trkpt lat="25.0529111" lon="121.5343229"></trkpt>
      <trkpt lat="25.0529064" lon="121.5347285"></trkpt>
      <trkpt lat="25.0529096" lon="121.5348136"></trkpt>
      <trkpt lat="25.0525498" lon="121.5348127"></trkpt>
      <trkpt lat="25.0524933" lon="121.5348044"></trkpt>
      <trkpt lat="25.0524612" lon="121.5348035"></trkpt>
      <trkpt lat="25.0522093" lon="121.5347964"></trkpt>
      <trkpt lat="25.0520875" lon="121.5347941"></trkpt>
      <trkpt lat="25.0519535" lon="121.5347922"></trkpt>
      <trkpt lat="25.0518392" lon="121.5347918"></trkpt>
      <trkpt lat="25.0518378" lon="121.5348306"></trkpt>
      <trkpt lat="25.0514022" lon="121.5348286"></trkpt>
      <trkpt lat="25.0509899" lon="121.5348272"></trkpt>
      <trkpt lat="25.0509905" lon="121.5347747"></trkpt>
      <trkpt lat="25.0509931" lon="121.5347091"></trkpt>
      <trkpt lat="25.0506601" lon="121.5347091"></trkpt>
      <trkpt lat="25.0506476" lon="121.5346865"></trkpt>
      <trkpt lat="25.0506489" lon="121.5345183"></trkpt>
      <trkpt lat="25.0506281" lon="121.5345172"></trkpt>
      <trkpt lat="25.0506284" lon="121.5344986"></trkpt>
      <trkpt lat="25.0505746" lon="121.5344994"></trkpt>
      <trkpt lat="25.0501851" lon="121.5344974"></trkpt>
      <trkpt lat="25.0501212" lon="121.5344953"></trkpt>
      <trkpt lat="25.0501194" lon="121.5345111"></trkpt>
      <trkpt lat="25.0497577" lon="121.5345160"></trkpt>
      <trkpt lat="25.0497566" lon="121.5347126"></trkpt>
      <trkpt lat="25.0497260" lon="121.5347118"></trkpt>
      <trkpt lat="25.0497273" lon="121.5347587"></trkpt>
      <trkpt lat="25.0497257" lon="121.5348100"></trkpt>
      <trkpt lat="25.0497216" lon="121.5349811"></trkpt>
      <trkpt lat="25.0497203" lon="121.5350318"></trkpt>
      <trkpt lat="25.0497592" lon="121.5350323"></trkpt>
      <trkpt lat="25.0501613" lon="121.5350374"></trkpt>
      <trkpt lat="25.0501492" lon="121.5364112"></trkpt>
      <trkpt lat="25.0501486" lon="121.5365187"></trkpt>
      <trkpt lat="25.0496775" lon="121.5365001"></trkpt>
      <trkpt lat="25.0496188" lon="121.5364980"></trkpt>
      <trkpt lat="25.0495377" lon="121.5364952"></trkpt>
      <trkpt lat="25.0494336" lon="121.5364893"></trkpt>
      <trkpt lat="25.0492957" lon="121.5364810"></trkpt>
      <trkpt lat="25.0485127" lon="121.5364744"></trkpt>
      <trkpt lat="25.0483935" lon="121.5365289"></trkpt>
      <trkpt lat="25.0483926" lon="121.5365879"></trkpt>
      <trkpt lat="25.0483757" lon="121.5369385"></trkpt>
      <trkpt lat="25.0483745" lon="121.5370332"></trkpt>
      <trkpt lat="25.0483659" lon="121.5377215"></trkpt>
      <trkpt lat="25.0483625" lon="121.5379848"></trkpt>
      <trkpt lat="25.0482758" lon="121.5379846"></trkpt>
      <trkpt lat="25.0479829" lon="121.5379824"></trkpt>
      <trkpt lat="25.0477910" lon="121.5379823"></trkpt>
      <trkpt lat="25.0477808" lon="121.5390879"></trkpt>
      <trkpt lat="25.0477446" lon="121.5403887"></trkpt>
      <trkpt lat="25.0477330" lon="121.5412826"></trkpt>
      <trkpt lat="25.0477474" lon="121.5421332"></trkpt>
      <trkpt lat="25.0477907" lon="121.5433664"></trkpt>
      <trkpt lat="25.0481470" lon="121.5433717"></trkpt>
      <trkpt lat="25.0481891" lon="121.5433714"></trkpt>
      <trkpt lat="25.0482670" lon="121.5433739"></trkpt>
      <trkpt lat="25.0482600" lon="121.5437342"></trkpt>
      <trkpt lat="25.0482567" lon="121.5438797"></trkpt>
      <trkpt lat="25.0481305" lon="121.5438775"></trkpt>
      <trkpt lat="25.0477630" lon="121.5438694"></trkpt>
      <trkpt lat="25.0477163" lon="121.5438683"></trkpt>
      <trkpt lat="25.0476832" lon="121.5438676"></trkpt>
      <trkpt lat="25.0475633" lon="121.5438654"></trkpt>
      <trkpt lat="25.0475992" lon="121.5440063"></trkpt>
      <trkpt lat="25.0476335" lon="121.5441454"></trkpt>
      <trkpt lat="25.0476503" lon="121.5442162"></trkpt>
      <trkpt lat="25.0476615" lon="121.5442633"></trkpt>
      <trkpt lat="25.0478235" lon="121.5449455"></trkpt>
      <trkpt lat="25.0478953" lon="121.5452472"></trkpt>
      <trkpt lat="25.0479676" lon="121.5455512"></trkpt>
      <trkpt lat="25.0479808" lon="121.5456070"></trkpt>
      <trkpt lat="25.0480022" lon="121.5456968"></trkpt>
      <trkpt lat="25.0480466" lon="121.5458956"></trkpt>
      <trkpt lat="25.0480512" lon="121.5459359"></trkpt>
      <trkpt lat="25.0480605" lon="121.5459799"></trkpt>
      <trkpt lat="25.0481239" lon="121.5463938"></trkpt>
      <trkpt lat="25.0481427" lon="121.5465967"></trkpt>
      <trkpt lat="25.0481485" lon="121.5466714"></trkpt>
      <trkpt lat="25.0481536" lon="121.5467364"></trkpt>
      <trkpt lat="25.0481563" lon="121.5467709"></trkpt>
      <trkpt lat="25.0482040" lon="121.5468407"></trkpt>
      <trkpt lat="25.0482047" lon="121.5468791"></trkpt>
      <trkpt lat="25.0482047" lon="121.5469345"></trkpt>
      <trkpt lat="25.0482047" lon="121.5469941"></trkpt>
      <trkpt lat="25.0482047" lon="121.5472451"></trkpt>
      <trkpt lat="25.0482047" lon="121.5473035"></trkpt>
      <trkpt lat="25.0482047" lon="121.5473526"></trkpt>
      <trkpt lat="25.0482051" lon="121.5474292"></trkpt>
      <trkpt lat="25.0482048" lon="121.5475069"></trkpt>
      <trkpt lat="25.0482047" lon="121.5475318"></trkpt>
      <trkpt lat="25.0482045" lon="121.5475920"></trkpt>
      <trkpt lat="25.0482040" lon="121.5477135"></trkpt>
      <trkpt lat="25.0482062" lon="121.5483804"></trkpt>
      <trkpt lat="25.0482064" lon="121.5484500"></trkpt>
      <trkpt lat="25.0482067" lon="121.5485455"></trkpt>
      <trkpt lat="25.0482059" lon="121.5486680"></trkpt>
      <trkpt lat="25.0482042" lon="121.5489337"></trkpt>
      <trkpt lat="25.0482029" lon="121.5491664"></trkpt>
      <trkpt lat="25.0482032" lon="121.5493021"></trkpt>
      <trkpt lat="25.0481959" lon="121.5494114"></trkpt>
      <trkpt lat="25.0481963" lon="121.5494750"></trkpt>
      <trkpt lat="25.0481939" lon="121.5497070"></trkpt>
      <trkpt lat="25.0481889" lon="121.5499708"></trkpt>
      <trkpt lat="25.0481953" lon="121.5503166"></trkpt>
      <trkpt lat="25.0481935" lon="121.5504354"></trkpt>
      <trkpt lat="25.0481925" lon="121.5505050"></trkpt>
      <trkpt lat="25.0481916" lon="121.5505650"></trkpt>
      <trkpt lat="25.0481920" lon="121.5506212"></trkpt>
      <trkpt lat="25.0481930" lon="121.5507403"></trkpt>
      <trkpt lat="25.0481007" lon="121.5507377"></trkpt>
      <trkpt lat="25.0476231" lon="121.5507246"></trkpt>
      <trkpt lat="25.0471352" lon="121.5507125"></trkpt>
      <trkpt lat="25.0466999" lon="121.5507029"></trkpt>
      <trkpt lat="25.0466292" lon="121.5507045"></trkpt>
      <trkpt lat="25.0462151" lon="121.5507219"></trkpt>
      <trkpt lat="25.0461655" lon="121.5507207"></trkpt>
      <trkpt lat="25.0461640" lon="121.5507745"></trkpt>
      <trkpt lat="25.0461635" lon="121.5520180"></trkpt>
      <trkpt lat="25.0457589" lon="121.5520124"></trkpt>
      <trkpt lat="25.0453133" lon="121.5520071"></trkpt>
      <trkpt lat="25.0453011" lon="121.5524783"></trkpt>
      <trkpt lat="25.0453518" lon="121.5530199"></trkpt>
      <trkpt lat="25.0453910" lon="121.5536698"></trkpt>
      <trkpt lat="25.0450049" lon="121.5537203"></trkpt>
    </trkseg>
  </trk>
</gpx>
