<?xml version="1.0" encoding="UTF-8"?>
<gpx version="1.1" creator="shape-route-poc" xmlns="http://www.topografix.com/GPX/1/1">
  <metadata>
    <name>台北恐龍路線 (poc10)</name>
    <desc>trex · 12.5 km · bike · shape distance 0.148 · 11 repeated segments</desc>
    <time>2026-09-11T09:05:15Z</time>
  </metadata>
  <trk>
    <name>台北恐龍路線 (poc10)</name>
    <type>cycling</type>
    <trkseg>
      <trkpt lat="25.0389547" lon="121.5358794"></trkpt>
      <trkpt lat="25.0389716" lon="121.5348316"></trkpt>
      <trkpt lat="25.0392834" lon="121.5348333"></trkpt>
      <trkpt lat="25.0393564" lon="121.5348367"></trkpt>
      <trkpt lat="25.0396358" lon="121.5348495"></trkpt>
      <trkpt lat="25.0397225" lon="121.5348485"></trkpt>
      <trkpt lat="25.0398296" lon="121.5348473"></trkpt>
      <trkpt lat="25.0401574" lon="121.5348458"></trkpt>
      <trkpt lat="25.0401614" lon="121.5345115"></trkpt>
      <trkpt lat="25.0406344" lon="121.5345030"></trkpt>
      <trkpt lat="25.0406387" lon="121.5346225"></trkpt>
      <trkpt lat="25.0411368" lon="121.5346208"></trkpt>
      <trkpt lat="25.0415493" lon="121.5346205"></trkpt>
      <trkpt lat="25.0418959" lon="121.5346844"></trkpt>
      <trkpt lat="25.0420421" lon="121.5336388"></trkpt>
      <trkpt lat="25.0421061" lon="121.5331198"></trkpt>
      <trkpt lat="25.0422061" lon="121.5331400"></trkpt>
      <trkpt lat="25.0423463" lon="121.5331684"></trkpt>
      <trkpt lat="25.0424123" lon="121.5331819"></trkpt>
      <trkpt lat="25.0424258" lon="121.5331134"></trkpt>
      <trkpt lat="25.0424825" lon="121.5330569"></trkpt>
      <trkpt lat="25.0427714" lon="121.5330597"></trkpt>
      <trkpt lat="25.0431913" lon="121.5330638"></trkpt>
      <trkpt lat="25.0435104" lon="121.5330687"></trkpt>
      <trkpt lat="25.0436125" lon="121.5330703"></trkpt>
      <trkpt lat="25.0436664" lon="121.5330705"></trkpt>
      <trkpt lat="25.0437090" lon="121.5330707"></trkpt>
      <trkpt lat="25.0440027" lon="121.5330719"></trkpt>
      <trkpt lat="25.0441900" lon="121.5330727"></trkpt>
      <trkpt lat="25.0442803" lon="121.5330731"></trkpt>
      <trkpt lat="25.0442713" lon="121.5329958"></trkpt>
      <trkpt lat="25.0443975" lon="121.5330006"></trkpt>
      <trkpt lat="25.0444366" lon="121.5331644"></trkpt>
      <trkpt lat="25.0445226" lon="121.5331638"></trkpt>
      <trkpt lat="25.0445318" lon="121.5330828"></trkpt>
      <trkpt lat="25.0449587" lon="121.5330841"></trkpt>
      <trkpt lat="25.0449599" lon="121.5330073"></trkpt>
      <trkpt lat="25.0451891" lon="121.5330087"></trkpt>
      <trkpt lat="25.0453065" lon="121.5329883"></trkpt>
      <trkpt lat="25.0454234" lon="121.5329923"></trkpt>
      <trkpt lat="25.0455158" lon="121.5329955"></trkpt>
      <trkpt lat="25.0455740" lon="121.5329956"></trkpt>
      <trkpt lat="25.0457560" lon="121.5329999"></trkpt>
      <trkpt lat="25.0457290" lon="121.5331147"></trkpt>
      <trkpt lat="25.0457163" lon="121.5332086"></trkpt>
      <trkpt lat="25.0457040" lon="121.5335965"></trkpt>
      <trkpt lat="25.0456996" lon="121.5340123"></trkpt>
      <trkpt lat="25.0456884" lon="121.5350631"></trkpt>
      <trkpt lat="25.0456234" lon="121.5353295"></trkpt>
      <trkpt lat="25.0455898" lon="121.5353708"></trkpt>
      <trkpt lat="25.0455134" lon="121.5354423"></trkpt>
      <trkpt lat="25.0456344" lon="121.5356246"></trkpt>
      <trkpt lat="25.0457011" lon="121.5357130"></trkpt>
      <trkpt lat="25.0457187" lon="121.5357356"></trkpt>
      <trkpt lat="25.0457426" lon="121.5357662"></trkpt>
      <trkpt lat="25.0458753" lon="121.5360034"></trkpt>
      <trkpt lat="25.0459534" lon="121.5361792"></trkpt>
      <trkpt lat="25.0459757" lon="121.5362553"></trkpt>
      <trkpt lat="25.0459966" lon="121.5363266"></trkpt>
      <trkpt lat="25.0460224" lon="121.5364065"></trkpt>
      <trkpt lat="25.0461247" lon="121.5369195"></trkpt>
      <trkpt lat="25.0461373" lon="121.5370032"></trkpt>
      <trkpt lat="25.0461394" lon="121.5370381"></trkpt>
      <trkpt lat="25.0461475" lon="121.5370856"></trkpt>
      <trkpt lat="25.0461692" lon="121.5372129"></trkpt>
      <trkpt lat="25.0461741" lon="121.5372414"></trkpt>
      <trkpt lat="25.0462166" lon="121.5375184"></trkpt>
      <trkpt lat="25.0462348" lon="121.5376203"></trkpt>
      <trkpt lat="25.0462892" lon="121.5379842"></trkpt>
      <trkpt lat="25.0462981" lon="121.5380433"></trkpt>
      <trkpt lat="25.0463051" lon="121.5380903"></trkpt>
      <trkpt lat="25.0463191" lon="121.5381732"></trkpt>
      <trkpt lat="25.0462300" lon="121.5381875"></trkpt>
      <trkpt lat="25.0458745" lon="121.5382464"></trkpt>
      <trkpt lat="25.0457624" lon="121.5382521"></trkpt>
      <trkpt lat="25.0454043" lon="121.5382798"></trkpt>
      <trkpt lat="25.0450570" lon="121.5383175"></trkpt>
      <trkpt lat="25.0450045" lon="121.5394620"></trkpt>
      <trkpt lat="25.0452907" lon="121.5394012"></trkpt>
      <trkpt lat="25.0453692" lon="121.5393845"></trkpt>
      <trkpt lat="25.0453935" lon="121.5393790"></trkpt>
      <trkpt lat="25.0456251" lon="121.5393264"></trkpt>
      <trkpt lat="25.0457818" lon="121.5392908"></trkpt>
      <trkpt lat="25.0460146" lon="121.5392372"></trkpt>
      <trkpt lat="25.0463108" lon="121.5391705"></trkpt>
      <trkpt lat="25.0463767" lon="121.5391571"></trkpt>
      <trkpt lat="25.0464662" lon="121.5391356"></trkpt>
      <trkpt lat="25.0465630" lon="121.5391166"></trkpt>
      <trkpt lat="25.0469185" lon="121.5390610"></trkpt>
      <trkpt lat="25.0467631" lon="121.5380749"></trkpt>
      <trkpt lat="25.0464436" lon="121.5381496"></trkpt>
      <trkpt lat="25.0464103" lon="121.5381574"></trkpt>
      <trkpt lat="25.0463191" lon="121.5381732"></trkpt>
      <trkpt lat="25.0463317" lon="121.5382434"></trkpt>
      <trkpt lat="25.0463375" lon="121.5382789"></trkpt>
      <trkpt lat="25.0463459" lon="121.5383393"></trkpt>
      <trkpt lat="25.0464362" lon="121.5389394"></trkpt>
      <trkpt lat="25.0464452" lon="121.5389991"></trkpt>
      <trkpt lat="25.0464554" lon="121.5390669"></trkpt>
      <trkpt lat="25.0464662" lon="121.5391356"></trkpt>
      <trkpt lat="25.0464798" lon="121.5392181"></trkpt>
      <trkpt lat="25.0464825" lon="121.5392486"></trkpt>
      <trkpt lat="25.0464877" lon="121.5392797"></trkpt>
      <trkpt lat="25.0463956" lon="121.5392917"></trkpt>
      <trkpt lat="25.0463487" lon="121.5393085"></trkpt>
      <trkpt lat="25.0464120" lon="121.5396889"></trkpt>
      <trkpt lat="25.0464696" lon="121.5397384"></trkpt>
      <trkpt lat="25.0465645" lon="121.5397211"></trkpt>
      <trkpt lat="25.0465728" lon="121.5397712"></trkpt>
      <trkpt lat="25.0464793" lon="121.5397918"></trkpt>
      <trkpt lat="25.0453306" lon="121.5400631"></trkpt>
      <trkpt lat="25.0453212" lon="121.5403201"></trkpt>
      <trkpt lat="25.0453202" lon="121.5403468"></trkpt>
      <trkpt lat="25.0453142" lon="121.5405098"></trkpt>
      <trkpt lat="25.0452925" lon="121.5408560"></trkpt>
      <trkpt lat="25.0452735" lon="121.5411238"></trkpt>
      <trkpt lat="25.0452611" lon="121.5414537"></trkpt>
      <trkpt lat="25.0454474" lon="121.5421639"></trkpt>
      <trkpt lat="25.0448537" lon="121.5423416"></trkpt>
      <trkpt lat="25.0448277" lon="121.5423494"></trkpt>
      <trkpt lat="25.0447967" lon="121.5423587"></trkpt>
      <trkpt lat="25.0446152" lon="121.5424185"></trkpt>
      <trkpt lat="25.0445830" lon="121.5424291"></trkpt>
      <trkpt lat="25.0445079" lon="121.5424431"></trkpt>
      <trkpt lat="25.0442904" lon="121.5425476"></trkpt>
      <trkpt lat="25.0439597" lon="121.5426422"></trkpt>
      <trkpt lat="25.0439601" lon="121.5425781"></trkpt>
      <trkpt lat="25.0440101" lon="121.5423216"></trkpt>
      <trkpt lat="25.0440147" lon="121.5422977"></trkpt>
      <trkpt lat="25.0440234" lon="121.5422389"></trkpt>
      <trkpt lat="25.0440968" lon="121.5416984"></trkpt>
      <trkpt lat="25.0441111" lon="121.5416362"></trkpt>
      <trkpt lat="25.0440906" lon="121.5416343"></trkpt>
      <trkpt lat="25.0439758" lon="121.5416302"></trkpt>
      <trkpt lat="25.0439267" lon="121.5416598"></trkpt>
      <trkpt lat="25.0438482" lon="121.5422125"></trkpt>
      <trkpt lat="25.0439659" lon="121.5422302"></trkpt>
      <trkpt lat="25.0440234" lon="121.5422389"></trkpt>
      <trkpt lat="25.0440537" lon="121.5422350"></trkpt>
      <trkpt lat="25.0444145" lon="121.5421889"></trkpt>
      <trkpt lat="25.0444783" lon="121.5421808"></trkpt>
      <trkpt lat="25.0445548" lon="121.5421703"></trkpt>
      <trkpt lat="25.0445681" lon="121.5422960"></trkpt>
      <trkpt lat="25.0445722" lon="121.5423345"></trkpt>
      <trkpt lat="25.0445753" lon="121.5423634"></trkpt>
      <trkpt lat="25.0445773" lon="121.5423810"></trkpt>
      <trkpt lat="25.0445830" lon="121.5424291"></trkpt>
      <trkpt lat="25.0446677" lon="121.5431525"></trkpt>
      <trkpt lat="25.0447360" lon="121.5432242"></trkpt>
      <trkpt lat="25.0448509" lon="121.5432106"></trkpt>
      <trkpt lat="25.0448843" lon="121.5431428"></trkpt>
      <trkpt lat="25.0448520" lon="121.5428530"></trkpt>
      <trkpt lat="25.0448883" lon="121.5428429"></trkpt>
      <trkpt lat="25.0455879" lon="121.5426485"></trkpt>
      <trkpt lat="25.0459971" lon="121.5425220"></trkpt>
      <trkpt lat="25.0470393" lon="121.5421928"></trkpt>
      <trkpt lat="25.0470748" lon="121.5423500"></trkpt>
      <trkpt lat="25.0471660" lon="121.5426874"></trkpt>
      <trkpt lat="25.0471807" lon="121.5427416"></trkpt>
      <trkpt lat="25.0471937" lon="121.5427928"></trkpt>
      <trkpt lat="25.0473310" lon="121.5433333"></trkpt>
      <trkpt lat="25.0473359" lon="121.5433525"></trkpt>
      <trkpt lat="25.0474280" lon="121.5433524"></trkpt>
      <trkpt lat="25.0474555" lon="121.5434591"></trkpt>
      <trkpt lat="25.0474804" lon="121.5435559"></trkpt>
      <trkpt lat="25.0474928" lon="121.5436041"></trkpt>
      <trkpt lat="25.0475229" lon="121.5437217"></trkpt>
      <trkpt lat="25.0475296" lon="121.5437531"></trkpt>
      <trkpt lat="25.0475633" lon="121.5438654"></trkpt>
      <trkpt lat="25.0475992" lon="121.5440063"></trkpt>
      <trkpt lat="25.0476335" lon="121.5441454"></trkpt>
      <trkpt lat="25.0476503" lon="121.5442162"></trkpt>
      <trkpt lat="25.0476615" lon="121.5442633"></trkpt>
      <trkpt lat="25.0478235" lon="121.5449455"></trkpt>
      <trkpt lat="25.0477234" lon="121.5449474"></trkpt>
      <trkpt lat="25.0476179" lon="121.5449451"></trkpt>
      <trkpt lat="25.0475051" lon="121.5449426"></trkpt>
      <trkpt lat="25.0471420" lon="121.5449345"></trkpt>
      <trkpt lat="25.0467649" lon="121.5449187"></trkpt>
      <trkpt lat="25.0464206" lon="121.5449125"></trkpt>
      <trkpt lat="25.0463877" lon="121.5449119"></trkpt>
      <trkpt lat="25.0463803" lon="121.5455328"></trkpt>
      <trkpt lat="25.0463798" lon="121.5455793"></trkpt>
      <trkpt lat="25.0463715" lon="121.5460028"></trkpt>
      <trkpt lat="25.0463667" lon="121.5467406"></trkpt>
      <trkpt lat="25.0462225" lon="121.5467418"></trkpt>
      <trkpt lat="25.0461034" lon="121.5467445"></trkpt>
      <trkpt lat="25.0459913" lon="121.5467442"></trkpt>
      <trkpt lat="25.0457557" lon="121.5467435"></trkpt>
      <trkpt lat="25.0457556" lon="121.5465229"></trkpt>
      <trkpt lat="25.0457452" lon="121.5460181"></trkpt>
      <trkpt lat="25.0461082" lon="121.5460117"></trkpt>
      <trkpt lat="25.0461034" lon="121.5467445"></trkpt>
      <trkpt lat="25.0459913" lon="121.5467442"></trkpt>
      <trkpt lat="25.0457557" lon="121.5467435"></trkpt>
      <trkpt lat="25.0457556" lon="121.5465229"></trkpt>
      <trkpt lat="25.0457452" lon="121.5460181"></trkpt>
      <trkpt lat="25.0461082" lon="121.5460117"></trkpt>
      <trkpt lat="25.0463715" lon="121.5460028"></trkpt>
      <trkpt lat="25.0463667" lon="121.5467406"></trkpt>
      <trkpt lat="25.0462225" lon="121.5467418"></trkpt>
      <trkpt lat="25.0462074" lon="121.5481321"></trkpt>
      <trkpt lat="25.0462135" lon="121.5485132"></trkpt>
      <trkpt lat="25.0462147" lon="121.5485834"></trkpt>
      <trkpt lat="25.0462155" lon="121.5486542"></trkpt>
      <trkpt lat="25.0451993" lon="121.5486472"></trkpt>
      <trkpt lat="25.0451383" lon="121.5486468"></trkpt>
      <trkpt lat="25.0450430" lon="121.5486474"></trkpt>
      <trkpt lat="25.0450316" lon="121.5486990"></trkpt>
      <trkpt lat="25.0450207" lon="121.5488228"></trkpt>
      <trkpt lat="25.0450151" lon="121.5488863"></trkpt>
      <trkpt lat="25.0449907" lon="121.5491483"></trkpt>
      <trkpt lat="25.0449874" lon="121.5492236"></trkpt>
      <trkpt lat="25.0454678" lon="121.5492297"></trkpt>
      <trkpt lat="25.0461070" lon="121.5492380"></trkpt>
      <trkpt lat="25.0461702" lon="121.5492385"></trkpt>
      <trkpt lat="25.0461686" lon="121.5492938"></trkpt>
      <trkpt lat="25.0461572" lon="121.5496900"></trkpt>
      <trkpt lat="25.0461641" lon="121.5506470"></trkpt>
      <trkpt lat="25.0461655" lon="121.5507207"></trkpt>
      <trkpt lat="25.0461640" lon="121.5507745"></trkpt>
      <trkpt lat="25.0461635" lon="121.5520180"></trkpt>
      <trkpt lat="25.0461525" lon="121.5525048"></trkpt>
      <trkpt lat="25.0466221" lon="121.5525232"></trkpt>
      <trkpt lat="25.0472270" lon="121.5525504"></trkpt>
      <trkpt lat="25.0476154" lon="121.5525555"></trkpt>
      <trkpt lat="25.0480468" lon="121.5525615"></trkpt>
      <trkpt lat="25.0480908" lon="121.5525621"></trkpt>
      <trkpt lat="25.0481817" lon="121.5525652"></trkpt>
      <trkpt lat="25.0481851" lon="121.5527109"></trkpt>
      <trkpt lat="25.0481847" lon="121.5527365"></trkpt>
      <trkpt lat="25.0481839" lon="121.5528038"></trkpt>
      <trkpt lat="25.0481828" lon="121.5528864"></trkpt>
      <trkpt lat="25.0481792" lon="121.5531663"></trkpt>
      <trkpt lat="25.0481785" lon="121.5532223"></trkpt>
      <trkpt lat="25.0481777" lon="121.5532846"></trkpt>
      <trkpt lat="25.0481763" lon="121.5533420"></trkpt>
      <trkpt lat="25.0481751" lon="121.5534152"></trkpt>
      <trkpt lat="25.0481736" lon="121.5534485"></trkpt>
      <trkpt lat="25.0481710" lon="121.5535098"></trkpt>
      <trkpt lat="25.0481688" lon="121.5535604"></trkpt>
      <trkpt lat="25.0481659" lon="121.5536138"></trkpt>
      <trkpt lat="25.0480739" lon="121.5536272"></trkpt>
      <trkpt lat="25.0480195" lon="121.5536427"></trkpt>
      <trkpt lat="25.0476314" lon="121.5536572"></trkpt>
      <trkpt lat="25.0475516" lon="121.5537184"></trkpt>
      <trkpt lat="25.0471970" lon="121.5539902"></trkpt>
      <trkpt lat="25.0467357" lon="121.5543167"></trkpt>
      <trkpt lat="25.0467423" lon="121.5543743"></trkpt>
      <trkpt lat="25.0467674" lon="121.5545919"></trkpt>
      <trkpt lat="25.0467783" lon="121.5546869"></trkpt>
      <trkpt lat="25.0463044" lon="121.5547376"></trkpt>
      <trkpt lat="25.0462632" lon="121.5541960"></trkpt>
      <trkpt lat="25.0462495" lon="121.5540905"></trkpt>
      <trkpt lat="25.0461881" lon="121.5536159"></trkpt>
      <trkpt lat="25.0461817" lon="121.5535664"></trkpt>
      <trkpt lat="25.0460966" lon="121.5535775"></trkpt>
      <trkpt lat="25.0457852" lon="121.5536183"></trkpt>
      <trkpt lat="25.0455853" lon="121.5536444"></trkpt>
      <trkpt lat="25.0453910" lon="121.5536698"></trkpt>
      <trkpt lat="25.0450049" lon="121.5537203"></trkpt>
      <trkpt lat="25.0446746" lon="121.5537635"></trkpt>
      <trkpt lat="25.0445441" lon="121.5537782"></trkpt>
      <trkpt lat="25.0445125" lon="121.5537795"></trkpt>
      <trkpt lat="25.0442475" lon="121.5537594"></trkpt>
      <trkpt lat="25.0441950" lon="121.5537730"></trkpt>
      <trkpt lat="25.0441951" lon="121.5536907"></trkpt>
      <trkpt lat="25.0441922" lon="121.5531064"></trkpt>
      <trkpt lat="25.0442330" lon="121.5529959"></trkpt>
      <trkpt lat="25.0441922" lon="121.5531064"></trkpt>
      <trkpt lat="25.0439488" lon="121.5537653"></trkpt>
      <trkpt lat="25.0439362" lon="121.5538402"></trkpt>
      <trkpt lat="25.0438152" lon="121.5538700"></trkpt>
      <trkpt lat="25.0437866" lon="121.5539621"></trkpt>
      <trkpt lat="25.0435840" lon="121.5546138"></trkpt>
      <trkpt lat="25.0435742" lon="121.5546456"></trkpt>
      <trkpt lat="25.0434963" lon="121.5548961"></trkpt>
      <trkpt lat="25.0433628" lon="121.5553257"></trkpt>
      <trkpt lat="25.0432571" lon="121.5555882"></trkpt>
      <trkpt lat="25.0431458" lon="121.5557828"></trkpt>
      <trkpt lat="25.0430053" lon="121.5559778"></trkpt>
      <trkpt lat="25.0429595" lon="121.5560240"></trkpt>
      <trkpt lat="25.0429221" lon="121.5560617"></trkpt>
      <trkpt lat="25.0430229" lon="121.5562375"></trkpt>
      <trkpt lat="25.0430673" lon="121.5561846"></trkpt>
      <trkpt lat="25.0431617" lon="121.5560724"></trkpt>
      <trkpt lat="25.0433112" lon="121.5558719"></trkpt>
      <trkpt lat="25.0434309" lon="121.5556385"></trkpt>
      <trkpt lat="25.0434452" lon="121.5555986"></trkpt>
      <trkpt lat="25.0434873" lon="121.5556000"></trkpt>
      <trkpt lat="25.0437529" lon="121.5556088"></trkpt>
      <trkpt lat="25.0438086" lon="121.5556106"></trkpt>
      <trkpt lat="25.0438804" lon="121.5556130"></trkpt>
      <trkpt lat="25.0439878" lon="121.5556166"></trkpt>
      <trkpt lat="25.0440047" lon="121.5547293"></trkpt>
      <trkpt lat="25.0440056" lon="121.5546848"></trkpt>
      <trkpt lat="25.0437487" lon="121.5546762"></trkpt>
      <trkpt lat="25.0437064" lon="121.5546602"></trkpt>
      <trkpt lat="25.0435840" lon="121.5546138"></trkpt>
      <trkpt lat="25.0435742" lon="121.5546456"></trkpt>
      <trkpt lat="25.0434963" lon="121.5548961"></trkpt>
      <trkpt lat="25.0433628" lon="121.5553257"></trkpt>
      <trkpt lat="25.0432571" lon="121.5555882"></trkpt>
      <trkpt lat="25.0431458" lon="121.5557828"></trkpt>
      <trkpt lat="25.0430053" lon="121.5559778"></trkpt>
      <trkpt lat="25.0429595" lon="121.5560240"></trkpt>
      <trkpt lat="25.0429221" lon="121.5560617"></trkpt>
      <trkpt lat="25.0427863" lon="121.5561984"></trkpt>
      <trkpt lat="25.0425372" lon="121.5563704"></trkpt>
      <trkpt lat="25.0424267" lon="121.5564246"></trkpt>
      <trkpt lat="25.0423621" lon="121.5564562"></trkpt>
      <trkpt lat="25.0423581" lon="121.5566735"></trkpt>
      <trkpt lat="25.0423621" lon="121.5564562"></trkpt>
      <trkpt lat="25.0423161" lon="121.5564787"></trkpt>
      <trkpt lat="25.0420515" lon="121.5565582"></trkpt>
      <trkpt lat="25.0419827" lon="121.5565649"></trkpt>
      <trkpt lat="25.0418289" lon="121.5565798"></trkpt>
      <trkpt lat="25.0418040" lon="121.5565822"></trkpt>
      <trkpt lat="25.0416043" lon="121.5565777"></trkpt>
      <trkpt lat="25.0415253" lon="121.5565760"></trkpt>
      <trkpt lat="25.0414959" lon="121.5565753"></trkpt>
      <trkpt lat="25.0414308" lon="121.5565738"></trkpt>
      <trkpt lat="25.0414345" lon="121.5563232"></trkpt>
      <trkpt lat="25.0414375" lon="121.5561215"></trkpt>
      <trkpt lat="25.0414407" lon="121.5559255"></trkpt>
      <trkpt lat="25.0414465" lon="121.5555718"></trkpt>
      <trkpt lat="25.0414577" lon="121.5547468"></trkpt>
      <trkpt lat="25.0414735" lon="121.5545860"></trkpt>
      <trkpt lat="25.0414800" lon="121.5544785"></trkpt>
      <trkpt lat="25.0413414" lon="121.5545010"></trkpt>
      <trkpt lat="25.0412488" lon="121.5545209"></trkpt>
      <trkpt lat="25.0412514" lon="121.5544736"></trkpt>
      <trkpt lat="25.0412553" lon="121.5544047"></trkpt>
      <trkpt lat="25.0412591" lon="121.5540846"></trkpt>
      <trkpt lat="25.0412783" lon="121.5530607"></trkpt>
      <trkpt lat="25.0412799" lon="121.5529757"></trkpt>
      <trkpt lat="25.0408069" lon="121.5529696"></trkpt>
      <trkpt lat="25.0403449" lon="121.5529636"></trkpt>
      <trkpt lat="25.0398782" lon="121.5529574"></trkpt>
      <trkpt lat="25.0394223" lon="121.5529518"></trkpt>
      <trkpt lat="25.0389663" lon="121.5529501"></trkpt>
      <trkpt lat="25.0384969" lon="121.5529482"></trkpt>
      <trkpt lat="25.0380624" lon="121.5529402"></trkpt>
      <trkpt lat="25.0380609" lon="121.5528483"></trkpt>
      <trkpt lat="25.0380510" lon="121.5528414"></trkpt>
      <trkpt lat="25.0379683" lon="121.5528505"></trkpt>
      <trkpt lat="25.0378692" lon="121.5528493"></trkpt>
      <trkpt lat="25.0378394" lon="121.5528490"></trkpt>
      <trkpt lat="25.0377224" lon="121.5528475"></trkpt>
      <trkpt lat="25.0376987" lon="121.5528471"></trkpt>
      <trkpt lat="25.0376828" lon="121.5528468"></trkpt>
      <trkpt lat="25.0375963" lon="121.5528446"></trkpt>
      <trkpt lat="25.0375207" lon="121.5528432"></trkpt>
      <trkpt lat="25.0375118" lon="121.5528669"></trkpt>
      <trkpt lat="25.0370563" lon="121.5528590"></trkpt>
      <trkpt lat="25.0370558" lon="121.5529275"></trkpt>
      <trkpt lat="25.0369964" lon="121.5529258"></trkpt>
      <trkpt lat="25.0366129" lon="121.5529149"></trkpt>
      <trkpt lat="25.0364548" lon="121.5527532"></trkpt>
      <trkpt lat="25.0362998" lon="121.5526052"></trkpt>
      <trkpt lat="25.0362439" lon="121.5525354"></trkpt>
      <trkpt lat="25.0361840" lon="121.5524540"></trkpt>
      <trkpt lat="25.0361479" lon="121.5524809"></trkpt>
      <trkpt lat="25.0361249" lon="121.5524806"></trkpt>
      <trkpt lat="25.0354858" lon="121.5524713"></trkpt>
      <trkpt lat="25.0354206" lon="121.5524703"></trkpt>
      <trkpt lat="25.0353481" lon="121.5524687"></trkpt>
      <trkpt lat="25.0350039" lon="121.5524611"></trkpt>
      <trkpt lat="25.0347349" lon="121.5524534"></trkpt>
      <trkpt lat="25.0346677" lon="121.5524510"></trkpt>
      <trkpt lat="25.0346693" lon="121.5523860"></trkpt>
      <trkpt lat="25.0346832" lon="121.5517266"></trkpt>
      <trkpt lat="25.0346850" lon="121.5516441"></trkpt>
      <trkpt lat="25.0346402" lon="121.5516430"></trkpt>
      <trkpt lat="25.0343485" lon="121.5516356"></trkpt>
      <trkpt lat="25.0342929" lon="121.5516342"></trkpt>
      <trkpt lat="25.0342559" lon="121.5516333"></trkpt>
      <trkpt lat="25.0341122" lon="121.5516297"></trkpt>
      <trkpt lat="25.0339389" lon="121.5516253"></trkpt>
      <trkpt lat="25.0338983" lon="121.5516243"></trkpt>
      <trkpt lat="25.0336795" lon="121.5516188"></trkpt>
      <trkpt lat="25.0333834" lon="121.5516113"></trkpt>
      <trkpt lat="25.0333846" lon="121.5515528"></trkpt>
      <trkpt lat="25.0333860" lon="121.5514783"></trkpt>
      <trkpt lat="25.0334109" lon="121.5502475"></trkpt>
      <trkpt lat="25.0334116" lon="121.5502118"></trkpt>
      <trkpt lat="25.0334126" lon="121.5501650"></trkpt>
      <trkpt lat="25.0334309" lon="121.5492569"></trkpt>
      <trkpt lat="25.0333513" lon="121.5492560"></trkpt>
      <trkpt lat="25.0333002" lon="121.5492555"></trkpt>
      <trkpt lat="25.0332617" lon="121.5492551"></trkpt>
      <trkpt lat="25.0331782" lon="121.5492552"></trkpt>
      <trkpt lat="25.0330969" lon="121.5492542"></trkpt>
      <trkpt lat="25.0330791" lon="121.5501004"></trkpt>
      <trkpt lat="25.0330781" lon="121.5501444"></trkpt>
      <trkpt lat="25.0328675" lon="121.5501420"></trkpt>
      <trkpt lat="25.0329442" lon="121.5494060"></trkpt>
      <trkpt lat="25.0329723" lon="121.5491183"></trkpt>
      <trkpt lat="25.0329797" lon="121.5490410"></trkpt>
      <trkpt lat="25.0330687" lon="121.5490419"></trkpt>
      <trkpt lat="25.0330686" lon="121.5487885"></trkpt>
      <trkpt lat="25.0330687" lon="121.5485527"></trkpt>
      <trkpt lat="25.0330687" lon="121.5484614"></trkpt>
      <trkpt lat="25.0331137" lon="121.5484059"></trkpt>
      <trkpt lat="25.0331205" lon="121.5480867"></trkpt>
      <trkpt lat="25.0331213" lon="121.5480494"></trkpt>
      <trkpt lat="25.0331221" lon="121.5480103"></trkpt>
      <trkpt lat="25.0331293" lon="121.5476736"></trkpt>
      <trkpt lat="25.0331410" lon="121.5471298"></trkpt>
      <trkpt lat="25.0331420" lon="121.5470832"></trkpt>
      <trkpt lat="25.0328937" lon="121.5470711"></trkpt>
      <trkpt lat="25.0327424" lon="121.5470636"></trkpt>
      <trkpt lat="25.0328937" lon="121.5470711"></trkpt>
      <trkpt lat="25.0331420" lon="121.5470832"></trkpt>
      <trkpt lat="25.0332280" lon="121.5470873"></trkpt>
      <trkpt lat="25.0332104" lon="121.5479969"></trkpt>
      <trkpt lat="25.0332094" lon="121.5480511"></trkpt>
      <trkpt lat="25.0332025" lon="121.5484067"></trkpt>
      <trkpt lat="25.0331996" lon="121.5485538"></trkpt>
      <trkpt lat="25.0331944" lon="121.5487888"></trkpt>
      <trkpt lat="25.0332750" lon="121.5487891"></trkpt>
      <trkpt lat="25.0333589" lon="121.5487917"></trkpt>
      <trkpt lat="25.0334624" lon="121.5487960"></trkpt>
      <trkpt lat="25.0355725" lon="121.5488083"></trkpt>
      <trkpt lat="25.0368665" lon="121.5488200"></trkpt>
      <trkpt lat="25.0369179" lon="121.5488204"></trkpt>
      <trkpt lat="25.0370499" lon="121.5488828"></trkpt>
      <trkpt lat="25.0371545" lon="121.5489109"></trkpt>
      <trkpt lat="25.0372590" lon="121.5489592"></trkpt>
      <trkpt lat="25.0373140" lon="121.5489857"></trkpt>
      <trkpt lat="25.0374571" lon="121.5490979"></trkpt>
      <trkpt lat="25.0375041" lon="121.5491390"></trkpt>
      <trkpt lat="25.0375397" lon="121.5491841"></trkpt>
      <trkpt lat="25.0375612" lon="121.5492146"></trkpt>
      <trkpt lat="25.0376464" lon="121.5492727"></trkpt>
      <trkpt lat="25.0377194" lon="121.5493077"></trkpt>
      <trkpt lat="25.0377968" lon="121.5493282"></trkpt>
      <trkpt lat="25.0378525" lon="121.5493319"></trkpt>
      <trkpt lat="25.0378763" lon="121.5493335"></trkpt>
      <trkpt lat="25.0379553" lon="121.5493233"></trkpt>
      <trkpt lat="25.0380316" lon="121.5492982"></trkpt>
      <trkpt lat="25.0381027" lon="121.5492587"></trkpt>
      <trkpt lat="25.0381696" lon="121.5492030"></trkpt>
      <trkpt lat="25.0382261" lon="121.5491348"></trkpt>
      <trkpt lat="25.0383784" lon="121.5490095"></trkpt>
      <trkpt lat="25.0384862" lon="121.5489642"></trkpt>
      <trkpt lat="25.0386123" lon="121.5489116"></trkpt>
      <trkpt lat="25.0386749" lon="121.5488855"></trkpt>
      <trkpt lat="25.0387952" lon="121.5488448"></trkpt>
      <trkpt lat="25.0387984" lon="121.5485987"></trkpt>
      <trkpt lat="25.0387993" lon="121.5485314"></trkpt>
      <trkpt lat="25.0389479" lon="121.5485330"></trkpt>
      <trkpt lat="25.0397432" lon="121.5485394"></trkpt>
      <trkpt lat="25.0397487" lon="121.5480860"></trkpt>
      <trkpt lat="25.0397535" lon="121.5471740"></trkpt>
      <trkpt lat="25.0393495" lon="121.5471337"></trkpt>
      <trkpt lat="25.0393697" lon="121.5460708"></trkpt>
      <trkpt lat="25.0397216" lon="121.5460785"></trkpt>
      <trkpt lat="25.0397916" lon="121.5460800"></trkpt>
      <trkpt lat="25.0397927" lon="121.5459997"></trkpt>
      <trkpt lat="25.0398027" lon="121.5452672"></trkpt>
      <trkpt lat="25.0398035" lon="121.5452051"></trkpt>
      <trkpt lat="25.0398098" lon="121.5451177"></trkpt>
      <trkpt lat="25.0398216" lon="121.5449534"></trkpt>
      <trkpt lat="25.0398141" lon="121.5446851"></trkpt>
      <trkpt lat="25.0398156" lon="121.5444052"></trkpt>
      <trkpt lat="25.0398210" lon="121.5439975"></trkpt>
      <trkpt lat="25.0398225" lon="121.5439007"></trkpt>
      <trkpt lat="25.0398186" lon="121.5438038"></trkpt>
      <trkpt lat="25.0398213" lon="121.5436858"></trkpt>
      <trkpt lat="25.0398239" lon="121.5435739"></trkpt>
      <trkpt lat="25.0398244" lon="121.5435501"></trkpt>
      <trkpt lat="25.0398362" lon="121.5430344"></trkpt>
      <trkpt lat="25.0398594" lon="121.5420087"></trkpt>
      <trkpt lat="25.0394538" lon="121.5419959"></trkpt>
      <trkpt lat="25.0394570" lon="121.5413391"></trkpt>
      <trkpt lat="25.0394573" lon="121.5412861"></trkpt>
      <trkpt lat="25.0390778" lon="121.5412797"></trkpt>
      <trkpt lat="25.0386114" lon="121.5412719"></trkpt>
      <trkpt lat="25.0384613" lon="121.5412693"></trkpt>
      <trkpt lat="25.0384613" lon="121.5412310"></trkpt>
      <trkpt lat="25.0384626" lon="121.5410092"></trkpt>
      <trkpt lat="25.0384746" lon="121.5406512"></trkpt>
      <trkpt lat="25.0384821" lon="121.5403521"></trkpt>
      <trkpt lat="25.0384840" lon="121.5402756"></trkpt>
      <trkpt lat="25.0384883" lon="121.5401024"></trkpt>
      <trkpt lat="25.0384966" lon="121.5398428"></trkpt>
      <trkpt lat="25.0384976" lon="121.5397280"></trkpt>
      <trkpt lat="25.0384161" lon="121.5397082"></trkpt>
      <trkpt lat="25.0384280" lon="121.5390702"></trkpt>
      <trkpt lat="25.0384289" lon="121.5390093"></trkpt>
      <trkpt lat="25.0383426" lon="121.5387196"></trkpt>
      <trkpt lat="25.0382357" lon="121.5384594"></trkpt>
      <trkpt lat="25.0382163" lon="121.5383239"></trkpt>
      <trkpt lat="25.0382130" lon="121.5382763"></trkpt>
      <trkpt lat="25.0382050" lon="121.5381715"></trkpt>
      <trkpt lat="25.0381475" lon="121.5381568"></trkpt>
      <trkpt lat="25.0381250" lon="121.5381511"></trkpt>
      <trkpt lat="25.0380209" lon="121.5381532"></trkpt>
      <trkpt lat="25.0379891" lon="121.5381636"></trkpt>
      <trkpt lat="25.0379554" lon="121.5381747"></trkpt>
      <trkpt lat="25.0379533" lon="121.5380500"></trkpt>
      <trkpt lat="25.0379655" lon="121.5377817"></trkpt>
      <trkpt lat="25.0379695" lon="121.5376933"></trkpt>
      <trkpt lat="25.0379692" lon="121.5375417"></trkpt>
      <trkpt lat="25.0380331" lon="121.5375411"></trkpt>
      <trkpt lat="25.0381470" lon="121.5375400"></trkpt>
      <trkpt lat="25.0381666" lon="121.5375398"></trkpt>
      <trkpt lat="25.0382157" lon="121.5375393"></trkpt>
      <trkpt lat="25.0384665" lon="121.5368601"></trkpt>
      <trkpt lat="25.0384737" lon="121.5358799"></trkpt>
      <trkpt lat="25.0385348" lon="121.5358807"></trkpt>
      <trkpt lat="25.0389547" lon="121.5358794"></trkpt>
    </trkseg>
  </trk>
</gpx>
