<?xml version="1.0" encoding="UTF-8"?>
<gpx version="1.1" creator="shape-route-poc" xmlns="http://www.topografix.com/GPX/1/1" xmlns:xsi="http://www.w3.org/2001/XMLSchema-instance" xsi:schemaLocation="http://www.topografix.com/GPX/1/1 http://www.topografix.com/GPX/1/1/gpx.xsd">
  <metadata>
    <name>恐龍路線</name>
    <desc>trex · 33.8 km · bike · shape distance 0.075</desc>
    <time>2026-09-11T17:46:01Z</time>
    <bounds minlat="25.0214849" minlon="121.5121665" maxlat="25.0685856" maxlon="121.5568812"/>
  </metadata>
  <rte>
    <name>恐龍路線</name>
    <type>cycling</type>
    <rtept lat="25.0557039" lon="121.5128496"></rtept>
    <rtept lat="25.0559630" lon="121.5140220"></rtept>
    <rtept lat="25.0579368" lon="121.5137380"></rtept>
    <rtept lat="25.0592403" lon="121.5137022"></rtept>
    <rtept lat="25.0593719" lon="121.5148081"></rtept>
    <rtept lat="25.0608077" lon="121.5143405"></rtept>
    <rtept lat="25.0608472" lon="121.5148236"></rtept>
    <rtept lat="25.0617955" lon="121.5145330"></rtept>
    <rtept lat="25.0622324" lon="121.5146708"></rtept>
    <rtept lat="25.0621688" lon="121.5168576"></rtept>
    <rtept lat="25.0627765" lon="121.5168822"></rtept>
    <rtept lat="25.0628230" lon="121.5183691"></rtept>
    <rtept lat="25.0685265" lon="121.5184911"></rtept>
    <rtept lat="25.0684795" lon="121.5198232"></rtept>
    <rtept lat="25.0673010" lon="121.5197188"></rtept>
    <rtept lat="25.0684765" lon="121.5199205"></rtept>
    <rtept lat="25.0684003" lon="121.5229667"></rtept>
    <rtept lat="25.0685856" lon="121.5230085"></rtept>
    <rtept lat="25.0683978" lon="121.5230762"></rtept>
    <rtept lat="25.0682382" lon="121.5304608"></rtept>
    <rtept lat="25.0673407" lon="121.5304724"></rtept>
    <rtept lat="25.0673326" lon="121.5318206"></rtept>
    <rtept lat="25.0648015" lon="121.5317414"></rtept>
    <rtept lat="25.0648280" lon="121.5303580"></rtept>
    <rtept lat="25.0619700" lon="121.5302878"></rtept>
    <rtept lat="25.0620047" lon="121.5297509"></rtept>
    <rtept lat="25.0616139" lon="121.5297616"></rtept>
    <rtept lat="25.0616173" lon="121.5289877"></rtept>
    <rtept lat="25.0603343" lon="121.5289685"></rtept>
    <rtept lat="25.0603753" lon="121.5278740"></rtept>
    <rtept lat="25.0602616" lon="121.5274796"></rtept>
    <rtept lat="25.0559979" lon="121.5273984"></rtept>
    <rtept lat="25.0559455" lon="121.5277332"></rtept>
    <rtept lat="25.0561995" lon="121.5277408"></rtept>
    <rtept lat="25.0564349" lon="121.5286117"></rtept>
    <rtept lat="25.0564373" lon="121.5301792"></rtept>
    <rtept lat="25.0589612" lon="121.5302287"></rtept>
    <rtept lat="25.0589240" lon="121.5308384"></rtept>
    <rtept lat="25.0593393" lon="121.5308552"></rtept>
    <rtept lat="25.0593455" lon="121.5316929"></rtept>
    <rtept lat="25.0589140" lon="121.5316642"></rtept>
    <rtept lat="25.0589108" lon="121.5322495"></rtept>
    <rtept lat="25.0591812" lon="121.5322397"></rtept>
    <rtept lat="25.0591805" lon="121.5325417"></rtept>
    <rtept lat="25.0611563" lon="121.5325568"></rtept>
    <rtept lat="25.0611396" lon="121.5330851"></rtept>
    <rtept lat="25.0604168" lon="121.5330745"></rtept>
    <rtept lat="25.0603450" lon="121.5332504"></rtept>
    <rtept lat="25.0624126" lon="121.5332790"></rtept>
    <rtept lat="25.0623670" lon="121.5349149"></rtept>
    <rtept lat="25.0579825" lon="121.5348263"></rtept>
    <rtept lat="25.0579378" lon="121.5330675"></rtept>
    <rtept lat="25.0548072" lon="121.5329090"></rtept>
    <rtept lat="25.0548207" lon="121.5315631"></rtept>
    <rtept lat="25.0519725" lon="121.5315061"></rtept>
    <rtept lat="25.0518818" lon="121.5315961"></rtept>
    <rtept lat="25.0518480" lon="121.5328463"></rtept>
    <rtept lat="25.0502713" lon="121.5329262"></rtept>
    <rtept lat="25.0502178" lon="121.5344176"></rtept>
    <rtept lat="25.0506485" lon="121.5344356"></rtept>
    <rtept lat="25.0506601" lon="121.5347091"></rtept>
    <rtept lat="25.0514035" lon="121.5347098"></rtept>
    <rtept lat="25.0513823" lon="121.5360317"></rtept>
    <rtept lat="25.0518357" lon="121.5360357"></rtept>
    <rtept lat="25.0519262" lon="121.5370241"></rtept>
    <rtept lat="25.0535979" lon="121.5370719"></rtept>
    <rtept lat="25.0535724" lon="121.5378727"></rtept>
    <rtept lat="25.0539478" lon="121.5384883"></rtept>
    <rtept lat="25.0539368" lon="121.5390467"></rtept>
    <rtept lat="25.0534112" lon="121.5390497"></rtept>
    <rtept lat="25.0533872" lon="121.5404772"></rtept>
    <rtept lat="25.0521237" lon="121.5404670"></rtept>
    <rtept lat="25.0520494" lon="121.5420550"></rtept>
    <rtept lat="25.0518145" lon="121.5420620"></rtept>
    <rtept lat="25.0517966" lon="121.5427929"></rtept>
    <rtept lat="25.0514350" lon="121.5427880"></rtept>
    <rtept lat="25.0509431" lon="121.5419084"></rtept>
    <rtept lat="25.0502807" lon="121.5423416"></rtept>
    <rtept lat="25.0501613" lon="121.5421881"></rtept>
    <rtept lat="25.0499565" lon="121.5421834"></rtept>
    <rtept lat="25.0500012" lon="121.5390976"></rtept>
    <rtept lat="25.0483571" lon="121.5391067"></rtept>
    <rtept lat="25.0483277" lon="121.5404047"></rtept>
    <rtept lat="25.0472781" lon="121.5403880"></rtept>
    <rtept lat="25.0473931" lon="121.5413704"></rtept>
    <rtept lat="25.0469884" lon="121.5415689"></rtept>
    <rtept lat="25.0439597" lon="121.5426422"></rtept>
    <rtept lat="25.0441111" lon="121.5416362"></rtept>
    <rtept lat="25.0431466" lon="121.5416531"></rtept>
    <rtept lat="25.0430953" lon="121.5434545"></rtept>
    <rtept lat="25.0427933" lon="121.5437347"></rtept>
    <rtept lat="25.0418448" lon="121.5437125"></rtept>
    <rtept lat="25.0418431" lon="121.5439632"></rtept>
    <rtept lat="25.0414516" lon="121.5439669"></rtept>
    <rtept lat="25.0413728" lon="121.5439464"></rtept>
    <rtept lat="25.0413738" lon="121.5436009"></rtept>
    <rtept lat="25.0398244" lon="121.5435501"></rtept>
    <rtept lat="25.0398225" lon="121.5439007"></rtept>
    <rtept lat="25.0390399" lon="121.5438858"></rtept>
    <rtept lat="25.0390143" lon="121.5451888"></rtept>
    <rtept lat="25.0381952" lon="121.5451719"></rtept>
    <rtept lat="25.0381733" lon="121.5461501"></rtept>
    <rtept lat="25.0378343" lon="121.5461708"></rtept>
    <rtept lat="25.0378025" lon="121.5477657"></rtept>
    <rtept lat="25.0377086" lon="121.5477426"></rtept>
    <rtept lat="25.0378311" lon="121.5477681"></rtept>
    <rtept lat="25.0374118" lon="121.5487752"></rtept>
    <rtept lat="25.0376511" lon="121.5494513"></rtept>
    <rtept lat="25.0376467" lon="121.5503066"></rtept>
    <rtept lat="25.0350493" lon="121.5502480"></rtept>
    <rtept lat="25.0350039" lon="121.5524611"></rtept>
    <rtept lat="25.0346677" lon="121.5524510"></rtept>
    <rtept lat="25.0346680" lon="121.5525624"></rtept>
    <rtept lat="25.0362361" lon="121.5527007"></rtept>
    <rtept lat="25.0362998" lon="121.5526052"></rtept>
    <rtept lat="25.0364548" lon="121.5527532"></rtept>
    <rtept lat="25.0362483" lon="121.5529025"></rtept>
    <rtept lat="25.0362203" lon="121.5556383"></rtept>
    <rtept lat="25.0359760" lon="121.5556640"></rtept>
    <rtept lat="25.0360145" lon="121.5562479"></rtept>
    <rtept lat="25.0353571" lon="121.5564893"></rtept>
    <rtept lat="25.0353980" lon="121.5568812"></rtept>
    <rtept lat="25.0353571" lon="121.5564893"></rtept>
    <rtept lat="25.0351213" lon="121.5559680"></rtept>
    <rtept lat="25.0346614" lon="121.5563391"></rtept>
    <rtept lat="25.0344695" lon="121.5560138"></rtept>
    <rtept lat="25.0341785" lon="121.5558082"></rtept>
    <rtept lat="25.0346412" lon="121.5550422"></rtept>
    <rtept lat="25.0342052" lon="121.5544466"></rtept>
    <rtept lat="25.0338409" lon="121.5543027"></rtept>
    <rtept lat="25.0313136" lon="121.5542602"></rtept>
    <rtept lat="25.0320757" lon="121.5542755"></rtept>
    <rtept lat="25.0321126" lon="121.5525010"></rtept>
    <rtept lat="25.0326228" lon="121.5525136"></rtept>
    <rtept lat="25.0330687" lon="121.5485527"></rtept>
    <rtept lat="25.0309755" lon="121.5484811"></rtept>
    <rtept lat="25.0309853" lon="121.5480280"></rtept>
    <rtept lat="25.0317592" lon="121.5480221"></rtept>
    <rtept lat="25.0317633" lon="121.5473044"></rtept>
    <rtept lat="25.0316163" lon="121.5466460"></rtept>
    <rtept lat="25.0320720" lon="121.5464342"></rtept>
    <rtept lat="25.0320716" lon="121.5446139"></rtept>
    <rtept lat="25.0310492" lon="121.5445857"></rtept>
    <rtept lat="25.0310797" lon="121.5437228"></rtept>
    <rtept lat="25.0303337" lon="121.5436982"></rtept>
    <rtept lat="25.0295780" lon="121.5441283"></rtept>
    <rtept lat="25.0295500" lon="121.5460311"></rtept>
    <rtept lat="25.0282738" lon="121.5460143"></rtept>
    <rtept lat="25.0282988" lon="121.5453531"></rtept>
    <rtept lat="25.0280360" lon="121.5453369"></rtept>
    <rtept lat="25.0282988" lon="121.5453531"></rtept>
    <rtept lat="25.0282354" lon="121.5469300"></rtept>
    <rtept lat="25.0266918" lon="121.5468120"></rtept>
    <rtept lat="25.0266338" lon="121.5479612"></rtept>
    <rtept lat="25.0281777" lon="121.5480422"></rtept>
    <rtept lat="25.0280119" lon="121.5490683"></rtept>
    <rtept lat="25.0268603" lon="121.5490564"></rtept>
    <rtept lat="25.0268650" lon="121.5497828"></rtept>
    <rtept lat="25.0269639" lon="121.5497650"></rtept>
    <rtept lat="25.0269998" lon="121.5500147"></rtept>
    <rtept lat="25.0253779" lon="121.5503342"></rtept>
    <rtept lat="25.0253889" lon="121.5501361"></rtept>
    <rtept lat="25.0246250" lon="121.5502108"></rtept>
    <rtept lat="25.0246638" lon="121.5490629"></rtept>
    <rtept lat="25.0243942" lon="121.5490315"></rtept>
    <rtept lat="25.0244112" lon="121.5484761"></rtept>
    <rtept lat="25.0227248" lon="121.5484666"></rtept>
    <rtept lat="25.0228487" lon="121.5483844"></rtept>
    <rtept lat="25.0229146" lon="121.5468946"></rtept>
    <rtept lat="25.0235486" lon="121.5466491"></rtept>
    <rtept lat="25.0245731" lon="121.5467232"></rtept>
    <rtept lat="25.0246626" lon="121.5447423"></rtept>
    <rtept lat="25.0236319" lon="121.5445880"></rtept>
    <rtept lat="25.0235814" lon="121.5451919"></rtept>
    <rtept lat="25.0242436" lon="121.5452457"></rtept>
    <rtept lat="25.0242609" lon="121.5447415"></rtept>
    <rtept lat="25.0246626" lon="121.5447423"></rtept>
    <rtept lat="25.0247357" lon="121.5432196"></rtept>
    <rtept lat="25.0249768" lon="121.5432283"></rtept>
    <rtept lat="25.0254701" lon="121.5402969"></rtept>
    <rtept lat="25.0258912" lon="121.5403669"></rtept>
    <rtept lat="25.0260637" lon="121.5391540"></rtept>
    <rtept lat="25.0256517" lon="121.5388966"></rtept>
    <rtept lat="25.0258635" lon="121.5374312"></rtept>
    <rtept lat="25.0249993" lon="121.5374389"></rtept>
    <rtept lat="25.0249629" lon="121.5369338"></rtept>
    <rtept lat="25.0249834" lon="121.5366362"></rtept>
    <rtept lat="25.0252782" lon="121.5365725"></rtept>
    <rtept lat="25.0253919" lon="121.5349679"></rtept>
    <rtept lat="25.0258388" lon="121.5350052"></rtept>
    <rtept lat="25.0259661" lon="121.5342841"></rtept>
    <rtept lat="25.0257769" lon="121.5342639"></rtept>
    <rtept lat="25.0258268" lon="121.5335851"></rtept>
    <rtept lat="25.0241437" lon="121.5333917"></rtept>
    <rtept lat="25.0242082" lon="121.5326619"></rtept>
    <rtept lat="25.0236962" lon="121.5326039"></rtept>
    <rtept lat="25.0236313" lon="121.5313333"></rtept>
    <rtept lat="25.0238421" lon="121.5301662"></rtept>
    <rtept lat="25.0243273" lon="121.5302119"></rtept>
    <rtept lat="25.0238421" lon="121.5301662"></rtept>
    <rtept lat="25.0239218" lon="121.5294033"></rtept>
    <rtept lat="25.0232352" lon="121.5293326"></rtept>
    <rtept lat="25.0233045" lon="121.5283880"></rtept>
    <rtept lat="25.0229231" lon="121.5283529"></rtept>
    <rtept lat="25.0233045" lon="121.5283880"></rtept>
    <rtept lat="25.0234144" lon="121.5268130"></rtept>
    <rtept lat="25.0227171" lon="121.5267448"></rtept>
    <rtept lat="25.0222424" lon="121.5262506"></rtept>
    <rtept lat="25.0215447" lon="121.5270798"></rtept>
    <rtept lat="25.0214849" lon="121.5270195"></rtept>
    <rtept lat="25.0225198" lon="121.5258181"></rtept>
    <rtept lat="25.0221927" lon="121.5255045"></rtept>
    <rtept lat="25.0229282" lon="121.5245704"></rtept>
    <rtept lat="25.0218536" lon="121.5234813"></rtept>
    <rtept lat="25.0225853" lon="121.5225997"></rtept>
    <rtept lat="25.0230301" lon="121.5230385"></rtept>
    <rtept lat="25.0237006" lon="121.5222529"></rtept>
    <rtept lat="25.0235295" lon="121.5220963"></rtept>
    <rtept lat="25.0235931" lon="121.5213288"></rtept>
    <rtept lat="25.0237065" lon="121.5214207"></rtept>
    <rtept lat="25.0238468" lon="121.5190130"></rtept>
    <rtept lat="25.0250485" lon="121.5190215"></rtept>
    <rtept lat="25.0262265" lon="121.5139210"></rtept>
    <rtept lat="25.0276447" lon="121.5146202"></rtept>
    <rtept lat="25.0274976" lon="121.5135561"></rtept>
    <rtept lat="25.0275853" lon="121.5128216"></rtept>
    <rtept lat="25.0279176" lon="121.5129215"></rtept>
    <rtept lat="25.0282590" lon="121.5121665"></rtept>
    <rtept lat="25.0287042" lon="121.5124221"></rtept>
    <rtept lat="25.0287934" lon="121.5122497"></rtept>
    <rtept lat="25.0290758" lon="121.5123854"></rtept>
    <rtept lat="25.0296025" lon="121.5141356"></rtept>
    <rtept lat="25.0300362" lon="121.5164647"></rtept>
    <rtept lat="25.0296863" lon="121.5166977"></rtept>
    <rtept lat="25.0295166" lon="121.5161331"></rtept>
    <rtept lat="25.0286953" lon="121.5163610"></rtept>
    <rtept lat="25.0289286" lon="121.5172534"></rtept>
    <rtept lat="25.0280988" lon="121.5178600"></rtept>
    <rtept lat="25.0284385" lon="121.5192549"></rtept>
    <rtept lat="25.0289716" lon="121.5188431"></rtept>
    <rtept lat="25.0298254" lon="121.5202882"></rtept>
    <rtept lat="25.0295120" lon="121.5223928"></rtept>
    <rtept lat="25.0291124" lon="121.5223205"></rtept>
    <rtept lat="25.0290679" lon="121.5231008"></rtept>
    <rtept lat="25.0293954" lon="121.5231349"></rtept>
    <rtept lat="25.0292549" lon="121.5240298"></rtept>
    <rtept lat="25.0305527" lon="121.5242933"></rtept>
    <rtept lat="25.0300985" lon="121.5271757"></rtept>
    <rtept lat="25.0329303" lon="121.5276565"></rtept>
    <rtept lat="25.0327894" lon="121.5285281"></rtept>
    <rtept lat="25.0337362" lon="121.5287075"></rtept>
    <rtept lat="25.0336540" lon="121.5298774"></rtept>
    <rtept lat="25.0338924" lon="121.5299159"></rtept>
    <rtept lat="25.0339675" lon="121.5293483"></rtept>
    <rtept lat="25.0346579" lon="121.5293895"></rtept>
    <rtept lat="25.0346636" lon="121.5289549"></rtept>
    <rtept lat="25.0349384" lon="121.5279525"></rtept>
    <rtept lat="25.0346778" lon="121.5278865"></rtept>
    <rtept lat="25.0347553" lon="121.5274885"></rtept>
    <rtept lat="25.0359107" lon="121.5276896"></rtept>
    <rtept lat="25.0380575" lon="121.5283088"></rtept>
    <rtept lat="25.0380877" lon="121.5280977"></rtept>
    <rtept lat="25.0390899" lon="121.5284559"></rtept>
    <rtept lat="25.0397456" lon="121.5257487"></rtept>
    <rtept lat="25.0426942" lon="121.5264762"></rtept>
    <rtept lat="25.0430998" lon="121.5248260"></rtept>
    <rtept lat="25.0442201" lon="121.5250071"></rtept>
    <rtept lat="25.0446234" lon="121.5234596"></rtept>
    <rtept lat="25.0459419" lon="121.5237890"></rtept>
    <rtept lat="25.0462643" lon="121.5241336"></rtept>
    <rtept lat="25.0459269" lon="121.5255410"></rtept>
    <rtept lat="25.0467707" lon="121.5220871"></rtept>
    <rtept lat="25.0477324" lon="121.5223589"></rtept>
    <rtept lat="25.0478954" lon="121.5206618"></rtept>
    <rtept lat="25.0498283" lon="121.5216305"></rtept>
    <rtept lat="25.0498624" lon="121.5214968"></rtept>
    <rtept lat="25.0489163" lon="121.5210165"></rtept>
    <rtept lat="25.0501207" lon="121.5158623"></rtept>
    <rtept lat="25.0511052" lon="121.5161146"></rtept>
    <rtept lat="25.0515594" lon="121.5139798"></rtept>
    <rtept lat="25.0541360" lon="121.5144376"></rtept>
    <rtept lat="25.0540085" lon="121.5135085"></rtept>
    <rtept lat="25.0552087" lon="121.5133219"></rtept>
    <rtept lat="25.0551770" lon="121.5129499"></rtept>
    <rtept lat="25.0557039" lon="121.5128496"></rtept>
  </rte>
  <trk>
    <name>恐龍路線</name>
    <type>cycling</type>
    <trkseg>
      <trkpt lat="25.0557039" lon="121.5128496"></trkpt>
      <trkpt lat="25.0559206" lon="121.5137904"></trkpt>
      <trkpt lat="25.0559372" lon="121.5138624"></trkpt>
      <trkpt lat="25.0559504" lon="121.5139335"></trkpt>
      <trkpt lat="25.0559630" lon="121.5140220"></trkpt>
      <trkpt lat="25.0560157" lon="121.5140036"></trkpt>
      <trkpt lat="25.0563243" lon="121.5139331"></trkpt>
      <trkpt lat="25.0564013" lon="121.5139206"></trkpt>
      <trkpt lat="25.0565438" lon="121.5139059"></trkpt>
      <trkpt lat="25.0568991" lon="121.5138708"></trkpt>
      <trkpt lat="25.0569922" lon="121.5138554"></trkpt>
      <trkpt lat="25.0571026" lon="121.5138372"></trkpt>
      <trkpt lat="25.0576216" lon="121.5137853"></trkpt>
      <trkpt lat="25.0579368" lon="121.5137380"></trkpt>
      <trkpt lat="25.0581328" lon="121.5137245"></trkpt>
      <trkpt lat="25.0581818" lon="121.5137235"></trkpt>
      <trkpt lat="25.0582848" lon="121.5137185"></trkpt>
      <trkpt lat="25.0587903" lon="121.5137129"></trkpt>
      <trkpt lat="25.0591590" lon="121.5137033"></trkpt>
      <trkpt lat="25.0592083" lon="121.5137020"></trkpt>
      <trkpt lat="25.0592403" lon="121.5137022"></trkpt>
      <trkpt lat="25.0592793" lon="121.5141387"></trkpt>
      <trkpt lat="25.0593584" lon="121.5147429"></trkpt>
      <trkpt lat="25.0593719" lon="121.5148081"></trkpt>
      <trkpt lat="25.0595047" lon="121.5147663"></trkpt>
      <trkpt lat="25.0595923" lon="121.5147366"></trkpt>
      <trkpt lat="25.0601151" lon="121.5145652"></trkpt>
      <trkpt lat="25.0607389" lon="121.5143738"></trkpt>
      <trkpt lat="25.0608077" lon="121.5143405"></trkpt>
      <trkpt lat="25.0608158" lon="121.5144374"></trkpt>
      <trkpt lat="25.0608472" lon="121.5148236"></trkpt>
      <trkpt lat="25.0614868" lon="121.5146156"></trkpt>
      <trkpt lat="25.0616498" lon="121.5145681"></trkpt>
      <trkpt lat="25.0617955" lon="121.5145330"></trkpt>
      <trkpt lat="25.0622324" lon="121.5146708"></trkpt>
      <trkpt lat="25.0622251" lon="121.5149459"></trkpt>
      <trkpt lat="25.0622083" lon="121.5155828"></trkpt>
      <trkpt lat="25.0621954" lon="121.5159452"></trkpt>
      <trkpt lat="25.0621722" lon="121.5167435"></trkpt>
      <trkpt lat="25.0621688" lon="121.5168576"></trkpt>
      <trkpt lat="25.0627765" lon="121.5168822"></trkpt>
      <trkpt lat="25.0627512" lon="121.5177248"></trkpt>
      <trkpt lat="25.0628089" lon="121.5177285"></trkpt>
      <trkpt lat="25.0628012" lon="121.5180371"></trkpt>
      <trkpt lat="25.0628270" lon="121.5182174"></trkpt>
      <trkpt lat="25.0628230" lon="121.5183691"></trkpt>
      <trkpt lat="25.0629584" lon="121.5183756"></trkpt>
      <trkpt lat="25.0630865" lon="121.5183827"></trkpt>
      <trkpt lat="25.0632318" lon="121.5183852"></trkpt>
      <trkpt lat="25.0646534" lon="121.5184052"></trkpt>
      <trkpt lat="25.0650972" lon="121.5184149"></trkpt>
      <trkpt lat="25.0657616" lon="121.5184280"></trkpt>
      <trkpt lat="25.0658601" lon="121.5184306"></trkpt>
      <trkpt lat="25.0659838" lon="121.5184324"></trkpt>
      <trkpt lat="25.0660476" lon="121.5184387"></trkpt>
      <trkpt lat="25.0662026" lon="121.5184411"></trkpt>
      <trkpt lat="25.0664718" lon="121.5184453"></trkpt>
      <trkpt lat="25.0668654" lon="121.5184541"></trkpt>
      <trkpt lat="25.0672051" lon="121.5184597"></trkpt>
      <trkpt lat="25.0673009" lon="121.5184613"></trkpt>
      <trkpt lat="25.0673472" lon="121.5184621"></trkpt>
      <trkpt lat="25.0677009" lon="121.5184657"></trkpt>
      <trkpt lat="25.0680619" lon="121.5184781"></trkpt>
      <trkpt lat="25.0683030" lon="121.5184852"></trkpt>
      <trkpt lat="25.0683543" lon="121.5184867"></trkpt>
      <trkpt lat="25.0684088" lon="121.5184883"></trkpt>
      <trkpt lat="25.0685265" lon="121.5184911"></trkpt>
      <trkpt lat="25.0685220" lon="121.5186349"></trkpt>
      <trkpt lat="25.0685239" lon="121.5186754"></trkpt>
      <trkpt lat="25.0685230" lon="121.5187172"></trkpt>
      <trkpt lat="25.0685107" lon="121.5194911"></trkpt>
      <trkpt lat="25.0685095" lon="121.5195377"></trkpt>
      <trkpt lat="25.0685090" lon="121.5196534"></trkpt>
      <trkpt lat="25.0684795" lon="121.5198232"></trkpt>
      <trkpt lat="25.0684025" lon="121.5198180"></trkpt>
      <trkpt lat="25.0683162" lon="121.5197945"></trkpt>
      <trkpt lat="25.0681777" lon="121.5197697"></trkpt>
      <trkpt lat="25.0673077" lon="121.5196679"></trkpt>
      <trkpt lat="25.0673010" lon="121.5197188"></trkpt>
      <trkpt lat="25.0684076" lon="121.5198652"></trkpt>
      <trkpt lat="25.0684765" lon="121.5199205"></trkpt>
      <trkpt lat="25.0684805" lon="121.5200891"></trkpt>
      <trkpt lat="25.0684663" lon="121.5206851"></trkpt>
      <trkpt lat="25.0684401" lon="121.5217795"></trkpt>
      <trkpt lat="25.0684208" lon="121.5225884"></trkpt>
      <trkpt lat="25.0684131" lon="121.5227334"></trkpt>
      <trkpt lat="25.0684030" lon="121.5228521"></trkpt>
      <trkpt lat="25.0684003" lon="121.5229667"></trkpt>
      <trkpt lat="25.0684836" lon="121.5229855"></trkpt>
      <trkpt lat="25.0685856" lon="121.5230085"></trkpt>
      <trkpt lat="25.0685696" lon="121.5230832"></trkpt>
      <trkpt lat="25.0685456" lon="121.5230813"></trkpt>
      <trkpt lat="25.0684807" lon="121.5230791"></trkpt>
      <trkpt lat="25.0683978" lon="121.5230762"></trkpt>
      <trkpt lat="25.0683705" lon="121.5244269"></trkpt>
      <trkpt lat="25.0683693" lon="121.5244848"></trkpt>
      <trkpt lat="25.0683678" lon="121.5245581"></trkpt>
      <trkpt lat="25.0683660" lon="121.5246481"></trkpt>
      <trkpt lat="25.0683650" lon="121.5247334"></trkpt>
      <trkpt lat="25.0683559" lon="121.5255474"></trkpt>
      <trkpt lat="25.0683552" lon="121.5256023"></trkpt>
      <trkpt lat="25.0683545" lon="121.5256674"></trkpt>
      <trkpt lat="25.0683535" lon="121.5257514"></trkpt>
      <trkpt lat="25.0683523" lon="121.5258411"></trkpt>
      <trkpt lat="25.0683515" lon="121.5259006"></trkpt>
      <trkpt lat="25.0683347" lon="121.5264000"></trkpt>
      <trkpt lat="25.0683141" lon="121.5274990"></trkpt>
      <trkpt lat="25.0683134" lon="121.5275382"></trkpt>
      <trkpt lat="25.0683119" lon="121.5276173"></trkpt>
      <trkpt lat="25.0683068" lon="121.5276981"></trkpt>
      <trkpt lat="25.0682904" lon="121.5280469"></trkpt>
      <trkpt lat="25.0682871" lon="121.5281249"></trkpt>
      <trkpt lat="25.0682672" lon="121.5294660"></trkpt>
      <trkpt lat="25.0682418" lon="121.5303703"></trkpt>
      <trkpt lat="25.0682382" lon="121.5304608"></trkpt>
      <trkpt lat="25.0681613" lon="121.5304632"></trkpt>
      <trkpt lat="25.0677406" lon="121.5304696"></trkpt>
      <trkpt lat="25.0676622" lon="121.5304673"></trkpt>
      <trkpt lat="25.0673407" lon="121.5304724"></trkpt>
      <trkpt lat="25.0673474" lon="121.5307382"></trkpt>
      <trkpt lat="25.0673326" lon="121.5318206"></trkpt>
      <trkpt lat="25.0669532" lon="121.5318107"></trkpt>
      <trkpt lat="25.0665594" lon="121.5318009"></trkpt>
      <trkpt lat="25.0660579" lon="121.5317812"></trkpt>
      <trkpt lat="25.0656368" lon="121.5317922"></trkpt>
      <trkpt lat="25.0655811" lon="121.5317905"></trkpt>
      <trkpt lat="25.0653972" lon="121.5317848"></trkpt>
      <trkpt lat="25.0652438" lon="121.5317801"></trkpt>
      <trkpt lat="25.0648015" lon="121.5317414"></trkpt>
      <trkpt lat="25.0648124" lon="121.5311910"></trkpt>
      <trkpt lat="25.0648258" lon="121.5304759"></trkpt>
      <trkpt lat="25.0648280" lon="121.5303580"></trkpt>
      <trkpt lat="25.0647125" lon="121.5303545"></trkpt>
      <trkpt lat="25.0643916" lon="121.5303409"></trkpt>
      <trkpt lat="25.0639595" lon="121.5303318"></trkpt>
      <trkpt lat="25.0635498" lon="121.5303195"></trkpt>
      <trkpt lat="25.0631254" lon="121.5303039"></trkpt>
      <trkpt lat="25.0627214" lon="121.5303399"></trkpt>
      <trkpt lat="25.0626244" lon="121.5303358"></trkpt>
      <trkpt lat="25.0624758" lon="121.5303375"></trkpt>
      <trkpt lat="25.0623678" lon="121.5303373"></trkpt>
      <trkpt lat="25.0619700" lon="121.5302878"></trkpt>
      <trkpt lat="25.0620047" lon="121.5297509"></trkpt>
      <trkpt lat="25.0616139" lon="121.5297616"></trkpt>
      <trkpt lat="25.0616173" lon="121.5289877"></trkpt>
      <trkpt lat="25.0612371" lon="121.5289810"></trkpt>
      <trkpt lat="25.0608477" lon="121.5289674"></trkpt>
      <trkpt lat="25.0604233" lon="121.5289683"></trkpt>
      <trkpt lat="25.0603343" lon="121.5289685"></trkpt>
      <trkpt lat="25.0603456" lon="121.5288624"></trkpt>
      <trkpt lat="25.0603496" lon="121.5288250"></trkpt>
      <trkpt lat="25.0603498" lon="121.5287784"></trkpt>
      <trkpt lat="25.0603753" lon="121.5278740"></trkpt>
      <trkpt lat="25.0602936" lon="121.5275871"></trkpt>
      <trkpt lat="25.0602616" lon="121.5274796"></trkpt>
      <trkpt lat="25.0593629" lon="121.5274590"></trkpt>
      <trkpt lat="25.0593351" lon="121.5274583"></trkpt>
      <trkpt lat="25.0587184" lon="121.5274417"></trkpt>
      <trkpt lat="25.0585167" lon="121.5274377"></trkpt>
      <trkpt lat="25.0581494" lon="121.5274322"></trkpt>
      <trkpt lat="25.0580244" lon="121.5274327"></trkpt>
      <trkpt lat="25.0579291" lon="121.5274299"></trkpt>
      <trkpt lat="25.0574501" lon="121.5274167"></trkpt>
      <trkpt lat="25.0573990" lon="121.5274201"></trkpt>
      <trkpt lat="25.0567728" lon="121.5274053"></trkpt>
      <trkpt lat="25.0561754" lon="121.5274000"></trkpt>
      <trkpt lat="25.0559979" lon="121.5273984"></trkpt>
      <trkpt lat="25.0559455" lon="121.5277332"></trkpt>
      <trkpt lat="25.0561995" lon="121.5277408"></trkpt>
      <trkpt lat="25.0563375" lon="121.5284084"></trkpt>
      <trkpt lat="25.0564349" lon="121.5286117"></trkpt>
      <trkpt lat="25.0564774" lon="121.5288998"></trkpt>
      <trkpt lat="25.0564373" lon="121.5301792"></trkpt>
      <trkpt lat="25.0564703" lon="121.5301798"></trkpt>
      <trkpt lat="25.0568018" lon="121.5301863"></trkpt>
      <trkpt lat="25.0571277" lon="121.5301927"></trkpt>
      <trkpt lat="25.0572808" lon="121.5301957"></trkpt>
      <trkpt lat="25.0574095" lon="121.5301983"></trkpt>
      <trkpt lat="25.0578533" lon="121.5302070"></trkpt>
      <trkpt lat="25.0579817" lon="121.5302095"></trkpt>
      <trkpt lat="25.0581032" lon="121.5302119"></trkpt>
      <trkpt lat="25.0585045" lon="121.5302198"></trkpt>
      <trkpt lat="25.0588817" lon="121.5302272"></trkpt>
      <trkpt lat="25.0589612" lon="121.5302287"></trkpt>
      <trkpt lat="25.0589240" lon="121.5308384"></trkpt>
      <trkpt lat="25.0591591" lon="121.5308451"></trkpt>
      <trkpt lat="25.0593393" lon="121.5308552"></trkpt>
      <trkpt lat="25.0593455" lon="121.5316929"></trkpt>
      <trkpt lat="25.0589140" lon="121.5316642"></trkpt>
      <trkpt lat="25.0589108" lon="121.5322495"></trkpt>
      <trkpt lat="25.0591812" lon="121.5322397"></trkpt>
      <trkpt lat="25.0591805" lon="121.5325417"></trkpt>
      <trkpt lat="25.0598959" lon="121.5325631"></trkpt>
      <trkpt lat="25.0603361" lon="121.5325506"></trkpt>
      <trkpt lat="25.0607366" lon="121.5325713"></trkpt>
      <trkpt lat="25.0611563" lon="121.5325568"></trkpt>
      <trkpt lat="25.0611416" lon="121.5330050"></trkpt>
      <trkpt lat="25.0611396" lon="121.5330851"></trkpt>
      <trkpt lat="25.0605040" lon="121.5330758"></trkpt>
      <trkpt lat="25.0604457" lon="121.5330749"></trkpt>
      <trkpt lat="25.0604168" lon="121.5330745"></trkpt>
      <trkpt lat="25.0603318" lon="121.5330932"></trkpt>
      <trkpt lat="25.0603450" lon="121.5332504"></trkpt>
      <trkpt lat="25.0604125" lon="121.5332507"></trkpt>
      <trkpt lat="25.0610607" lon="121.5332608"></trkpt>
      <trkpt lat="25.0613747" lon="121.5332649"></trkpt>
      <trkpt lat="25.0614487" lon="121.5332659"></trkpt>
      <trkpt lat="25.0618149" lon="121.5332725"></trkpt>
      <trkpt lat="25.0621585" lon="121.5332852"></trkpt>
      <trkpt lat="25.0622450" lon="121.5332884"></trkpt>
      <trkpt lat="25.0623003" lon="121.5332904"></trkpt>
      <trkpt lat="25.0623256" lon="121.5332219"></trkpt>
      <trkpt lat="25.0623003" lon="121.5332904"></trkpt>
      <trkpt lat="25.0624126" lon="121.5332790"></trkpt>
      <trkpt lat="25.0624087" lon="121.5333986"></trkpt>
      <trkpt lat="25.0623705" lon="121.5347897"></trkpt>
      <trkpt lat="25.0623670" lon="121.5349149"></trkpt>
      <trkpt lat="25.0622686" lon="121.5348930"></trkpt>
      <trkpt lat="25.0620833" lon="121.5348854"></trkpt>
      <trkpt lat="25.0617860" lon="121.5348570"></trkpt>
      <trkpt lat="25.0614062" lon="121.5348468"></trkpt>
      <trkpt lat="25.0610475" lon="121.5348453"></trkpt>
      <trkpt lat="25.0606894" lon="121.5348392"></trkpt>
      <trkpt lat="25.0603546" lon="121.5348828"></trkpt>
      <trkpt lat="25.0603120" lon="121.5348754"></trkpt>
      <trkpt lat="25.0602387" lon="121.5348742"></trkpt>
      <trkpt lat="25.0599178" lon="121.5348743"></trkpt>
      <trkpt lat="25.0595450" lon="121.5348692"></trkpt>
      <trkpt lat="25.0591888" lon="121.5348232"></trkpt>
      <trkpt lat="25.0588301" lon="121.5348059"></trkpt>
      <trkpt lat="25.0587658" lon="121.5347845"></trkpt>
      <trkpt lat="25.0583391" lon="121.5347972"></trkpt>
      <trkpt lat="25.0582265" lon="121.5347922"></trkpt>
      <trkpt lat="25.0580666" lon="121.5347968"></trkpt>
      <trkpt lat="25.0579825" lon="121.5348263"></trkpt>
      <trkpt lat="25.0580005" lon="121.5335016"></trkpt>
      <trkpt lat="25.0580014" lon="121.5334381"></trkpt>
      <trkpt lat="25.0580029" lon="121.5333244"></trkpt>
      <trkpt lat="25.0580062" lon="121.5332099"></trkpt>
      <trkpt lat="25.0579378" lon="121.5330675"></trkpt>
      <trkpt lat="25.0578098" lon="121.5330577"></trkpt>
      <trkpt lat="25.0574424" lon="121.5330521"></trkpt>
      <trkpt lat="25.0570899" lon="121.5330467"></trkpt>
      <trkpt lat="25.0567798" lon="121.5330419"></trkpt>
      <trkpt lat="25.0564129" lon="121.5330363"></trkpt>
      <trkpt lat="25.0560253" lon="121.5330303"></trkpt>
      <trkpt lat="25.0557463" lon="121.5330260"></trkpt>
      <trkpt lat="25.0556000" lon="121.5330043"></trkpt>
      <trkpt lat="25.0556000" lon="121.5329252"></trkpt>
      <trkpt lat="25.0555776" lon="121.5329242"></trkpt>
      <trkpt lat="25.0552864" lon="121.5329113"></trkpt>
      <trkpt lat="25.0552599" lon="121.5329101"></trkpt>
      <trkpt lat="25.0552415" lon="121.5329092"></trkpt>
      <trkpt lat="25.0549191" lon="121.5329316"></trkpt>
      <trkpt lat="25.0548766" lon="121.5328987"></trkpt>
      <trkpt lat="25.0548072" lon="121.5329090"></trkpt>
      <trkpt lat="25.0548128" lon="121.5328103"></trkpt>
      <trkpt lat="25.0548103" lon="121.5327310"></trkpt>
      <trkpt lat="25.0548207" lon="121.5315631"></trkpt>
      <trkpt lat="25.0543745" lon="121.5315453"></trkpt>
      <trkpt lat="25.0540249" lon="121.5315415"></trkpt>
      <trkpt lat="25.0536533" lon="121.5315333"></trkpt>
      <trkpt lat="25.0532893" lon="121.5315254"></trkpt>
      <trkpt lat="25.0529381" lon="121.5315216"></trkpt>
      <trkpt lat="25.0525750" lon="121.5315226"></trkpt>
      <trkpt lat="25.0522236" lon="121.5315067"></trkpt>
      <trkpt lat="25.0521250" lon="121.5315065"></trkpt>
      <trkpt lat="25.0519725" lon="121.5315061"></trkpt>
      <trkpt lat="25.0519581" lon="121.5315966"></trkpt>
      <trkpt lat="25.0518818" lon="121.5315961"></trkpt>
      <trkpt lat="25.0518679" lon="121.5328052"></trkpt>
      <trkpt lat="25.0518480" lon="121.5328463"></trkpt>
      <trkpt lat="25.0514339" lon="121.5328360"></trkpt>
      <trkpt lat="25.0514080" lon="121.5328354"></trkpt>
      <trkpt lat="25.0513842" lon="121.5328352"></trkpt>
      <trkpt lat="25.0510229" lon="121.5328323"></trkpt>
      <trkpt lat="25.0509923" lon="121.5328321"></trkpt>
      <trkpt lat="25.0509761" lon="121.5328323"></trkpt>
      <trkpt lat="25.0505599" lon="121.5328385"></trkpt>
      <trkpt lat="25.0505414" lon="121.5328392"></trkpt>
      <trkpt lat="25.0505378" lon="121.5329321"></trkpt>
      <trkpt lat="25.0502713" lon="121.5329262"></trkpt>
      <trkpt lat="25.0502719" lon="121.5330651"></trkpt>
      <trkpt lat="25.0502725" lon="121.5331776"></trkpt>
      <trkpt lat="25.0502573" lon="121.5332133"></trkpt>
      <trkpt lat="25.0502296" lon="121.5336546"></trkpt>
      <trkpt lat="25.0502273" lon="121.5338006"></trkpt>
      <trkpt lat="25.0502178" lon="121.5344176"></trkpt>
      <trkpt lat="25.0502463" lon="121.5344444"></trkpt>
      <trkpt lat="25.0506300" lon="121.5344459"></trkpt>
      <trkpt lat="25.0506485" lon="121.5344356"></trkpt>
      <trkpt lat="25.0506489" lon="121.5345183"></trkpt>
      <trkpt lat="25.0506476" lon="121.5346865"></trkpt>
      <trkpt lat="25.0506601" lon="121.5347091"></trkpt>
      <trkpt lat="25.0509931" lon="121.5347091"></trkpt>
      <trkpt lat="25.0514035" lon="121.5347098"></trkpt>
      <trkpt lat="25.0514028" lon="121.5347800"></trkpt>
      <trkpt lat="25.0514022" lon="121.5348286"></trkpt>
      <trkpt lat="25.0513823" lon="121.5360317"></trkpt>
      <trkpt lat="25.0518357" lon="121.5360357"></trkpt>
      <trkpt lat="25.0518324" lon="121.5363948"></trkpt>
      <trkpt lat="25.0519127" lon="121.5363950"></trkpt>
      <trkpt lat="25.0519348" lon="121.5365369"></trkpt>
      <trkpt lat="25.0519262" lon="121.5370241"></trkpt>
      <trkpt lat="25.0520644" lon="121.5370268"></trkpt>
      <trkpt lat="25.0521672" lon="121.5370274"></trkpt>
      <trkpt lat="25.0522734" lon="121.5370282"></trkpt>
      <trkpt lat="25.0525274" lon="121.5370443"></trkpt>
      <trkpt lat="25.0535979" lon="121.5370719"></trkpt>
      <trkpt lat="25.0535995" lon="121.5371463"></trkpt>
      <trkpt lat="25.0536081" lon="121.5375459"></trkpt>
      <trkpt lat="25.0536084" lon="121.5376034"></trkpt>
      <trkpt lat="25.0536094" lon="121.5377731"></trkpt>
      <trkpt lat="25.0535724" lon="121.5378727"></trkpt>
      <trkpt lat="25.0538389" lon="121.5382966"></trkpt>
      <trkpt lat="25.0539478" lon="121.5384883"></trkpt>
      <trkpt lat="25.0539368" lon="121.5390467"></trkpt>
      <trkpt lat="25.0538747" lon="121.5390454"></trkpt>
      <trkpt lat="25.0536393" lon="121.5390533"></trkpt>
      <trkpt lat="25.0534112" lon="121.5390497"></trkpt>
      <trkpt lat="25.0534095" lon="121.5395005"></trkpt>
      <trkpt lat="25.0534066" lon="121.5401757"></trkpt>
      <trkpt lat="25.0533872" lon="121.5404772"></trkpt>
      <trkpt lat="25.0533269" lon="121.5404752"></trkpt>
      <trkpt lat="25.0531049" lon="121.5404719"></trkpt>
      <trkpt lat="25.0528686" lon="121.5404695"></trkpt>
      <trkpt lat="25.0528047" lon="121.5404689"></trkpt>
      <trkpt lat="25.0525349" lon="121.5404637"></trkpt>
      <trkpt lat="25.0521237" lon="121.5404670"></trkpt>
      <trkpt lat="25.0521225" lon="121.5405380"></trkpt>
      <trkpt lat="25.0520745" lon="121.5406239"></trkpt>
      <trkpt lat="25.0520661" lon="121.5410590"></trkpt>
      <trkpt lat="25.0520596" lon="121.5413943"></trkpt>
      <trkpt lat="25.0520546" lon="121.5416531"></trkpt>
      <trkpt lat="25.0520494" lon="121.5419522"></trkpt>
      <trkpt lat="25.0520494" lon="121.5420550"></trkpt>
      <trkpt lat="25.0519562" lon="121.5420558"></trkpt>
      <trkpt lat="25.0518145" lon="121.5420620"></trkpt>
      <trkpt lat="25.0518125" lon="121.5421460"></trkpt>
      <trkpt lat="25.0518051" lon="121.5424619"></trkpt>
      <trkpt lat="25.0517966" lon="121.5427929"></trkpt>
      <trkpt lat="25.0517123" lon="121.5427917"></trkpt>
      <trkpt lat="25.0514773" lon="121.5427886"></trkpt>
      <trkpt lat="25.0514350" lon="121.5427880"></trkpt>
      <trkpt lat="25.0509431" lon="121.5419084"></trkpt>
      <trkpt lat="25.0506177" lon="121.5421560"></trkpt>
      <trkpt lat="25.0502807" lon="121.5423416"></trkpt>
      <trkpt lat="25.0502158" lon="121.5422784"></trkpt>
      <trkpt lat="25.0501613" lon="121.5421881"></trkpt>
      <trkpt lat="25.0499565" lon="121.5421834"></trkpt>
      <trkpt lat="25.0499576" lon="121.5421355"></trkpt>
      <trkpt lat="25.0499794" lon="121.5413698"></trkpt>
      <trkpt lat="25.0499727" lon="121.5404313"></trkpt>
      <trkpt lat="25.0499822" lon="121.5399850"></trkpt>
      <trkpt lat="25.0500012" lon="121.5390976"></trkpt>
      <trkpt lat="25.0498611" lon="121.5391030"></trkpt>
      <trkpt lat="25.0495895" lon="121.5391135"></trkpt>
      <trkpt lat="25.0492016" lon="121.5391156"></trkpt>
      <trkpt lat="25.0488094" lon="121.5391157"></trkpt>
      <trkpt lat="25.0484360" lon="121.5391112"></trkpt>
      <trkpt lat="25.0483571" lon="121.5391067"></trkpt>
      <trkpt lat="25.0483551" lon="121.5391780"></trkpt>
      <trkpt lat="25.0483441" lon="121.5396916"></trkpt>
      <trkpt lat="25.0483314" lon="121.5402875"></trkpt>
      <trkpt lat="25.0483277" lon="121.5404047"></trkpt>
      <trkpt lat="25.0482220" lon="121.5404026"></trkpt>
      <trkpt lat="25.0477446" lon="121.5403887"></trkpt>
      <trkpt lat="25.0472781" lon="121.5403880"></trkpt>
      <trkpt lat="25.0473166" lon="121.5408798"></trkpt>
      <trkpt lat="25.0473931" lon="121.5413704"></trkpt>
      <trkpt lat="25.0473748" lon="121.5413781"></trkpt>
      <trkpt lat="25.0472007" lon="121.5414189"></trkpt>
      <trkpt lat="25.0470775" lon="121.5414583"></trkpt>
      <trkpt lat="25.0470531" lon="121.5414661"></trkpt>
      <trkpt lat="25.0469700" lon="121.5414969"></trkpt>
      <trkpt lat="25.0469884" lon="121.5415689"></trkpt>
      <trkpt lat="25.0469057" lon="121.5415941"></trkpt>
      <trkpt lat="25.0458311" lon="121.5420395"></trkpt>
      <trkpt lat="25.0454474" lon="121.5421639"></trkpt>
      <trkpt lat="25.0448537" lon="121.5423416"></trkpt>
      <trkpt lat="25.0448277" lon="121.5423494"></trkpt>
      <trkpt lat="25.0447967" lon="121.5423587"></trkpt>
      <trkpt lat="25.0446152" lon="121.5424185"></trkpt>
      <trkpt lat="25.0445830" lon="121.5424291"></trkpt>
      <trkpt lat="25.0445079" lon="121.5424431"></trkpt>
      <trkpt lat="25.0442904" lon="121.5425476"></trkpt>
      <trkpt lat="25.0439597" lon="121.5426422"></trkpt>
      <trkpt lat="25.0439601" lon="121.5425781"></trkpt>
      <trkpt lat="25.0440101" lon="121.5423216"></trkpt>
      <trkpt lat="25.0440147" lon="121.5422977"></trkpt>
      <trkpt lat="25.0440234" lon="121.5422389"></trkpt>
      <trkpt lat="25.0440968" lon="121.5416984"></trkpt>
      <trkpt lat="25.0441111" lon="121.5416362"></trkpt>
      <trkpt lat="25.0440906" lon="121.5416343"></trkpt>
      <trkpt lat="25.0439758" lon="121.5416302"></trkpt>
      <trkpt lat="25.0439267" lon="121.5416598"></trkpt>
      <trkpt lat="25.0438880" lon="121.5416603"></trkpt>
      <trkpt lat="25.0437642" lon="121.5416584"></trkpt>
      <trkpt lat="25.0436062" lon="121.5416571"></trkpt>
      <trkpt lat="25.0434571" lon="121.5416558"></trkpt>
      <trkpt lat="25.0432973" lon="121.5416544"></trkpt>
      <trkpt lat="25.0431466" lon="121.5416531"></trkpt>
      <trkpt lat="25.0431382" lon="121.5424506"></trkpt>
      <trkpt lat="25.0431146" lon="121.5424917"></trkpt>
      <trkpt lat="25.0430961" lon="121.5430575"></trkpt>
      <trkpt lat="25.0430955" lon="121.5433437"></trkpt>
      <trkpt lat="25.0430953" lon="121.5434545"></trkpt>
      <trkpt lat="25.0429477" lon="121.5435903"></trkpt>
      <trkpt lat="25.0428999" lon="121.5436342"></trkpt>
      <trkpt lat="25.0428602" lon="121.5436643"></trkpt>
      <trkpt lat="25.0427933" lon="121.5437347"></trkpt>
      <trkpt lat="25.0422993" lon="121.5437210"></trkpt>
      <trkpt lat="25.0418448" lon="121.5437125"></trkpt>
      <trkpt lat="25.0418438" lon="121.5438436"></trkpt>
      <trkpt lat="25.0418431" lon="121.5439632"></trkpt>
      <trkpt lat="25.0417850" lon="121.5439740"></trkpt>
      <trkpt lat="25.0416782" lon="121.5439715"></trkpt>
      <trkpt lat="25.0415533" lon="121.5439714"></trkpt>
      <trkpt lat="25.0414516" lon="121.5439669"></trkpt>
      <trkpt lat="25.0414298" lon="121.5439469"></trkpt>
      <trkpt lat="25.0413728" lon="121.5439464"></trkpt>
      <trkpt lat="25.0413723" lon="121.5438336"></trkpt>
      <trkpt lat="25.0413727" lon="121.5437123"></trkpt>
      <trkpt lat="25.0413738" lon="121.5436009"></trkpt>
      <trkpt lat="25.0406494" lon="121.5435828"></trkpt>
      <trkpt lat="25.0398244" lon="121.5435501"></trkpt>
      <trkpt lat="25.0398239" lon="121.5435739"></trkpt>
      <trkpt lat="25.0398213" lon="121.5436858"></trkpt>
      <trkpt lat="25.0398186" lon="121.5438038"></trkpt>
      <trkpt lat="25.0398225" lon="121.5439007"></trkpt>
      <trkpt lat="25.0397170" lon="121.5439003"></trkpt>
      <trkpt lat="25.0390399" lon="121.5438858"></trkpt>
      <trkpt lat="25.0390300" lon="121.5443925"></trkpt>
      <trkpt lat="25.0390143" lon="121.5451888"></trkpt>
      <trkpt lat="25.0386195" lon="121.5451807"></trkpt>
      <trkpt lat="25.0381952" lon="121.5451719"></trkpt>
      <trkpt lat="25.0381939" lon="121.5452369"></trkpt>
      <trkpt lat="25.0381795" lon="121.5459211"></trkpt>
      <trkpt lat="25.0381781" lon="121.5459898"></trkpt>
      <trkpt lat="25.0381769" lon="121.5460449"></trkpt>
      <trkpt lat="25.0381755" lon="121.5461138"></trkpt>
      <trkpt lat="25.0381733" lon="121.5461501"></trkpt>
      <trkpt lat="25.0381032" lon="121.5461544"></trkpt>
      <trkpt lat="25.0380056" lon="121.5461604"></trkpt>
      <trkpt lat="25.0379811" lon="121.5461619"></trkpt>
      <trkpt lat="25.0378665" lon="121.5461689"></trkpt>
      <trkpt lat="25.0378343" lon="121.5461708"></trkpt>
      <trkpt lat="25.0378025" lon="121.5477657"></trkpt>
      <trkpt lat="25.0377753" lon="121.5477634"></trkpt>
      <trkpt lat="25.0377584" lon="121.5477627"></trkpt>
      <trkpt lat="25.0377086" lon="121.5477426"></trkpt>
      <trkpt lat="25.0377584" lon="121.5477627"></trkpt>
      <trkpt lat="25.0377753" lon="121.5477634"></trkpt>
      <trkpt lat="25.0378025" lon="121.5477657"></trkpt>
      <trkpt lat="25.0378311" lon="121.5477681"></trkpt>
      <trkpt lat="25.0377740" lon="121.5479410"></trkpt>
      <trkpt lat="25.0377439" lon="121.5480315"></trkpt>
      <trkpt lat="25.0377183" lon="121.5481296"></trkpt>
      <trkpt lat="25.0376865" lon="121.5482211"></trkpt>
      <trkpt lat="25.0376474" lon="121.5483088"></trkpt>
      <trkpt lat="25.0376004" lon="121.5484224"></trkpt>
      <trkpt lat="25.0375134" lon="121.5485116"></trkpt>
      <trkpt lat="25.0374642" lon="121.5485917"></trkpt>
      <trkpt lat="25.0374300" lon="121.5486806"></trkpt>
      <trkpt lat="25.0374118" lon="121.5487752"></trkpt>
      <trkpt lat="25.0374103" lon="121.5488719"></trkpt>
      <trkpt lat="25.0374209" lon="121.5489358"></trkpt>
      <trkpt lat="25.0374573" lon="121.5490572"></trkpt>
      <trkpt lat="25.0375041" lon="121.5491390"></trkpt>
      <trkpt lat="25.0375397" lon="121.5491841"></trkpt>
      <trkpt lat="25.0375612" lon="121.5492146"></trkpt>
      <trkpt lat="25.0376273" lon="121.5493386"></trkpt>
      <trkpt lat="25.0376511" lon="121.5494513"></trkpt>
      <trkpt lat="25.0376556" lon="121.5496049"></trkpt>
      <trkpt lat="25.0376553" lon="121.5497024"></trkpt>
      <trkpt lat="25.0376563" lon="121.5498403"></trkpt>
      <trkpt lat="25.0376467" lon="121.5503066"></trkpt>
      <trkpt lat="25.0375724" lon="121.5503037"></trkpt>
      <trkpt lat="25.0371319" lon="121.5502930"></trkpt>
      <trkpt lat="25.0367347" lon="121.5502859"></trkpt>
      <trkpt lat="25.0363385" lon="121.5502765"></trkpt>
      <trkpt lat="25.0354764" lon="121.5502575"></trkpt>
      <trkpt lat="25.0350493" lon="121.5502480"></trkpt>
      <trkpt lat="25.0350127" lon="121.5515850"></trkpt>
      <trkpt lat="25.0350106" lon="121.5516595"></trkpt>
      <trkpt lat="25.0350101" lon="121.5517391"></trkpt>
      <trkpt lat="25.0350049" lon="121.5523905"></trkpt>
      <trkpt lat="25.0350039" lon="121.5524611"></trkpt>
      <trkpt lat="25.0347349" lon="121.5524534"></trkpt>
      <trkpt lat="25.0346677" lon="121.5524510"></trkpt>
      <trkpt lat="25.0346680" lon="121.5525624"></trkpt>
      <trkpt lat="25.0347344" lon="121.5525629"></trkpt>
      <trkpt lat="25.0350061" lon="121.5525746"></trkpt>
      <trkpt lat="25.0350049" lon="121.5526477"></trkpt>
      <trkpt lat="25.0353461" lon="121.5526561"></trkpt>
      <trkpt lat="25.0354162" lon="121.5526578"></trkpt>
      <trkpt lat="25.0354825" lon="121.5526601"></trkpt>
      <trkpt lat="25.0361541" lon="121.5526779"></trkpt>
      <trkpt lat="25.0361939" lon="121.5526817"></trkpt>
      <trkpt lat="25.0362361" lon="121.5527007"></trkpt>
      <trkpt lat="25.0362635" lon="121.5526571"></trkpt>
      <trkpt lat="25.0362998" lon="121.5526052"></trkpt>
      <trkpt lat="25.0364548" lon="121.5527532"></trkpt>
      <trkpt lat="25.0363855" lon="121.5528033"></trkpt>
      <trkpt lat="25.0362483" lon="121.5529025"></trkpt>
      <trkpt lat="25.0362171" lon="121.5544557"></trkpt>
      <trkpt lat="25.0362186" lon="121.5551021"></trkpt>
      <trkpt lat="25.0362203" lon="121.5556383"></trkpt>
      <trkpt lat="25.0359760" lon="121.5556640"></trkpt>
      <trkpt lat="25.0359711" lon="121.5558573"></trkpt>
      <trkpt lat="25.0360107" lon="121.5560605"></trkpt>
      <trkpt lat="25.0360145" lon="121.5562479"></trkpt>
      <trkpt lat="25.0356111" lon="121.5564222"></trkpt>
      <trkpt lat="25.0353571" lon="121.5564893"></trkpt>
      <trkpt lat="25.0353975" lon="121.5566893"></trkpt>
      <trkpt lat="25.0353980" lon="121.5568812"></trkpt>
      <trkpt lat="25.0353975" lon="121.5566893"></trkpt>
      <trkpt lat="25.0353571" lon="121.5564893"></trkpt>
      <trkpt lat="25.0353050" lon="121.5563301"></trkpt>
      <trkpt lat="25.0352372" lon="121.5561670"></trkpt>
      <trkpt lat="25.0351579" lon="121.5560390"></trkpt>
      <trkpt lat="25.0351213" lon="121.5559680"></trkpt>
      <trkpt lat="25.0350634" lon="121.5560138"></trkpt>
      <trkpt lat="25.0346614" lon="121.5563391"></trkpt>
      <trkpt lat="25.0344695" lon="121.5560138"></trkpt>
      <trkpt lat="25.0341785" lon="121.5558082"></trkpt>
      <trkpt lat="25.0345998" lon="121.5551107"></trkpt>
      <trkpt lat="25.0346412" lon="121.5550422"></trkpt>
      <trkpt lat="25.0344696" lon="121.5547424"></trkpt>
      <trkpt lat="25.0344180" lon="121.5546521"></trkpt>
      <trkpt lat="25.0343854" lon="121.5546123"></trkpt>
      <trkpt lat="25.0342849" lon="121.5545111"></trkpt>
      <trkpt lat="25.0342370" lon="121.5544723"></trkpt>
      <trkpt lat="25.0342052" lon="121.5544466"></trkpt>
      <trkpt lat="25.0341277" lon="121.5544000"></trkpt>
      <trkpt lat="25.0339984" lon="121.5543444"></trkpt>
      <trkpt lat="25.0339017" lon="121.5543119"></trkpt>
      <trkpt lat="25.0338409" lon="121.5543027"></trkpt>
      <trkpt lat="25.0333384" lon="121.5542934"></trkpt>
      <trkpt lat="25.0332451" lon="121.5542928"></trkpt>
      <trkpt lat="25.0331653" lon="121.5542912"></trkpt>
      <trkpt lat="25.0330886" lon="121.5542896"></trkpt>
      <trkpt lat="25.0329931" lon="121.5542879"></trkpt>
      <trkpt lat="25.0324499" lon="121.5542865"></trkpt>
      <trkpt lat="25.0320757" lon="121.5542755"></trkpt>
      <trkpt lat="25.0316955" lon="121.5542720"></trkpt>
      <trkpt lat="25.0313136" lon="121.5542602"></trkpt>
      <trkpt lat="25.0316955" lon="121.5542720"></trkpt>
      <trkpt lat="25.0320757" lon="121.5542755"></trkpt>
      <trkpt lat="25.0320853" lon="121.5533030"></trkpt>
      <trkpt lat="25.0320875" lon="121.5532385"></trkpt>
      <trkpt lat="25.0321099" lon="121.5525801"></trkpt>
      <trkpt lat="25.0321126" lon="121.5525010"></trkpt>
      <trkpt lat="25.0326228" lon="121.5525136"></trkpt>
      <trkpt lat="25.0326282" lon="121.5524188"></trkpt>
      <trkpt lat="25.0326306" lon="121.5523608"></trkpt>
      <trkpt lat="25.0327195" lon="121.5515931"></trkpt>
      <trkpt lat="25.0327768" lon="121.5510577"></trkpt>
      <trkpt lat="25.0328107" lon="121.5506565"></trkpt>
      <trkpt lat="25.0328675" lon="121.5501420"></trkpt>
      <trkpt lat="25.0329442" lon="121.5494060"></trkpt>
      <trkpt lat="25.0329723" lon="121.5491183"></trkpt>
      <trkpt lat="25.0329797" lon="121.5490410"></trkpt>
      <trkpt lat="25.0330687" lon="121.5490419"></trkpt>
      <trkpt lat="25.0330686" lon="121.5487885"></trkpt>
      <trkpt lat="25.0330687" lon="121.5485527"></trkpt>
      <trkpt lat="25.0321386" lon="121.5485444"></trkpt>
      <trkpt lat="25.0311184" lon="121.5485361"></trkpt>
      <trkpt lat="25.0310750" lon="121.5485354"></trkpt>
      <trkpt lat="25.0310376" lon="121.5485351"></trkpt>
      <trkpt lat="25.0310392" lon="121.5484800"></trkpt>
      <trkpt lat="25.0310172" lon="121.5484804"></trkpt>
      <trkpt lat="25.0309755" lon="121.5484811"></trkpt>
      <trkpt lat="25.0309776" lon="121.5483842"></trkpt>
      <trkpt lat="25.0309841" lon="121.5480825"></trkpt>
      <trkpt lat="25.0309853" lon="121.5480280"></trkpt>
      <trkpt lat="25.0310574" lon="121.5480270"></trkpt>
      <trkpt lat="25.0314137" lon="121.5480221"></trkpt>
      <trkpt lat="25.0317592" lon="121.5480221"></trkpt>
      <trkpt lat="25.0317633" lon="121.5473044"></trkpt>
      <trkpt lat="25.0316695" lon="121.5469929"></trkpt>
      <trkpt lat="25.0316344" lon="121.5467824"></trkpt>
      <trkpt lat="25.0316163" lon="121.5466460"></trkpt>
      <trkpt lat="25.0320720" lon="121.5464342"></trkpt>
      <trkpt lat="25.0320681" lon="121.5460207"></trkpt>
      <trkpt lat="25.0320716" lon="121.5446139"></trkpt>
      <trkpt lat="25.0317275" lon="121.5445927"></trkpt>
      <trkpt lat="25.0313221" lon="121.5445852"></trkpt>
      <trkpt lat="25.0310492" lon="121.5445857"></trkpt>
      <trkpt lat="25.0310639" lon="121.5439521"></trkpt>
      <trkpt lat="25.0310797" lon="121.5437228"></trkpt>
      <trkpt lat="25.0310118" lon="121.5437215"></trkpt>
      <trkpt lat="25.0307771" lon="121.5437169"></trkpt>
      <trkpt lat="25.0303337" lon="121.5436982"></trkpt>
      <trkpt lat="25.0302325" lon="121.5437719"></trkpt>
      <trkpt lat="25.0300937" lon="121.5438819"></trkpt>
      <trkpt lat="25.0299756" lon="121.5439446"></trkpt>
      <trkpt lat="25.0296521" lon="121.5440626"></trkpt>
      <trkpt lat="25.0295780" lon="121.5441283"></trkpt>
      <trkpt lat="25.0295758" lon="121.5442154"></trkpt>
      <trkpt lat="25.0295560" lon="121.5450975"></trkpt>
      <trkpt lat="25.0295500" lon="121.5460311"></trkpt>
      <trkpt lat="25.0293552" lon="121.5460236"></trkpt>
      <trkpt lat="25.0291640" lon="121.5460215"></trkpt>
      <trkpt lat="25.0287922" lon="121.5460019"></trkpt>
      <trkpt lat="25.0285133" lon="121.5460083"></trkpt>
      <trkpt lat="25.0283759" lon="121.5460147"></trkpt>
      <trkpt lat="25.0282946" lon="121.5460144"></trkpt>
      <trkpt lat="25.0282789" lon="121.5460143"></trkpt>
      <trkpt lat="25.0282738" lon="121.5460143"></trkpt>
      <trkpt lat="25.0282747" lon="121.5459903"></trkpt>
      <trkpt lat="25.0282772" lon="121.5459253"></trkpt>
      <trkpt lat="25.0282988" lon="121.5453531"></trkpt>
      <trkpt lat="25.0280360" lon="121.5453369"></trkpt>
      <trkpt lat="25.0282988" lon="121.5453531"></trkpt>
      <trkpt lat="25.0282772" lon="121.5459253"></trkpt>
      <trkpt lat="25.0282747" lon="121.5459903"></trkpt>
      <trkpt lat="25.0282738" lon="121.5460143"></trkpt>
      <trkpt lat="25.0282733" lon="121.5460188"></trkpt>
      <trkpt lat="25.0282705" lon="121.5460803"></trkpt>
      <trkpt lat="25.0282693" lon="121.5461071"></trkpt>
      <trkpt lat="25.0282350" lon="121.5468733"></trkpt>
      <trkpt lat="25.0282354" lon="121.5469300"></trkpt>
      <trkpt lat="25.0279547" lon="121.5469140"></trkpt>
      <trkpt lat="25.0275535" lon="121.5468669"></trkpt>
      <trkpt lat="25.0271825" lon="121.5468425"></trkpt>
      <trkpt lat="25.0271218" lon="121.5468385"></trkpt>
      <trkpt lat="25.0269856" lon="121.5468301"></trkpt>
      <trkpt lat="25.0268870" lon="121.5468240"></trkpt>
      <trkpt lat="25.0266918" lon="121.5468120"></trkpt>
      <trkpt lat="25.0266338" lon="121.5479612"></trkpt>
      <trkpt lat="25.0270522" lon="121.5479968"></trkpt>
      <trkpt lat="25.0270716" lon="121.5480008"></trkpt>
      <trkpt lat="25.0274799" lon="121.5480283"></trkpt>
      <trkpt lat="25.0278555" lon="121.5480411"></trkpt>
      <trkpt lat="25.0281119" lon="121.5480419"></trkpt>
      <trkpt lat="25.0281777" lon="121.5480422"></trkpt>
      <trkpt lat="25.0281736" lon="121.5481000"></trkpt>
      <trkpt lat="25.0281498" lon="121.5483781"></trkpt>
      <trkpt lat="25.0281442" lon="121.5484376"></trkpt>
      <trkpt lat="25.0280969" lon="121.5484375"></trkpt>
      <trkpt lat="25.0280880" lon="121.5485081"></trkpt>
      <trkpt lat="25.0280590" lon="121.5487511"></trkpt>
      <trkpt lat="25.0280224" lon="121.5489942"></trkpt>
      <trkpt lat="25.0280119" lon="121.5490683"></trkpt>
      <trkpt lat="25.0270204" lon="121.5490578"></trkpt>
      <trkpt lat="25.0269218" lon="121.5490574"></trkpt>
      <trkpt lat="25.0268603" lon="121.5490564"></trkpt>
      <trkpt lat="25.0268432" lon="121.5496041"></trkpt>
      <trkpt lat="25.0268651" lon="121.5496452"></trkpt>
      <trkpt lat="25.0268650" lon="121.5497828"></trkpt>
      <trkpt lat="25.0269639" lon="121.5497650"></trkpt>
      <trkpt lat="25.0269761" lon="121.5498291"></trkpt>
      <trkpt lat="25.0269888" lon="121.5499223"></trkpt>
      <trkpt lat="25.0269998" lon="121.5500147"></trkpt>
      <trkpt lat="25.0269511" lon="121.5500285"></trkpt>
      <trkpt lat="25.0262406" lon="121.5501190"></trkpt>
      <trkpt lat="25.0261653" lon="121.5501333"></trkpt>
      <trkpt lat="25.0257611" lon="121.5502554"></trkpt>
      <trkpt lat="25.0255377" lon="121.5502539"></trkpt>
      <trkpt lat="25.0253779" lon="121.5503342"></trkpt>
      <trkpt lat="25.0253831" lon="121.5502118"></trkpt>
      <trkpt lat="25.0253889" lon="121.5501361"></trkpt>
      <trkpt lat="25.0253443" lon="121.5501448"></trkpt>
      <trkpt lat="25.0251608" lon="121.5501689"></trkpt>
      <trkpt lat="25.0250354" lon="121.5501836"></trkpt>
      <trkpt lat="25.0250363" lon="121.5501300"></trkpt>
      <trkpt lat="25.0246250" lon="121.5502108"></trkpt>
      <trkpt lat="25.0246475" lon="121.5495003"></trkpt>
      <trkpt lat="25.0246638" lon="121.5490629"></trkpt>
      <trkpt lat="25.0246105" lon="121.5490628"></trkpt>
      <trkpt lat="25.0244962" lon="121.5490627"></trkpt>
      <trkpt lat="25.0244464" lon="121.5490626"></trkpt>
      <trkpt lat="25.0243942" lon="121.5490315"></trkpt>
      <trkpt lat="25.0243965" lon="121.5489577"></trkpt>
      <trkpt lat="25.0244003" lon="121.5488321"></trkpt>
      <trkpt lat="25.0244041" lon="121.5487070"></trkpt>
      <trkpt lat="25.0244082" lon="121.5485725"></trkpt>
      <trkpt lat="25.0244112" lon="121.5484761"></trkpt>
      <trkpt lat="25.0240059" lon="121.5484735"></trkpt>
      <trkpt lat="25.0238369" lon="121.5484723"></trkpt>
      <trkpt lat="25.0237879" lon="121.5484720"></trkpt>
      <trkpt lat="25.0236353" lon="121.5484701"></trkpt>
      <trkpt lat="25.0234179" lon="121.5484675"></trkpt>
      <trkpt lat="25.0229323" lon="121.5484657"></trkpt>
      <trkpt lat="25.0228792" lon="121.5484655"></trkpt>
      <trkpt lat="25.0228469" lon="121.5484654"></trkpt>
      <trkpt lat="25.0227248" lon="121.5484666"></trkpt>
      <trkpt lat="25.0227367" lon="121.5483832"></trkpt>
      <trkpt lat="25.0228487" lon="121.5483844"></trkpt>
      <trkpt lat="25.0228631" lon="121.5480000"></trkpt>
      <trkpt lat="25.0228681" lon="121.5478920"></trkpt>
      <trkpt lat="25.0228686" lon="121.5478579"></trkpt>
      <trkpt lat="25.0228873" lon="121.5477330"></trkpt>
      <trkpt lat="25.0229009" lon="121.5471701"></trkpt>
      <trkpt lat="25.0229146" lon="121.5468946"></trkpt>
      <trkpt lat="25.0233279" lon="121.5467316"></trkpt>
      <trkpt lat="25.0235486" lon="121.5466491"></trkpt>
      <trkpt lat="25.0237181" lon="121.5466614"></trkpt>
      <trkpt lat="25.0238521" lon="121.5466718"></trkpt>
      <trkpt lat="25.0240971" lon="121.5466917"></trkpt>
      <trkpt lat="25.0245731" lon="121.5467232"></trkpt>
      <trkpt lat="25.0245786" lon="121.5466288"></trkpt>
      <trkpt lat="25.0246347" lon="121.5456691"></trkpt>
      <trkpt lat="25.0246476" lon="121.5452402"></trkpt>
      <trkpt lat="25.0246560" lon="121.5449612"></trkpt>
      <trkpt lat="25.0246594" lon="121.5448487"></trkpt>
      <trkpt lat="25.0246626" lon="121.5447423"></trkpt>
      <trkpt lat="25.0246377" lon="121.5447400"></trkpt>
      <trkpt lat="25.0245912" lon="121.5447362"></trkpt>
      <trkpt lat="25.0245331" lon="121.5446998"></trkpt>
      <trkpt lat="25.0242629" lon="121.5446840"></trkpt>
      <trkpt lat="25.0242645" lon="121.5446361"></trkpt>
      <trkpt lat="25.0240721" lon="121.5446223"></trkpt>
      <trkpt lat="25.0238580" lon="121.5446052"></trkpt>
      <trkpt lat="25.0236319" lon="121.5445880"></trkpt>
      <trkpt lat="25.0235814" lon="121.5451919"></trkpt>
      <trkpt lat="25.0238963" lon="121.5452220"></trkpt>
      <trkpt lat="25.0239450" lon="121.5452271"></trkpt>
      <trkpt lat="25.0240640" lon="121.5452311"></trkpt>
      <trkpt lat="25.0242436" lon="121.5452457"></trkpt>
      <trkpt lat="25.0242460" lon="121.5451761"></trkpt>
      <trkpt lat="25.0242580" lon="121.5448261"></trkpt>
      <trkpt lat="25.0242609" lon="121.5447415"></trkpt>
      <trkpt lat="25.0245300" lon="121.5447577"></trkpt>
      <trkpt lat="25.0245912" lon="121.5447362"></trkpt>
      <trkpt lat="25.0246377" lon="121.5447400"></trkpt>
      <trkpt lat="25.0246626" lon="121.5447423"></trkpt>
      <trkpt lat="25.0246667" lon="121.5446881"></trkpt>
      <trkpt lat="25.0247210" lon="121.5439658"></trkpt>
      <trkpt lat="25.0247405" lon="121.5435956"></trkpt>
      <trkpt lat="25.0247182" lon="121.5435531"></trkpt>
      <trkpt lat="25.0247208" lon="121.5434764"></trkpt>
      <trkpt lat="25.0247247" lon="121.5433637"></trkpt>
      <trkpt lat="25.0247276" lon="121.5432796"></trkpt>
      <trkpt lat="25.0247357" lon="121.5432196"></trkpt>
      <trkpt lat="25.0248434" lon="121.5432235"></trkpt>
      <trkpt lat="25.0249768" lon="121.5432283"></trkpt>
      <trkpt lat="25.0250552" lon="121.5426478"></trkpt>
      <trkpt lat="25.0251085" lon="121.5422556"></trkpt>
      <trkpt lat="25.0251651" lon="121.5418390"></trkpt>
      <trkpt lat="25.0251748" lon="121.5417814"></trkpt>
      <trkpt lat="25.0252615" lon="121.5417773"></trkpt>
      <trkpt lat="25.0253329" lon="121.5412219"></trkpt>
      <trkpt lat="25.0254464" lon="121.5404573"></trkpt>
      <trkpt lat="25.0254701" lon="121.5402969"></trkpt>
      <trkpt lat="25.0258912" lon="121.5403669"></trkpt>
      <trkpt lat="25.0259696" lon="121.5397582"></trkpt>
      <trkpt lat="25.0260069" lon="121.5394729"></trkpt>
      <trkpt lat="25.0260637" lon="121.5391540"></trkpt>
      <trkpt lat="25.0257424" lon="121.5389532"></trkpt>
      <trkpt lat="25.0256517" lon="121.5388966"></trkpt>
      <trkpt lat="25.0256574" lon="121.5388591"></trkpt>
      <trkpt lat="25.0256746" lon="121.5387461"></trkpt>
      <trkpt lat="25.0257216" lon="121.5384001"></trkpt>
      <trkpt lat="25.0257723" lon="121.5380539"></trkpt>
      <trkpt lat="25.0258191" lon="121.5380077"></trkpt>
      <trkpt lat="25.0257744" lon="121.5379133"></trkpt>
      <trkpt lat="25.0258525" lon="121.5374903"></trkpt>
      <trkpt lat="25.0258635" lon="121.5374312"></trkpt>
      <trkpt lat="25.0257609" lon="121.5374670"></trkpt>
      <trkpt lat="25.0256127" lon="121.5374606"></trkpt>
      <trkpt lat="25.0255009" lon="121.5374542"></trkpt>
      <trkpt lat="25.0249993" lon="121.5374389"></trkpt>
      <trkpt lat="25.0249634" lon="121.5373159"></trkpt>
      <trkpt lat="25.0249629" lon="121.5369338"></trkpt>
      <trkpt lat="25.0249834" lon="121.5366362"></trkpt>
      <trkpt lat="25.0250280" lon="121.5366355"></trkpt>
      <trkpt lat="25.0252782" lon="121.5365725"></trkpt>
      <trkpt lat="25.0253234" lon="121.5359251"></trkpt>
      <trkpt lat="25.0253919" lon="121.5349679"></trkpt>
      <trkpt lat="25.0256499" lon="121.5349969"></trkpt>
      <trkpt lat="25.0257177" lon="121.5350029"></trkpt>
      <trkpt lat="25.0257446" lon="121.5349896"></trkpt>
      <trkpt lat="25.0258002" lon="121.5349946"></trkpt>
      <trkpt lat="25.0258179" lon="121.5349882"></trkpt>
      <trkpt lat="25.0258388" lon="121.5350052"></trkpt>
      <trkpt lat="25.0258528" lon="121.5349094"></trkpt>
      <trkpt lat="25.0258730" lon="121.5347718"></trkpt>
      <trkpt lat="25.0258878" lon="121.5346712"></trkpt>
      <trkpt lat="25.0259041" lon="121.5346481"></trkpt>
      <trkpt lat="25.0259201" lon="121.5345246"></trkpt>
      <trkpt lat="25.0259316" lon="121.5344725"></trkpt>
      <trkpt lat="25.0259661" lon="121.5342841"></trkpt>
      <trkpt lat="25.0257769" lon="121.5342639"></trkpt>
      <trkpt lat="25.0258268" lon="121.5335851"></trkpt>
      <trkpt lat="25.0256631" lon="121.5335664"></trkpt>
      <trkpt lat="25.0255370" lon="121.5335521"></trkpt>
      <trkpt lat="25.0251888" lon="121.5335114"></trkpt>
      <trkpt lat="25.0250861" lon="121.5335009"></trkpt>
      <trkpt lat="25.0249120" lon="121.5334810"></trkpt>
      <trkpt lat="25.0246617" lon="121.5334526"></trkpt>
      <trkpt lat="25.0245723" lon="121.5334424"></trkpt>
      <trkpt lat="25.0241437" lon="121.5333917"></trkpt>
      <trkpt lat="25.0242082" lon="121.5326619"></trkpt>
      <trkpt lat="25.0236962" lon="121.5326039"></trkpt>
      <trkpt lat="25.0237305" lon="121.5321765"></trkpt>
      <trkpt lat="25.0237161" lon="121.5320525"></trkpt>
      <trkpt lat="25.0236295" lon="121.5314031"></trkpt>
      <trkpt lat="25.0236313" lon="121.5313333"></trkpt>
      <trkpt lat="25.0237477" lon="121.5308593"></trkpt>
      <trkpt lat="25.0238234" lon="121.5305797"></trkpt>
      <trkpt lat="25.0238421" lon="121.5301662"></trkpt>
      <trkpt lat="25.0240139" lon="121.5301820"></trkpt>
      <trkpt lat="25.0243273" lon="121.5302119"></trkpt>
      <trkpt lat="25.0240139" lon="121.5301820"></trkpt>
      <trkpt lat="25.0238421" lon="121.5301662"></trkpt>
      <trkpt lat="25.0239218" lon="121.5294033"></trkpt>
      <trkpt lat="25.0237559" lon="121.5293865"></trkpt>
      <trkpt lat="25.0235521" lon="121.5293654"></trkpt>
      <trkpt lat="25.0232352" lon="121.5293326"></trkpt>
      <trkpt lat="25.0232933" lon="121.5285258"></trkpt>
      <trkpt lat="25.0232990" lon="121.5284525"></trkpt>
      <trkpt lat="25.0233045" lon="121.5283880"></trkpt>
      <trkpt lat="25.0229231" lon="121.5283529"></trkpt>
      <trkpt lat="25.0233045" lon="121.5283880"></trkpt>
      <trkpt lat="25.0234202" lon="121.5268953"></trkpt>
      <trkpt lat="25.0234144" lon="121.5268130"></trkpt>
      <trkpt lat="25.0230893" lon="121.5267812"></trkpt>
      <trkpt lat="25.0230544" lon="121.5267778"></trkpt>
      <trkpt lat="25.0227171" lon="121.5267448"></trkpt>
      <trkpt lat="25.0224338" lon="121.5264499"></trkpt>
      <trkpt lat="25.0223604" lon="121.5263734"></trkpt>
      <trkpt lat="25.0223240" lon="121.5263355"></trkpt>
      <trkpt lat="25.0222981" lon="121.5263085"></trkpt>
      <trkpt lat="25.0222424" lon="121.5262506"></trkpt>
      <trkpt lat="25.0221973" lon="121.5263042"></trkpt>
      <trkpt lat="25.0221837" lon="121.5263204"></trkpt>
      <trkpt lat="25.0219702" lon="121.5265741"></trkpt>
      <trkpt lat="25.0215447" lon="121.5270798"></trkpt>
      <trkpt lat="25.0214849" lon="121.5270195"></trkpt>
      <trkpt lat="25.0219171" lon="121.5265201"></trkpt>
      <trkpt lat="25.0219427" lon="121.5264913"></trkpt>
      <trkpt lat="25.0221303" lon="121.5262685"></trkpt>
      <trkpt lat="25.0221451" lon="121.5262520"></trkpt>
      <trkpt lat="25.0222290" lon="121.5261588"></trkpt>
      <trkpt lat="25.0225198" lon="121.5258181"></trkpt>
      <trkpt lat="25.0221927" lon="121.5255045"></trkpt>
      <trkpt lat="25.0225307" lon="121.5250618"></trkpt>
      <trkpt lat="25.0229282" lon="121.5245704"></trkpt>
      <trkpt lat="25.0223916" lon="121.5240096"></trkpt>
      <trkpt lat="25.0223387" lon="121.5239539"></trkpt>
      <trkpt lat="25.0222923" lon="121.5239078"></trkpt>
      <trkpt lat="25.0222386" lon="121.5238513"></trkpt>
      <trkpt lat="25.0218536" lon="121.5234813"></trkpt>
      <trkpt lat="25.0221566" lon="121.5231162"></trkpt>
      <trkpt lat="25.0223807" lon="121.5228462"></trkpt>
      <trkpt lat="25.0225853" lon="121.5225997"></trkpt>
      <trkpt lat="25.0229878" lon="121.5229912"></trkpt>
      <trkpt lat="25.0230301" lon="121.5230385"></trkpt>
      <trkpt lat="25.0230674" lon="121.5230015"></trkpt>
      <trkpt lat="25.0232256" lon="121.5228064"></trkpt>
      <trkpt lat="25.0233173" lon="121.5226983"></trkpt>
      <trkpt lat="25.0236702" lon="121.5222857"></trkpt>
      <trkpt lat="25.0237006" lon="121.5222529"></trkpt>
      <trkpt lat="25.0236494" lon="121.5222016"></trkpt>
      <trkpt lat="25.0235295" lon="121.5220963"></trkpt>
      <trkpt lat="25.0235333" lon="121.5220500"></trkpt>
      <trkpt lat="25.0235931" lon="121.5213288"></trkpt>
      <trkpt lat="25.0237065" lon="121.5214207"></trkpt>
      <trkpt lat="25.0237855" lon="121.5201811"></trkpt>
      <trkpt lat="25.0238073" lon="121.5196626"></trkpt>
      <trkpt lat="25.0238452" lon="121.5190555"></trkpt>
      <trkpt lat="25.0238468" lon="121.5190130"></trkpt>
      <trkpt lat="25.0241049" lon="121.5190239"></trkpt>
      <trkpt lat="25.0244091" lon="121.5190209"></trkpt>
      <trkpt lat="25.0247817" lon="121.5190269"></trkpt>
      <trkpt lat="25.0249775" lon="121.5190229"></trkpt>
      <trkpt lat="25.0250485" lon="121.5190215"></trkpt>
      <trkpt lat="25.0250533" lon="121.5189836"></trkpt>
      <trkpt lat="25.0250674" lon="121.5188733"></trkpt>
      <trkpt lat="25.0250991" lon="121.5187620"></trkpt>
      <trkpt lat="25.0251703" lon="121.5185120"></trkpt>
      <trkpt lat="25.0252292" lon="121.5182663"></trkpt>
      <trkpt lat="25.0253056" lon="121.5179185"></trkpt>
      <trkpt lat="25.0253941" lon="121.5175253"></trkpt>
      <trkpt lat="25.0253983" lon="121.5174489"></trkpt>
      <trkpt lat="25.0254340" lon="121.5173788"></trkpt>
      <trkpt lat="25.0254642" lon="121.5172647"></trkpt>
      <trkpt lat="25.0254783" lon="121.5172106"></trkpt>
      <trkpt lat="25.0255299" lon="121.5169814"></trkpt>
      <trkpt lat="25.0256278" lon="121.5165968"></trkpt>
      <trkpt lat="25.0256692" lon="121.5164306"></trkpt>
      <trkpt lat="25.0256934" lon="121.5163155"></trkpt>
      <trkpt lat="25.0257282" lon="121.5161879"></trkpt>
      <trkpt lat="25.0257546" lon="121.5160847"></trkpt>
      <trkpt lat="25.0258237" lon="121.5157929"></trkpt>
      <trkpt lat="25.0258576" lon="121.5156435"></trkpt>
      <trkpt lat="25.0259468" lon="121.5152826"></trkpt>
      <trkpt lat="25.0261150" lon="121.5144805"></trkpt>
      <trkpt lat="25.0261903" lon="121.5140925"></trkpt>
      <trkpt lat="25.0262064" lon="121.5140430"></trkpt>
      <trkpt lat="25.0262265" lon="121.5139210"></trkpt>
      <trkpt lat="25.0262915" lon="121.5139664"></trkpt>
      <trkpt lat="25.0265739" lon="121.5141197"></trkpt>
      <trkpt lat="25.0266386" lon="121.5141446"></trkpt>
      <trkpt lat="25.0267505" lon="121.5141959"></trkpt>
      <trkpt lat="25.0269481" lon="121.5142962"></trkpt>
      <trkpt lat="25.0273463" lon="121.5145355"></trkpt>
      <trkpt lat="25.0273917" lon="121.5145542"></trkpt>
      <trkpt lat="25.0274711" lon="121.5145856"></trkpt>
      <trkpt lat="25.0275394" lon="121.5146052"></trkpt>
      <trkpt lat="25.0276447" lon="121.5146202"></trkpt>
      <trkpt lat="25.0275661" lon="121.5144516"></trkpt>
      <trkpt lat="25.0275526" lon="121.5143517"></trkpt>
      <trkpt lat="25.0275391" lon="121.5142137"></trkpt>
      <trkpt lat="25.0274976" lon="121.5135561"></trkpt>
      <trkpt lat="25.0274976" lon="121.5134783"></trkpt>
      <trkpt lat="25.0275101" lon="121.5133570"></trkpt>
      <trkpt lat="25.0275752" lon="121.5128932"></trkpt>
      <trkpt lat="25.0275853" lon="121.5128216"></trkpt>
      <trkpt lat="25.0276725" lon="121.5128273"></trkpt>
      <trkpt lat="25.0276860" lon="121.5128282"></trkpt>
      <trkpt lat="25.0279176" lon="121.5129215"></trkpt>
      <trkpt lat="25.0280086" lon="121.5126961"></trkpt>
      <trkpt lat="25.0280996" lon="121.5124708"></trkpt>
      <trkpt lat="25.0282590" lon="121.5121665"></trkpt>
      <trkpt lat="25.0285088" lon="121.5123099"></trkpt>
      <trkpt lat="25.0287042" lon="121.5124221"></trkpt>
      <trkpt lat="25.0287219" lon="121.5123876"></trkpt>
      <trkpt lat="25.0287934" lon="121.5122497"></trkpt>
      <trkpt lat="25.0288482" lon="121.5122841"></trkpt>
      <trkpt lat="25.0289435" lon="121.5123441"></trkpt>
      <trkpt lat="25.0289922" lon="121.5123747"></trkpt>
      <trkpt lat="25.0290104" lon="121.5123649"></trkpt>
      <trkpt lat="25.0290241" lon="121.5123576"></trkpt>
      <trkpt lat="25.0290758" lon="121.5123854"></trkpt>
      <trkpt lat="25.0292274" lon="121.5130533"></trkpt>
      <trkpt lat="25.0292782" lon="121.5130394"></trkpt>
      <trkpt lat="25.0294153" lon="121.5136189"></trkpt>
      <trkpt lat="25.0294680" lon="121.5136036"></trkpt>
      <trkpt lat="25.0295839" lon="121.5141137"></trkpt>
      <trkpt lat="25.0296025" lon="121.5141356"></trkpt>
      <trkpt lat="25.0296169" lon="121.5142041"></trkpt>
      <trkpt lat="25.0296284" lon="121.5142584"></trkpt>
      <trkpt lat="25.0296364" lon="121.5142963"></trkpt>
      <trkpt lat="25.0298032" lon="121.5150816"></trkpt>
      <trkpt lat="25.0297540" lon="121.5150961"></trkpt>
      <trkpt lat="25.0297790" lon="121.5152153"></trkpt>
      <trkpt lat="25.0297990" lon="121.5153154"></trkpt>
      <trkpt lat="25.0298085" lon="121.5153848"></trkpt>
      <trkpt lat="25.0298202" lon="121.5154205"></trkpt>
      <trkpt lat="25.0299332" lon="121.5159424"></trkpt>
      <trkpt lat="25.0300287" lon="121.5163834"></trkpt>
      <trkpt lat="25.0300362" lon="121.5164647"></trkpt>
      <trkpt lat="25.0299756" lon="121.5165050"></trkpt>
      <trkpt lat="25.0296863" lon="121.5166977"></trkpt>
      <trkpt lat="25.0295166" lon="121.5161331"></trkpt>
      <trkpt lat="25.0291511" lon="121.5162430"></trkpt>
      <trkpt lat="25.0286953" lon="121.5163610"></trkpt>
      <trkpt lat="25.0289286" lon="121.5172534"></trkpt>
      <trkpt lat="25.0288737" lon="121.5172924"></trkpt>
      <trkpt lat="25.0286112" lon="121.5174838"></trkpt>
      <trkpt lat="25.0283407" lon="121.5176856"></trkpt>
      <trkpt lat="25.0282936" lon="121.5177126"></trkpt>
      <trkpt lat="25.0282224" lon="121.5177728"></trkpt>
      <trkpt lat="25.0280988" lon="121.5178600"></trkpt>
      <trkpt lat="25.0283873" lon="121.5190666"></trkpt>
      <trkpt lat="25.0284193" lon="121.5191841"></trkpt>
      <trkpt lat="25.0284385" lon="121.5192549"></trkpt>
      <trkpt lat="25.0286072" lon="121.5191245"></trkpt>
      <trkpt lat="25.0289251" lon="121.5188861"></trkpt>
      <trkpt lat="25.0289716" lon="121.5188431"></trkpt>
      <trkpt lat="25.0294307" lon="121.5196257"></trkpt>
      <trkpt lat="25.0296319" lon="121.5199758"></trkpt>
      <trkpt lat="25.0297657" lon="121.5201942"></trkpt>
      <trkpt lat="25.0298254" lon="121.5202882"></trkpt>
      <trkpt lat="25.0298146" lon="121.5203957"></trkpt>
      <trkpt lat="25.0298112" lon="121.5204379"></trkpt>
      <trkpt lat="25.0298039" lon="121.5204984"></trkpt>
      <trkpt lat="25.0297911" lon="121.5206301"></trkpt>
      <trkpt lat="25.0296966" lon="121.5212255"></trkpt>
      <trkpt lat="25.0295888" lon="121.5219049"></trkpt>
      <trkpt lat="25.0295708" lon="121.5220181"></trkpt>
      <trkpt lat="25.0295539" lon="121.5221256"></trkpt>
      <trkpt lat="25.0295120" lon="121.5223928"></trkpt>
      <trkpt lat="25.0291124" lon="121.5223205"></trkpt>
      <trkpt lat="25.0290679" lon="121.5231008"></trkpt>
      <trkpt lat="25.0293954" lon="121.5231349"></trkpt>
      <trkpt lat="25.0293610" lon="121.5233545"></trkpt>
      <trkpt lat="25.0293452" lon="121.5234549"></trkpt>
      <trkpt lat="25.0292947" lon="121.5237762"></trkpt>
      <trkpt lat="25.0292549" lon="121.5240298"></trkpt>
      <trkpt lat="25.0296345" lon="121.5241068"></trkpt>
      <trkpt lat="25.0297669" lon="121.5241337"></trkpt>
      <trkpt lat="25.0300258" lon="121.5241863"></trkpt>
      <trkpt lat="25.0305527" lon="121.5242933"></trkpt>
      <trkpt lat="25.0304717" lon="121.5247841"></trkpt>
      <trkpt lat="25.0303327" lon="121.5256813"></trkpt>
      <trkpt lat="25.0302695" lon="121.5260716"></trkpt>
      <trkpt lat="25.0302124" lon="121.5264276"></trkpt>
      <trkpt lat="25.0301978" lon="121.5265185"></trkpt>
      <trkpt lat="25.0301814" lon="121.5266240"></trkpt>
      <trkpt lat="25.0301656" lon="121.5267002"></trkpt>
      <trkpt lat="25.0301417" lon="121.5268698"></trkpt>
      <trkpt lat="25.0300985" lon="121.5271757"></trkpt>
      <trkpt lat="25.0304747" lon="121.5272422"></trkpt>
      <trkpt lat="25.0306503" lon="121.5272733"></trkpt>
      <trkpt lat="25.0308196" lon="121.5273033"></trkpt>
      <trkpt lat="25.0311748" lon="121.5273661"></trkpt>
      <trkpt lat="25.0314013" lon="121.5274072"></trkpt>
      <trkpt lat="25.0314558" lon="121.5274171"></trkpt>
      <trkpt lat="25.0315126" lon="121.5274274"></trkpt>
      <trkpt lat="25.0315365" lon="121.5274317"></trkpt>
      <trkpt lat="25.0316014" lon="121.5274416"></trkpt>
      <trkpt lat="25.0316541" lon="121.5274525"></trkpt>
      <trkpt lat="25.0319515" lon="121.5275040"></trkpt>
      <trkpt lat="25.0328542" lon="121.5276678"></trkpt>
      <trkpt lat="25.0329303" lon="121.5276565"></trkpt>
      <trkpt lat="25.0327894" lon="121.5285281"></trkpt>
      <trkpt lat="25.0328257" lon="121.5285340"></trkpt>
      <trkpt lat="25.0330362" lon="121.5285781"></trkpt>
      <trkpt lat="25.0332868" lon="121.5286305"></trkpt>
      <trkpt lat="25.0337362" lon="121.5287075"></trkpt>
      <trkpt lat="25.0336769" lon="121.5291504"></trkpt>
      <trkpt lat="25.0336679" lon="121.5292119"></trkpt>
      <trkpt lat="25.0337412" lon="121.5292272"></trkpt>
      <trkpt lat="25.0336540" lon="121.5298774"></trkpt>
      <trkpt lat="25.0337056" lon="121.5298857"></trkpt>
      <trkpt lat="25.0337493" lon="121.5298928"></trkpt>
      <trkpt lat="25.0338152" lon="121.5299034"></trkpt>
      <trkpt lat="25.0338924" lon="121.5299159"></trkpt>
      <trkpt lat="25.0339237" lon="121.5296793"></trkpt>
      <trkpt lat="25.0339636" lon="121.5293776"></trkpt>
      <trkpt lat="25.0339675" lon="121.5293483"></trkpt>
      <trkpt lat="25.0341130" lon="121.5293701"></trkpt>
      <trkpt lat="25.0341842" lon="121.5293745"></trkpt>
      <trkpt lat="25.0344101" lon="121.5293833"></trkpt>
      <trkpt lat="25.0346579" lon="121.5293895"></trkpt>
      <trkpt lat="25.0346636" lon="121.5289549"></trkpt>
      <trkpt lat="25.0346854" lon="121.5288742"></trkpt>
      <trkpt lat="25.0346939" lon="121.5288429"></trkpt>
      <trkpt lat="25.0347760" lon="121.5285395"></trkpt>
      <trkpt lat="25.0348601" lon="121.5282285"></trkpt>
      <trkpt lat="25.0349384" lon="121.5279525"></trkpt>
      <trkpt lat="25.0346778" lon="121.5278865"></trkpt>
      <trkpt lat="25.0346962" lon="121.5278301"></trkpt>
      <trkpt lat="25.0347346" lon="121.5276321"></trkpt>
      <trkpt lat="25.0347553" lon="121.5274885"></trkpt>
      <trkpt lat="25.0350587" lon="121.5275149"></trkpt>
      <trkpt lat="25.0354415" lon="121.5276308"></trkpt>
      <trkpt lat="25.0354761" lon="121.5276413"></trkpt>
      <trkpt lat="25.0355026" lon="121.5276490"></trkpt>
      <trkpt lat="25.0358666" lon="121.5277552"></trkpt>
      <trkpt lat="25.0358946" lon="121.5277634"></trkpt>
      <trkpt lat="25.0359107" lon="121.5276896"></trkpt>
      <trkpt lat="25.0361562" lon="121.5277606"></trkpt>
      <trkpt lat="25.0368269" lon="121.5279523"></trkpt>
      <trkpt lat="25.0371743" lon="121.5280490"></trkpt>
      <trkpt lat="25.0373967" lon="121.5281133"></trkpt>
      <trkpt lat="25.0376051" lon="121.5281760"></trkpt>
      <trkpt lat="25.0378136" lon="121.5282387"></trkpt>
      <trkpt lat="25.0380575" lon="121.5283088"></trkpt>
      <trkpt lat="25.0380581" lon="121.5281956"></trkpt>
      <trkpt lat="25.0380585" lon="121.5281130"></trkpt>
      <trkpt lat="25.0380877" lon="121.5280977"></trkpt>
      <trkpt lat="25.0381439" lon="121.5281137"></trkpt>
      <trkpt lat="25.0381834" lon="121.5281250"></trkpt>
      <trkpt lat="25.0382138" lon="121.5281337"></trkpt>
      <trkpt lat="25.0382530" lon="121.5281448"></trkpt>
      <trkpt lat="25.0382942" lon="121.5281566"></trkpt>
      <trkpt lat="25.0383623" lon="121.5281760"></trkpt>
      <trkpt lat="25.0384145" lon="121.5281909"></trkpt>
      <trkpt lat="25.0384523" lon="121.5282377"></trkpt>
      <trkpt lat="25.0386412" lon="121.5283046"></trkpt>
      <trkpt lat="25.0386566" lon="121.5283101"></trkpt>
      <trkpt lat="25.0386808" lon="121.5283187"></trkpt>
      <trkpt lat="25.0390573" lon="121.5284430"></trkpt>
      <trkpt lat="25.0390899" lon="121.5284559"></trkpt>
      <trkpt lat="25.0392403" lon="121.5277995"></trkpt>
      <trkpt lat="25.0395280" lon="121.5266213"></trkpt>
      <trkpt lat="25.0397456" lon="121.5257487"></trkpt>
      <trkpt lat="25.0397751" lon="121.5257552"></trkpt>
      <trkpt lat="25.0400275" lon="121.5258111"></trkpt>
      <trkpt lat="25.0400469" lon="121.5258433"></trkpt>
      <trkpt lat="25.0401662" lon="121.5258780"></trkpt>
      <trkpt lat="25.0402073" lon="121.5258889"></trkpt>
      <trkpt lat="25.0402316" lon="121.5258754"></trkpt>
      <trkpt lat="25.0409356" lon="121.5260456"></trkpt>
      <trkpt lat="25.0411643" lon="121.5261092"></trkpt>
      <trkpt lat="25.0414527" lon="121.5261893"></trkpt>
      <trkpt lat="25.0414683" lon="121.5261201"></trkpt>
      <trkpt lat="25.0415845" lon="121.5261538"></trkpt>
      <trkpt lat="25.0416751" lon="121.5261801"></trkpt>
      <trkpt lat="25.0420896" lon="121.5263019"></trkpt>
      <trkpt lat="25.0424988" lon="121.5264194"></trkpt>
      <trkpt lat="25.0426942" lon="121.5264762"></trkpt>
      <trkpt lat="25.0427128" lon="121.5263963"></trkpt>
      <trkpt lat="25.0427171" lon="121.5263800"></trkpt>
      <trkpt lat="25.0430998" lon="121.5248260"></trkpt>
      <trkpt lat="25.0431508" lon="121.5248391"></trkpt>
      <trkpt lat="25.0432129" lon="121.5248610"></trkpt>
      <trkpt lat="25.0432513" lon="121.5248295"></trkpt>
      <trkpt lat="25.0436903" lon="121.5249373"></trkpt>
      <trkpt lat="25.0437061" lon="121.5249722"></trkpt>
      <trkpt lat="25.0437381" lon="121.5249831"></trkpt>
      <trkpt lat="25.0437832" lon="121.5250030"></trkpt>
      <trkpt lat="25.0437967" lon="121.5249958"></trkpt>
      <trkpt lat="25.0438076" lon="121.5249412"></trkpt>
      <trkpt lat="25.0438227" lon="121.5248756"></trkpt>
      <trkpt lat="25.0439491" lon="121.5249199"></trkpt>
      <trkpt lat="25.0442201" lon="121.5250071"></trkpt>
      <trkpt lat="25.0442734" lon="121.5249124"></trkpt>
      <trkpt lat="25.0442978" lon="121.5248079"></trkpt>
      <trkpt lat="25.0442783" lon="121.5248018"></trkpt>
      <trkpt lat="25.0443221" lon="121.5246262"></trkpt>
      <trkpt lat="25.0443409" lon="121.5246335"></trkpt>
      <trkpt lat="25.0444290" lon="121.5242777"></trkpt>
      <trkpt lat="25.0444409" lon="121.5242218"></trkpt>
      <trkpt lat="25.0444518" lon="121.5241780"></trkpt>
      <trkpt lat="25.0445389" lon="121.5238108"></trkpt>
      <trkpt lat="25.0446234" lon="121.5234596"></trkpt>
      <trkpt lat="25.0447102" lon="121.5234862"></trkpt>
      <trkpt lat="25.0448286" lon="121.5235224"></trkpt>
      <trkpt lat="25.0448919" lon="121.5235427"></trkpt>
      <trkpt lat="25.0449781" lon="121.5234859"></trkpt>
      <trkpt lat="25.0453374" lon="121.5236174"></trkpt>
      <trkpt lat="25.0458021" lon="121.5237491"></trkpt>
      <trkpt lat="25.0459419" lon="121.5237890"></trkpt>
      <trkpt lat="25.0459365" lon="121.5238136"></trkpt>
      <trkpt lat="25.0460371" lon="121.5238449"></trkpt>
      <trkpt lat="25.0461849" lon="121.5241128"></trkpt>
      <trkpt lat="25.0462643" lon="121.5241336"></trkpt>
      <trkpt lat="25.0461267" lon="121.5247178"></trkpt>
      <trkpt lat="25.0459269" lon="121.5255410"></trkpt>
      <trkpt lat="25.0461267" lon="121.5247178"></trkpt>
      <trkpt lat="25.0462643" lon="121.5241336"></trkpt>
      <trkpt lat="25.0462990" lon="121.5239931"></trkpt>
      <trkpt lat="25.0463062" lon="121.5239604"></trkpt>
      <trkpt lat="25.0463474" lon="121.5237959"></trkpt>
      <trkpt lat="25.0463828" lon="121.5236578"></trkpt>
      <trkpt lat="25.0463913" lon="121.5236235"></trkpt>
      <trkpt lat="25.0465064" lon="121.5231576"></trkpt>
      <trkpt lat="25.0466126" lon="121.5227272"></trkpt>
      <trkpt lat="25.0467457" lon="121.5221885"></trkpt>
      <trkpt lat="25.0467707" lon="121.5220871"></trkpt>
      <trkpt lat="25.0472893" lon="121.5222336"></trkpt>
      <trkpt lat="25.0473045" lon="121.5222379"></trkpt>
      <trkpt lat="25.0475134" lon="121.5222970"></trkpt>
      <trkpt lat="25.0476831" lon="121.5223450"></trkpt>
      <trkpt lat="25.0477324" lon="121.5223589"></trkpt>
      <trkpt lat="25.0477373" lon="121.5222566"></trkpt>
      <trkpt lat="25.0477798" lon="121.5213750"></trkpt>
      <trkpt lat="25.0478432" lon="121.5208639"></trkpt>
      <trkpt lat="25.0478682" lon="121.5207619"></trkpt>
      <trkpt lat="25.0478954" lon="121.5206618"></trkpt>
      <trkpt lat="25.0479991" lon="121.5207105"></trkpt>
      <trkpt lat="25.0481432" lon="121.5207783"></trkpt>
      <trkpt lat="25.0481732" lon="121.5207935"></trkpt>
      <trkpt lat="25.0482571" lon="121.5208359"></trkpt>
      <trkpt lat="25.0482975" lon="121.5208563"></trkpt>
      <trkpt lat="25.0497285" lon="121.5215800"></trkpt>
      <trkpt lat="25.0498283" lon="121.5216305"></trkpt>
      <trkpt lat="25.0498624" lon="121.5214968"></trkpt>
      <trkpt lat="25.0497845" lon="121.5214584"></trkpt>
      <trkpt lat="25.0497795" lon="121.5214558"></trkpt>
      <trkpt lat="25.0493860" lon="121.5212520"></trkpt>
      <trkpt lat="25.0489163" lon="121.5210165"></trkpt>
      <trkpt lat="25.0489248" lon="121.5209800"></trkpt>
      <trkpt lat="25.0489933" lon="121.5206864"></trkpt>
      <trkpt lat="25.0490475" lon="121.5204480"></trkpt>
      <trkpt lat="25.0491067" lon="121.5202126"></trkpt>
      <trkpt lat="25.0491461" lon="121.5200562"></trkpt>
      <trkpt lat="25.0491588" lon="121.5200048"></trkpt>
      <trkpt lat="25.0491981" lon="121.5198458"></trkpt>
      <trkpt lat="25.0492471" lon="121.5196225"></trkpt>
      <trkpt lat="25.0492711" lon="121.5195245"></trkpt>
      <trkpt lat="25.0492965" lon="121.5194281"></trkpt>
      <trkpt lat="25.0493804" lon="121.5190497"></trkpt>
      <trkpt lat="25.0495833" lon="121.5181044"></trkpt>
      <trkpt lat="25.0497372" lon="121.5174735"></trkpt>
      <trkpt lat="25.0497807" lon="121.5172862"></trkpt>
      <trkpt lat="25.0498547" lon="121.5169674"></trkpt>
      <trkpt lat="25.0498871" lon="121.5168272"></trkpt>
      <trkpt lat="25.0499025" lon="121.5167533"></trkpt>
      <trkpt lat="25.0499169" lon="121.5166839"></trkpt>
      <trkpt lat="25.0499436" lon="121.5165829"></trkpt>
      <trkpt lat="25.0500249" lon="121.5162354"></trkpt>
      <trkpt lat="25.0500405" lon="121.5161748"></trkpt>
      <trkpt lat="25.0501207" lon="121.5158623"></trkpt>
      <trkpt lat="25.0502867" lon="121.5159037"></trkpt>
      <trkpt lat="25.0505582" lon="121.5159763"></trkpt>
      <trkpt lat="25.0506602" lon="121.5160035"></trkpt>
      <trkpt lat="25.0508063" lon="121.5160394"></trkpt>
      <trkpt lat="25.0511052" lon="121.5161146"></trkpt>
      <trkpt lat="25.0511619" lon="121.5158685"></trkpt>
      <trkpt lat="25.0512381" lon="121.5155372"></trkpt>
      <trkpt lat="25.0512603" lon="121.5154408"></trkpt>
      <trkpt lat="25.0512732" lon="121.5153676"></trkpt>
      <trkpt lat="25.0513561" lon="121.5148968"></trkpt>
      <trkpt lat="25.0513621" lon="121.5148521"></trkpt>
      <trkpt lat="25.0513848" lon="121.5147512"></trkpt>
      <trkpt lat="25.0513893" lon="121.5147321"></trkpt>
      <trkpt lat="25.0515334" lon="121.5140949"></trkpt>
      <trkpt lat="25.0515594" lon="121.5139798"></trkpt>
      <trkpt lat="25.0516913" lon="121.5140000"></trkpt>
      <trkpt lat="25.0524222" lon="121.5141117"></trkpt>
      <trkpt lat="25.0526391" lon="121.5141449"></trkpt>
      <trkpt lat="25.0528073" lon="121.5141706"></trkpt>
      <trkpt lat="25.0530055" lon="121.5142124"></trkpt>
      <trkpt lat="25.0534050" lon="121.5142857"></trkpt>
      <trkpt lat="25.0536428" lon="121.5143339"></trkpt>
      <trkpt lat="25.0539509" lon="121.5143968"></trkpt>
      <trkpt lat="25.0540344" lon="121.5144167"></trkpt>
      <trkpt lat="25.0541360" lon="121.5144376"></trkpt>
      <trkpt lat="25.0540658" lon="121.5142974"></trkpt>
      <trkpt lat="25.0540480" lon="121.5140356"></trkpt>
      <trkpt lat="25.0540220" lon="121.5137066"></trkpt>
      <trkpt lat="25.0540156" lon="121.5135783"></trkpt>
      <trkpt lat="25.0540123" lon="121.5135452"></trkpt>
      <trkpt lat="25.0540085" lon="121.5135085"></trkpt>
      <trkpt lat="25.0540534" lon="121.5135038"></trkpt>
      <trkpt lat="25.0548985" lon="121.5134233"></trkpt>
      <trkpt lat="25.0552087" lon="121.5133219"></trkpt>
      <trkpt lat="25.0551630" lon="121.5130110"></trkpt>
      <trkpt lat="25.0551624" lon="121.5129747"></trkpt>
      <trkpt lat="25.0551770" lon="121.5129499"></trkpt>
      <trkpt lat="25.0553438" lon="121.5128973"></trkpt>
      <trkpt lat="25.0557039" lon="121.5128496"></trkpt>
    </trkseg>
  </trk>
</gpx>
