<?xml version="1.0" encoding="UTF-8"?>
<gpx version="1.1" creator="shape-route-poc" xmlns="http://www.topografix.com/GPX/1/1" xmlns:xsi="http://www.w3.org/2001/XMLSchema-instance" xsi:schemaLocation="http://www.topografix.com/GPX/1/1 http://www.topografix.com/GPX/1/1/gpx.xsd">
  <metadata>
    <name>三角形路線</name>
    <desc>triangle · 7.6 km · bike · shape distance 0.098</desc>
    <time>2026-09-11T17:45:02Z</time>
    <bounds minlat="25.0210372" minlon="121.5266069" maxlat="25.0398594" maxlon="121.5436490"/>
  </metadata>
  <rte>
    <name>三角形路線</name>
    <type>cycling</type>
    <rtept lat="25.0210374" lon="121.5434646"></rtept>
    <rtept lat="25.0273335" lon="121.5436490"></rtept>
    <rtept lat="25.0273473" lon="121.5435466"></rtept>
    <rtept lat="25.0311118" lon="121.5436283"></rtept>
    <rtept lat="25.0311181" lon="121.5434182"></rtept>
    <rtept lat="25.0332577" lon="121.5433896"></rtept>
    <rtept lat="25.0398244" lon="121.5435501"></rtept>
    <rtept lat="25.0398594" lon="121.5420087"></rtept>
    <rtept lat="25.0394538" lon="121.5419959"></rtept>
    <rtept lat="25.0394573" lon="121.5412861"></rtept>
    <rtept lat="25.0384613" lon="121.5412693"></rtept>
    <rtept lat="25.0384087" lon="121.5398435"></rtept>
    <rtept lat="25.0376841" lon="121.5398272"></rtept>
    <rtept lat="25.0376714" lon="121.5383386"></rtept>
    <rtept lat="25.0378511" lon="121.5381764"></rtept>
    <rtept lat="25.0378663" lon="121.5376941"></rtept>
    <rtept lat="25.0372253" lon="121.5374811"></rtept>
    <rtept lat="25.0356972" lon="121.5375425"></rtept>
    <rtept lat="25.0357183" lon="121.5359075"></rtept>
    <rtept lat="25.0350952" lon="121.5346849"></rtept>
    <rtept lat="25.0346284" lon="121.5345648"></rtept>
    <rtept lat="25.0346525" lon="121.5329415"></rtept>
    <rtept lat="25.0337798" lon="121.5329273"></rtept>
    <rtept lat="25.0337717" lon="121.5324173"></rtept>
    <rtept lat="25.0334601" lon="121.5324131"></rtept>
    <rtept lat="25.0335666" lon="121.5299362"></rtept>
    <rtept lat="25.0329116" lon="121.5298139"></rtept>
    <rtept lat="25.0330136" lon="121.5290950"></rtept>
    <rtept lat="25.0313919" lon="121.5287901"></rtept>
    <rtept lat="25.0316706" lon="121.5269797"></rtept>
    <rtept lat="25.0296504" lon="121.5266069"></rtept>
    <rtept lat="25.0294803" lon="121.5276915"></rtept>
    <rtept lat="25.0287040" lon="121.5275383"></rtept>
    <rtept lat="25.0283093" lon="121.5305333"></rtept>
    <rtept lat="25.0271533" lon="121.5304536"></rtept>
    <rtept lat="25.0269863" lon="121.5319948"></rtept>
    <rtept lat="25.0264853" lon="121.5319956"></rtept>
    <rtept lat="25.0263399" lon="121.5335333"></rtept>
    <rtept lat="25.0260300" lon="121.5335022"></rtept>
    <rtept lat="25.0257290" lon="121.5359272"></rtept>
    <rtept lat="25.0249616" lon="121.5359231"></rtept>
    <rtept lat="25.0249649" lon="121.5378957"></rtept>
    <rtept lat="25.0247327" lon="121.5396157"></rtept>
    <rtept lat="25.0233351" lon="121.5394629"></rtept>
    <rtept lat="25.0230125" lon="121.5393265"></rtept>
    <rtept lat="25.0220408" lon="121.5408357"></rtept>
    <rtept lat="25.0220338" lon="121.5410870"></rtept>
    <rtept lat="25.0227248" lon="121.5411033"></rtept>
    <rtept lat="25.0226675" lon="121.5433183"></rtept>
    <rtept lat="25.0210394" lon="121.5432900"></rtept>
    <rtept lat="25.0210374" lon="121.5434646"></rtept>
  </rte>
  <trk>
    <name>三角形路線</name>
    <type>cycling</type>
    <trkseg>
      <trkpt lat="25.0210374" lon="121.5434646"></trkpt>
      <trkpt lat="25.0212142" lon="121.5434715"></trkpt>
      <trkpt lat="25.0213254" lon="121.5434758"></trkpt>
      <trkpt lat="25.0214943" lon="121.5434823"></trkpt>
      <trkpt lat="25.0215632" lon="121.5434839"></trkpt>
      <trkpt lat="25.0215852" lon="121.5434844"></trkpt>
      <trkpt lat="25.0224104" lon="121.5435025"></trkpt>
      <trkpt lat="25.0226644" lon="121.5435080"></trkpt>
      <trkpt lat="25.0229406" lon="121.5435141"></trkpt>
      <trkpt lat="25.0235059" lon="121.5435265"></trkpt>
      <trkpt lat="25.0235711" lon="121.5435279"></trkpt>
      <trkpt lat="25.0247182" lon="121.5435531"></trkpt>
      <trkpt lat="25.0247405" lon="121.5435956"></trkpt>
      <trkpt lat="25.0248111" lon="121.5436011"></trkpt>
      <trkpt lat="25.0249317" lon="121.5436106"></trkpt>
      <trkpt lat="25.0249873" lon="121.5436168"></trkpt>
      <trkpt lat="25.0250236" lon="121.5436030"></trkpt>
      <trkpt lat="25.0257420" lon="121.5436172"></trkpt>
      <trkpt lat="25.0264936" lon="121.5436321"></trkpt>
      <trkpt lat="25.0265386" lon="121.5436330"></trkpt>
      <trkpt lat="25.0266217" lon="121.5436346"></trkpt>
      <trkpt lat="25.0273335" lon="121.5436490"></trkpt>
      <trkpt lat="25.0273473" lon="121.5435466"></trkpt>
      <trkpt lat="25.0277287" lon="121.5435549"></trkpt>
      <trkpt lat="25.0277459" lon="121.5435553"></trkpt>
      <trkpt lat="25.0283108" lon="121.5435675"></trkpt>
      <trkpt lat="25.0283995" lon="121.5435682"></trkpt>
      <trkpt lat="25.0284810" lon="121.5435712"></trkpt>
      <trkpt lat="25.0289038" lon="121.5435804"></trkpt>
      <trkpt lat="25.0291443" lon="121.5435856"></trkpt>
      <trkpt lat="25.0291843" lon="121.5435865"></trkpt>
      <trkpt lat="25.0298221" lon="121.5436003"></trkpt>
      <trkpt lat="25.0298466" lon="121.5436008"></trkpt>
      <trkpt lat="25.0299409" lon="121.5436029"></trkpt>
      <trkpt lat="25.0300766" lon="121.5436055"></trkpt>
      <trkpt lat="25.0303481" lon="121.5436107"></trkpt>
      <trkpt lat="25.0307548" lon="121.5436205"></trkpt>
      <trkpt lat="25.0310097" lon="121.5436261"></trkpt>
      <trkpt lat="25.0310809" lon="121.5436276"></trkpt>
      <trkpt lat="25.0311118" lon="121.5436283"></trkpt>
      <trkpt lat="25.0311141" lon="121.5434962"></trkpt>
      <trkpt lat="25.0311181" lon="121.5434182"></trkpt>
      <trkpt lat="25.0318926" lon="121.5434277"></trkpt>
      <trkpt lat="25.0327403" lon="121.5434463"></trkpt>
      <trkpt lat="25.0331456" lon="121.5434562"></trkpt>
      <trkpt lat="25.0331847" lon="121.5434569"></trkpt>
      <trkpt lat="25.0332577" lon="121.5433896"></trkpt>
      <trkpt lat="25.0333007" lon="121.5433902"></trkpt>
      <trkpt lat="25.0333985" lon="121.5433953"></trkpt>
      <trkpt lat="25.0334749" lon="121.5433965"></trkpt>
      <trkpt lat="25.0335042" lon="121.5433968"></trkpt>
      <trkpt lat="25.0336090" lon="121.5434612"></trkpt>
      <trkpt lat="25.0339232" lon="121.5434658"></trkpt>
      <trkpt lat="25.0343387" lon="121.5434749"></trkpt>
      <trkpt lat="25.0349917" lon="121.5434870"></trkpt>
      <trkpt lat="25.0350872" lon="121.5434888"></trkpt>
      <trkpt lat="25.0352247" lon="121.5434913"></trkpt>
      <trkpt lat="25.0360070" lon="121.5435056"></trkpt>
      <trkpt lat="25.0360415" lon="121.5434888"></trkpt>
      <trkpt lat="25.0360918" lon="121.5434903"></trkpt>
      <trkpt lat="25.0361646" lon="121.5434924"></trkpt>
      <trkpt lat="25.0362110" lon="121.5435049"></trkpt>
      <trkpt lat="25.0371569" lon="121.5435260"></trkpt>
      <trkpt lat="25.0376831" lon="121.5435378"></trkpt>
      <trkpt lat="25.0377193" lon="121.5435218"></trkpt>
      <trkpt lat="25.0377911" lon="121.5435212"></trkpt>
      <trkpt lat="25.0378789" lon="121.5435228"></trkpt>
      <trkpt lat="25.0379144" lon="121.5435235"></trkpt>
      <trkpt lat="25.0380253" lon="121.5435267"></trkpt>
      <trkpt lat="25.0380474" lon="121.5435263"></trkpt>
      <trkpt lat="25.0381605" lon="121.5435289"></trkpt>
      <trkpt lat="25.0382010" lon="121.5435287"></trkpt>
      <trkpt lat="25.0382550" lon="121.5435509"></trkpt>
      <trkpt lat="25.0382558" lon="121.5435231"></trkpt>
      <trkpt lat="25.0390369" lon="121.5435406"></trkpt>
      <trkpt lat="25.0397451" lon="121.5435484"></trkpt>
      <trkpt lat="25.0398244" lon="121.5435501"></trkpt>
      <trkpt lat="25.0398362" lon="121.5430344"></trkpt>
      <trkpt lat="25.0398594" lon="121.5420087"></trkpt>
      <trkpt lat="25.0394538" lon="121.5419959"></trkpt>
      <trkpt lat="25.0394570" lon="121.5413391"></trkpt>
      <trkpt lat="25.0394573" lon="121.5412861"></trkpt>
      <trkpt lat="25.0390778" lon="121.5412797"></trkpt>
      <trkpt lat="25.0386114" lon="121.5412719"></trkpt>
      <trkpt lat="25.0384613" lon="121.5412693"></trkpt>
      <trkpt lat="25.0384613" lon="121.5412310"></trkpt>
      <trkpt lat="25.0384626" lon="121.5410092"></trkpt>
      <trkpt lat="25.0383895" lon="121.5410071"></trkpt>
      <trkpt lat="25.0383985" lon="121.5406514"></trkpt>
      <trkpt lat="25.0384084" lon="121.5401023"></trkpt>
      <trkpt lat="25.0384087" lon="121.5398435"></trkpt>
      <trkpt lat="25.0381183" lon="121.5398335"></trkpt>
      <trkpt lat="25.0380924" lon="121.5398326"></trkpt>
      <trkpt lat="25.0379850" lon="121.5398286"></trkpt>
      <trkpt lat="25.0379549" lon="121.5398285"></trkpt>
      <trkpt lat="25.0376841" lon="121.5398272"></trkpt>
      <trkpt lat="25.0376879" lon="121.5396853"></trkpt>
      <trkpt lat="25.0376979" lon="121.5391487"></trkpt>
      <trkpt lat="25.0376993" lon="121.5390153"></trkpt>
      <trkpt lat="25.0377067" lon="121.5384199"></trkpt>
      <trkpt lat="25.0376714" lon="121.5383386"></trkpt>
      <trkpt lat="25.0377016" lon="121.5383110"></trkpt>
      <trkpt lat="25.0378511" lon="121.5381764"></trkpt>
      <trkpt lat="25.0378511" lon="121.5380544"></trkpt>
      <trkpt lat="25.0378624" lon="121.5379771"></trkpt>
      <trkpt lat="25.0378658" lon="121.5377793"></trkpt>
      <trkpt lat="25.0378663" lon="121.5376941"></trkpt>
      <trkpt lat="25.0372253" lon="121.5374811"></trkpt>
      <trkpt lat="25.0368880" lon="121.5374761"></trkpt>
      <trkpt lat="25.0368376" lon="121.5374766"></trkpt>
      <trkpt lat="25.0364581" lon="121.5374638"></trkpt>
      <trkpt lat="25.0363958" lon="121.5374625"></trkpt>
      <trkpt lat="25.0360976" lon="121.5374525"></trkpt>
      <trkpt lat="25.0356972" lon="121.5375425"></trkpt>
      <trkpt lat="25.0356979" lon="121.5374894"></trkpt>
      <trkpt lat="25.0357171" lon="121.5359838"></trkpt>
      <trkpt lat="25.0357183" lon="121.5359075"></trkpt>
      <trkpt lat="25.0354206" lon="121.5354247"></trkpt>
      <trkpt lat="25.0353278" lon="121.5352239"></trkpt>
      <trkpt lat="25.0350952" lon="121.5346849"></trkpt>
      <trkpt lat="25.0350449" lon="121.5346443"></trkpt>
      <trkpt lat="25.0349961" lon="121.5346161"></trkpt>
      <trkpt lat="25.0349654" lon="121.5346119"></trkpt>
      <trkpt lat="25.0346793" lon="121.5345693"></trkpt>
      <trkpt lat="25.0346284" lon="121.5345648"></trkpt>
      <trkpt lat="25.0346292" lon="121.5345145"></trkpt>
      <trkpt lat="25.0346525" lon="121.5329415"></trkpt>
      <trkpt lat="25.0342340" lon="121.5329340"></trkpt>
      <trkpt lat="25.0337798" lon="121.5329273"></trkpt>
      <trkpt lat="25.0337803" lon="121.5328689"></trkpt>
      <trkpt lat="25.0337812" lon="121.5327825"></trkpt>
      <trkpt lat="25.0337816" lon="121.5326538"></trkpt>
      <trkpt lat="25.0337822" lon="121.5325722"></trkpt>
      <trkpt lat="25.0337824" lon="121.5325340"></trkpt>
      <trkpt lat="25.0337828" lon="121.5324767"></trkpt>
      <trkpt lat="25.0337717" lon="121.5324173"></trkpt>
      <trkpt lat="25.0336913" lon="121.5324162"></trkpt>
      <trkpt lat="25.0336204" lon="121.5324153"></trkpt>
      <trkpt lat="25.0335760" lon="121.5324147"></trkpt>
      <trkpt lat="25.0335396" lon="121.5324142"></trkpt>
      <trkpt lat="25.0334601" lon="121.5324131"></trkpt>
      <trkpt lat="25.0334593" lon="121.5321163"></trkpt>
      <trkpt lat="25.0334739" lon="121.5315713"></trkpt>
      <trkpt lat="25.0335159" lon="121.5304915"></trkpt>
      <trkpt lat="25.0335549" lon="121.5302064"></trkpt>
      <trkpt lat="25.0335717" lon="121.5300947"></trkpt>
      <trkpt lat="25.0335836" lon="121.5300080"></trkpt>
      <trkpt lat="25.0335614" lon="121.5299772"></trkpt>
      <trkpt lat="25.0335666" lon="121.5299362"></trkpt>
      <trkpt lat="25.0333492" lon="121.5299006"></trkpt>
      <trkpt lat="25.0331661" lon="121.5298661"></trkpt>
      <trkpt lat="25.0329116" lon="121.5298139"></trkpt>
      <trkpt lat="25.0330136" lon="121.5290950"></trkpt>
      <trkpt lat="25.0327171" lon="121.5290411"></trkpt>
      <trkpt lat="25.0323598" lon="121.5289743"></trkpt>
      <trkpt lat="25.0320455" lon="121.5289168"></trkpt>
      <trkpt lat="25.0317330" lon="121.5288563"></trkpt>
      <trkpt lat="25.0313919" lon="121.5287901"></trkpt>
      <trkpt lat="25.0314704" lon="121.5283073"></trkpt>
      <trkpt lat="25.0315892" lon="121.5275223"></trkpt>
      <trkpt lat="25.0316014" lon="121.5274416"></trkpt>
      <trkpt lat="25.0316110" lon="121.5273775"></trkpt>
      <trkpt lat="25.0316706" lon="121.5269797"></trkpt>
      <trkpt lat="25.0316255" lon="121.5269716"></trkpt>
      <trkpt lat="25.0314260" lon="121.5269360"></trkpt>
      <trkpt lat="25.0312527" lon="121.5269051"></trkpt>
      <trkpt lat="25.0308850" lon="121.5268366"></trkpt>
      <trkpt lat="25.0307192" lon="121.5268058"></trkpt>
      <trkpt lat="25.0305422" lon="121.5267745"></trkpt>
      <trkpt lat="25.0302068" lon="121.5267083"></trkpt>
      <trkpt lat="25.0301656" lon="121.5267002"></trkpt>
      <trkpt lat="25.0300578" lon="121.5266807"></trkpt>
      <trkpt lat="25.0296504" lon="121.5266069"></trkpt>
      <trkpt lat="25.0294803" lon="121.5276915"></trkpt>
      <trkpt lat="25.0290185" lon="121.5276026"></trkpt>
      <trkpt lat="25.0287040" lon="121.5275383"></trkpt>
      <trkpt lat="25.0285816" lon="121.5282579"></trkpt>
      <trkpt lat="25.0285750" lon="121.5282965"></trkpt>
      <trkpt lat="25.0285668" lon="121.5283508"></trkpt>
      <trkpt lat="25.0284488" lon="121.5291329"></trkpt>
      <trkpt lat="25.0283769" lon="121.5296156"></trkpt>
      <trkpt lat="25.0283093" lon="121.5305333"></trkpt>
      <trkpt lat="25.0282286" lon="121.5305294"></trkpt>
      <trkpt lat="25.0279309" lon="121.5305146"></trkpt>
      <trkpt lat="25.0276690" lon="121.5304912"></trkpt>
      <trkpt lat="25.0271533" lon="121.5304536"></trkpt>
      <trkpt lat="25.0269863" lon="121.5319948"></trkpt>
      <trkpt lat="25.0267372" lon="121.5319978"></trkpt>
      <trkpt lat="25.0266570" lon="121.5319978"></trkpt>
      <trkpt lat="25.0264853" lon="121.5319956"></trkpt>
      <trkpt lat="25.0264786" lon="121.5320672"></trkpt>
      <trkpt lat="25.0263928" lon="121.5330610"></trkpt>
      <trkpt lat="25.0263504" lon="121.5332934"></trkpt>
      <trkpt lat="25.0263399" lon="121.5335333"></trkpt>
      <trkpt lat="25.0262702" lon="121.5335262"></trkpt>
      <trkpt lat="25.0261186" lon="121.5335111"></trkpt>
      <trkpt lat="25.0260300" lon="121.5335022"></trkpt>
      <trkpt lat="25.0260214" lon="121.5336073"></trkpt>
      <trkpt lat="25.0260161" lon="121.5336736"></trkpt>
      <trkpt lat="25.0259661" lon="121.5342841"></trkpt>
      <trkpt lat="25.0259316" lon="121.5344725"></trkpt>
      <trkpt lat="25.0259201" lon="121.5345246"></trkpt>
      <trkpt lat="25.0259041" lon="121.5346481"></trkpt>
      <trkpt lat="25.0258878" lon="121.5346712"></trkpt>
      <trkpt lat="25.0258730" lon="121.5347718"></trkpt>
      <trkpt lat="25.0258528" lon="121.5349094"></trkpt>
      <trkpt lat="25.0258388" lon="121.5350052"></trkpt>
      <trkpt lat="25.0258406" lon="121.5350160"></trkpt>
      <trkpt lat="25.0258394" lon="121.5350628"></trkpt>
      <trkpt lat="25.0258210" lon="121.5351813"></trkpt>
      <trkpt lat="25.0257744" lon="121.5356092"></trkpt>
      <trkpt lat="25.0257290" lon="121.5359272"></trkpt>
      <trkpt lat="25.0253234" lon="121.5359251"></trkpt>
      <trkpt lat="25.0249616" lon="121.5359231"></trkpt>
      <trkpt lat="25.0249620" lon="121.5362367"></trkpt>
      <trkpt lat="25.0249834" lon="121.5366362"></trkpt>
      <trkpt lat="25.0249629" lon="121.5369338"></trkpt>
      <trkpt lat="25.0249634" lon="121.5373159"></trkpt>
      <trkpt lat="25.0249338" lon="121.5373158"></trkpt>
      <trkpt lat="25.0249556" lon="121.5374357"></trkpt>
      <trkpt lat="25.0249684" lon="121.5375198"></trkpt>
      <trkpt lat="25.0249649" lon="121.5378957"></trkpt>
      <trkpt lat="25.0249560" lon="121.5379718"></trkpt>
      <trkpt lat="25.0249209" lon="121.5382422"></trkpt>
      <trkpt lat="25.0247327" lon="121.5396157"></trkpt>
      <trkpt lat="25.0237874" lon="121.5394607"></trkpt>
      <trkpt lat="25.0233649" lon="121.5393963"></trkpt>
      <trkpt lat="25.0233564" lon="121.5394658"></trkpt>
      <trkpt lat="25.0233351" lon="121.5394629"></trkpt>
      <trkpt lat="25.0230791" lon="121.5393803"></trkpt>
      <trkpt lat="25.0230388" lon="121.5393478"></trkpt>
      <trkpt lat="25.0230125" lon="121.5393265"></trkpt>
      <trkpt lat="25.0229792" lon="121.5393788"></trkpt>
      <trkpt lat="25.0223769" lon="121.5403129"></trkpt>
      <trkpt lat="25.0223216" lon="121.5403961"></trkpt>
      <trkpt lat="25.0222897" lon="121.5404489"></trkpt>
      <trkpt lat="25.0222715" lon="121.5404772"></trkpt>
      <trkpt lat="25.0221507" lon="121.5406649"></trkpt>
      <trkpt lat="25.0220408" lon="121.5408357"></trkpt>
      <trkpt lat="25.0220344" lon="121.5410560"></trkpt>
      <trkpt lat="25.0220338" lon="121.5410870"></trkpt>
      <trkpt lat="25.0223249" lon="121.5410877"></trkpt>
      <trkpt lat="25.0223746" lon="121.5410881"></trkpt>
      <trkpt lat="25.0224179" lon="121.5410893"></trkpt>
      <trkpt lat="25.0227248" lon="121.5411033"></trkpt>
      <trkpt lat="25.0227235" lon="121.5411545"></trkpt>
      <trkpt lat="25.0226799" lon="121.5428394"></trkpt>
      <trkpt lat="25.0226741" lon="121.5430656"></trkpt>
      <trkpt lat="25.0226695" lon="121.5432422"></trkpt>
      <trkpt lat="25.0226675" lon="121.5433183"></trkpt>
      <trkpt lat="25.0216763" lon="121.5432997"></trkpt>
      <trkpt lat="25.0216159" lon="121.5432986"></trkpt>
      <trkpt lat="25.0215902" lon="121.5432981"></trkpt>
      <trkpt lat="25.0215038" lon="121.5432965"></trkpt>
      <trkpt lat="25.0213310" lon="121.5432933"></trkpt>
      <trkpt lat="25.0212153" lon="121.5432911"></trkpt>
      <trkpt lat="25.0210394" lon="121.5432900"></trkpt>
      <trkpt lat="25.0210388" lon="121.5433524"></trkpt>
      <trkpt lat="25.0210372" lon="121.5434068"></trkpt>
      <trkpt lat="25.0210374" lon="121.5434646"></trkpt>
    </trkseg>
  </trk>
</gpx>
