<?xml version="1.0" encoding="UTF-8"?>
<gpx version="1.1" creator="shape-route-poc" xmlns="http://www.topografix.com/GPX/1/1">
  <metadata>
    <name>LIT (outline, rail)</name>
    <desc>LIT · 36.2 km · bike · shape distance 0.109 · 48 repeated segments</desc>
    <time>2026-09-11T13:54:52Z</time>
  </metadata>
  <trk>
    <name>LIT (outline, rail)</name>
    <type>cycling</type>
    <trkseg>
      <trkpt lat="25.0620917" lon="121.5097575"></trkpt>
      <trkpt lat="25.0621100" lon="121.5105115"></trkpt>
      <trkpt lat="25.0621305" lon="121.5111735"></trkpt>
      <trkpt lat="25.0621341" lon="121.5112600"></trkpt>
      <trkpt lat="25.0621644" lon="121.5112586"></trkpt>
      <trkpt lat="25.0622571" lon="121.5112530"></trkpt>
      <trkpt lat="25.0622588" lon="121.5112900"></trkpt>
      <trkpt lat="25.0622791" lon="121.5117181"></trkpt>
      <trkpt lat="25.0623176" lon="121.5125361"></trkpt>
      <trkpt lat="25.0623494" lon="121.5125883"></trkpt>
      <trkpt lat="25.0623721" lon="121.5134328"></trkpt>
      <trkpt lat="25.0623726" lon="121.5135007"></trkpt>
      <trkpt lat="25.0621578" lon="121.5135009"></trkpt>
      <trkpt lat="25.0620552" lon="121.5134847"></trkpt>
      <trkpt lat="25.0608609" lon="121.5134604"></trkpt>
      <trkpt lat="25.0607810" lon="121.5134707"></trkpt>
      <trkpt lat="25.0607790" lon="121.5133540"></trkpt>
      <trkpt lat="25.0607257" lon="121.5127238"></trkpt>
      <trkpt lat="25.0605152" lon="121.5127428"></trkpt>
      <trkpt lat="25.0600659" lon="121.5127743"></trkpt>
      <trkpt lat="25.0597794" lon="121.5127934"></trkpt>
      <trkpt lat="25.0595915" lon="121.5128072"></trkpt>
      <trkpt lat="25.0591844" lon="121.5128372"></trkpt>
      <trkpt lat="25.0591584" lon="121.5128391"></trkpt>
      <trkpt lat="25.0590478" lon="121.5128472"></trkpt>
      <trkpt lat="25.0585665" lon="121.5128827"></trkpt>
      <trkpt lat="25.0582315" lon="121.5129074"></trkpt>
      <trkpt lat="25.0581770" lon="121.5129111"></trkpt>
      <trkpt lat="25.0581783" lon="121.5129837"></trkpt>
      <trkpt lat="25.0582142" lon="121.5134836"></trkpt>
      <trkpt lat="25.0582160" lon="121.5135878"></trkpt>
      <trkpt lat="25.0581275" lon="121.5135947"></trkpt>
      <trkpt lat="25.0579815" lon="121.5136066"></trkpt>
      <trkpt lat="25.0579335" lon="121.5135976"></trkpt>
      <trkpt lat="25.0575977" lon="121.5136266"></trkpt>
      <trkpt lat="25.0570910" lon="121.5136751"></trkpt>
      <trkpt lat="25.0569905" lon="121.5136941"></trkpt>
      <trkpt lat="25.0568892" lon="121.5137133"></trkpt>
      <trkpt lat="25.0565096" lon="121.5137442"></trkpt>
      <trkpt lat="25.0563945" lon="121.5137666"></trkpt>
      <trkpt lat="25.0562229" lon="121.5138008"></trkpt>
      <trkpt lat="25.0561773" lon="121.5135769"></trkpt>
      <trkpt lat="25.0559741" lon="121.5125552"></trkpt>
      <trkpt lat="25.0556298" lon="121.5125421"></trkpt>
      <trkpt lat="25.0555592" lon="121.5125430"></trkpt>
      <trkpt lat="25.0552985" lon="121.5125875"></trkpt>
      <trkpt lat="25.0550294" lon="121.5126193"></trkpt>
      <trkpt lat="25.0547803" lon="121.5126883"></trkpt>
      <trkpt lat="25.0547758" lon="121.5127058"></trkpt>
      <trkpt lat="25.0547801" lon="121.5127415"></trkpt>
      <trkpt lat="25.0545032" lon="121.5127717"></trkpt>
      <trkpt lat="25.0544000" lon="121.5128014"></trkpt>
      <trkpt lat="25.0542756" lon="121.5128232"></trkpt>
      <trkpt lat="25.0539596" lon="121.5128576"></trkpt>
      <trkpt lat="25.0539790" lon="121.5131331"></trkpt>
      <trkpt lat="25.0534125" lon="121.5131636"></trkpt>
      <trkpt lat="25.0530009" lon="121.5132172"></trkpt>
      <trkpt lat="25.0529533" lon="121.5132213"></trkpt>
      <trkpt lat="25.0522803" lon="121.5132341"></trkpt>
      <trkpt lat="25.0520132" lon="121.5132749"></trkpt>
      <trkpt lat="25.0517461" lon="121.5132669"></trkpt>
      <trkpt lat="25.0516604" lon="121.5133235"></trkpt>
      <trkpt lat="25.0515784" lon="121.5133110"></trkpt>
      <trkpt lat="25.0515395" lon="121.5132778"></trkpt>
      <trkpt lat="25.0513349" lon="121.5133324"></trkpt>
      <trkpt lat="25.0512503" lon="121.5137090"></trkpt>
      <trkpt lat="25.0506265" lon="121.5135271"></trkpt>
      <trkpt lat="25.0502889" lon="121.5134293"></trkpt>
      <trkpt lat="25.0496425" lon="121.5132482"></trkpt>
      <trkpt lat="25.0495726" lon="121.5132246"></trkpt>
      <trkpt lat="25.0495392" lon="121.5132207"></trkpt>
      <trkpt lat="25.0493633" lon="121.5131907"></trkpt>
      <trkpt lat="25.0493427" lon="121.5132521"></trkpt>
      <trkpt lat="25.0491793" lon="121.5132626"></trkpt>
      <trkpt lat="25.0483683" lon="121.5132803"></trkpt>
      <trkpt lat="25.0483461" lon="121.5132808"></trkpt>
      <trkpt lat="25.0482658" lon="121.5132820"></trkpt>
      <trkpt lat="25.0481117" lon="121.5132836"></trkpt>
      <trkpt lat="25.0474669" lon="121.5132904"></trkpt>
      <trkpt lat="25.0474708" lon="121.5131856"></trkpt>
      <trkpt lat="25.0474669" lon="121.5132904"></trkpt>
      <trkpt lat="25.0473215" lon="121.5132751"></trkpt>
      <trkpt lat="25.0471860" lon="121.5132706"></trkpt>
      <trkpt lat="25.0470286" lon="121.5132759"></trkpt>
      <trkpt lat="25.0466098" lon="121.5132600"></trkpt>
      <trkpt lat="25.0464720" lon="121.5132575"></trkpt>
      <trkpt lat="25.0460608" lon="121.5132500"></trkpt>
      <trkpt lat="25.0459863" lon="121.5132486"></trkpt>
      <trkpt lat="25.0459174" lon="121.5132481"></trkpt>
      <trkpt lat="25.0456679" lon="121.5132465"></trkpt>
      <trkpt lat="25.0456114" lon="121.5132461"></trkpt>
      <trkpt lat="25.0454986" lon="121.5132454"></trkpt>
      <trkpt lat="25.0452333" lon="121.5132436"></trkpt>
      <trkpt lat="25.0451709" lon="121.5132432"></trkpt>
      <trkpt lat="25.0450863" lon="121.5132422"></trkpt>
      <trkpt lat="25.0447786" lon="121.5132382"></trkpt>
      <trkpt lat="25.0445291" lon="121.5132349"></trkpt>
      <trkpt lat="25.0444188" lon="121.5132335"></trkpt>
      <trkpt lat="25.0441247" lon="121.5132298"></trkpt>
      <trkpt lat="25.0440636" lon="121.5132290"></trkpt>
      <trkpt lat="25.0440153" lon="121.5132284"></trkpt>
      <trkpt lat="25.0435077" lon="121.5132219"></trkpt>
      <trkpt lat="25.0435082" lon="121.5132751"></trkpt>
      <trkpt lat="25.0434887" lon="121.5133047"></trkpt>
      <trkpt lat="25.0434752" lon="121.5133193"></trkpt>
      <trkpt lat="25.0434606" lon="121.5139805"></trkpt>
      <trkpt lat="25.0434801" lon="121.5140073"></trkpt>
      <trkpt lat="25.0434790" lon="121.5141048"></trkpt>
      <trkpt lat="25.0434776" lon="121.5141521"></trkpt>
      <trkpt lat="25.0434533" lon="121.5141763"></trkpt>
      <trkpt lat="25.0434388" lon="121.5148924"></trkpt>
      <trkpt lat="25.0434618" lon="121.5149260"></trkpt>
      <trkpt lat="25.0434534" lon="121.5150168"></trkpt>
      <trkpt lat="25.0441095" lon="121.5150200"></trkpt>
      <trkpt lat="25.0446373" lon="121.5150226"></trkpt>
      <trkpt lat="25.0446438" lon="121.5161058"></trkpt>
      <trkpt lat="25.0446412" lon="121.5169266"></trkpt>
      <trkpt lat="25.0446212" lon="121.5170210"></trkpt>
      <trkpt lat="25.0449009" lon="121.5171227"></trkpt>
      <trkpt lat="25.0449371" lon="121.5171328"></trkpt>
      <trkpt lat="25.0449017" lon="121.5172379"></trkpt>
      <trkpt lat="25.0448755" lon="121.5173496"></trkpt>
      <trkpt lat="25.0448405" lon="121.5174992"></trkpt>
      <trkpt lat="25.0447330" lon="121.5179581"></trkpt>
      <trkpt lat="25.0447206" lon="121.5180159"></trkpt>
      <trkpt lat="25.0447003" lon="121.5180954"></trkpt>
      <trkpt lat="25.0446931" lon="121.5181220"></trkpt>
      <trkpt lat="25.0446782" lon="121.5181771"></trkpt>
      <trkpt lat="25.0446326" lon="121.5183674"></trkpt>
      <trkpt lat="25.0445155" lon="121.5188701"></trkpt>
      <trkpt lat="25.0445095" lon="121.5188957"></trkpt>
      <trkpt lat="25.0444995" lon="121.5189385"></trkpt>
      <trkpt lat="25.0444761" lon="121.5190207"></trkpt>
      <trkpt lat="25.0444662" lon="121.5190544"></trkpt>
      <trkpt lat="25.0444521" lon="121.5191189"></trkpt>
      <trkpt lat="25.0444341" lon="121.5191991"></trkpt>
      <trkpt lat="25.0444262" lon="121.5192346"></trkpt>
      <trkpt lat="25.0444190" lon="121.5192669"></trkpt>
      <trkpt lat="25.0443959" lon="121.5193708"></trkpt>
      <trkpt lat="25.0443856" lon="121.5194173"></trkpt>
      <trkpt lat="25.0443947" lon="121.5194461"></trkpt>
      <trkpt lat="25.0441863" lon="121.5203247"></trkpt>
      <trkpt lat="25.0441831" lon="121.5203380"></trkpt>
      <trkpt lat="25.0441795" lon="121.5203398"></trkpt>
      <trkpt lat="25.0440042" lon="121.5210676"></trkpt>
      <trkpt lat="25.0439927" lon="121.5211155"></trkpt>
      <trkpt lat="25.0439416" lon="121.5213273"></trkpt>
      <trkpt lat="25.0439296" lon="121.5213822"></trkpt>
      <trkpt lat="25.0440123" lon="121.5214094"></trkpt>
      <trkpt lat="25.0440602" lon="121.5214233"></trkpt>
      <trkpt lat="25.0437146" lon="121.5228921"></trkpt>
      <trkpt lat="25.0437340" lon="121.5229350"></trkpt>
      <trkpt lat="25.0437159" lon="121.5230272"></trkpt>
      <trkpt lat="25.0436951" lon="121.5231248"></trkpt>
      <trkpt lat="25.0442849" lon="121.5232993"></trkpt>
      <trkpt lat="25.0441944" lon="121.5237106"></trkpt>
      <trkpt lat="25.0441146" lon="121.5240733"></trkpt>
      <trkpt lat="25.0441037" lon="121.5241224"></trkpt>
      <trkpt lat="25.0439586" lon="121.5240766"></trkpt>
      <trkpt lat="25.0439450" lon="121.5241322"></trkpt>
      <trkpt lat="25.0436691" lon="121.5240541"></trkpt>
      <trkpt lat="25.0434546" lon="121.5239918"></trkpt>
      <trkpt lat="25.0434126" lon="121.5239891"></trkpt>
      <trkpt lat="25.0433962" lon="121.5240086"></trkpt>
      <trkpt lat="25.0433564" lon="121.5239948"></trkpt>
      <trkpt lat="25.0431925" lon="121.5246669"></trkpt>
      <trkpt lat="25.0431435" lon="121.5246543"></trkpt>
      <trkpt lat="25.0431168" lon="121.5246731"></trkpt>
      <trkpt lat="25.0421120" lon="121.5243861"></trkpt>
      <trkpt lat="25.0420978" lon="121.5244521"></trkpt>
      <trkpt lat="25.0419903" lon="121.5244163"></trkpt>
      <trkpt lat="25.0418765" lon="121.5243835"></trkpt>
      <trkpt lat="25.0416997" lon="121.5243404"></trkpt>
      <trkpt lat="25.0413020" lon="121.5242211"></trkpt>
      <trkpt lat="25.0411986" lon="121.5241877"></trkpt>
      <trkpt lat="25.0406830" lon="121.5240425"></trkpt>
      <trkpt lat="25.0405979" lon="121.5240140"></trkpt>
      <trkpt lat="25.0405369" lon="121.5239946"></trkpt>
      <trkpt lat="25.0400363" lon="121.5238481"></trkpt>
      <trkpt lat="25.0398584" lon="121.5237972"></trkpt>
      <trkpt lat="25.0394429" lon="121.5236754"></trkpt>
      <trkpt lat="25.0391460" lon="121.5235967"></trkpt>
      <trkpt lat="25.0390594" lon="121.5235722"></trkpt>
      <trkpt lat="25.0387041" lon="121.5234650"></trkpt>
      <trkpt lat="25.0386284" lon="121.5234440"></trkpt>
      <trkpt lat="25.0385609" lon="121.5234242"></trkpt>
      <trkpt lat="25.0385253" lon="121.5234141"></trkpt>
      <trkpt lat="25.0384924" lon="121.5234054"></trkpt>
      <trkpt lat="25.0384197" lon="121.5233895"></trkpt>
      <trkpt lat="25.0383440" lon="121.5233673"></trkpt>
      <trkpt lat="25.0383460" lon="121.5234678"></trkpt>
      <trkpt lat="25.0382456" lon="121.5242372"></trkpt>
      <trkpt lat="25.0381322" lon="121.5250401"></trkpt>
      <trkpt lat="25.0381250" lon="121.5251512"></trkpt>
      <trkpt lat="25.0381198" lon="121.5252324"></trkpt>
      <trkpt lat="25.0381590" lon="121.5252766"></trkpt>
      <trkpt lat="25.0381436" lon="121.5257011"></trkpt>
      <trkpt lat="25.0377609" lon="121.5255946"></trkpt>
      <trkpt lat="25.0376601" lon="121.5260150"></trkpt>
      <trkpt lat="25.0375648" lon="121.5264127"></trkpt>
      <trkpt lat="25.0374388" lon="121.5269378"></trkpt>
      <trkpt lat="25.0373692" lon="121.5272280"></trkpt>
      <trkpt lat="25.0374012" lon="121.5272374"></trkpt>
      <trkpt lat="25.0377281" lon="121.5273334"></trkpt>
      <trkpt lat="25.0379394" lon="121.5273955"></trkpt>
      <trkpt lat="25.0380043" lon="121.5274000"></trkpt>
      <trkpt lat="25.0380994" lon="121.5274066"></trkpt>
      <trkpt lat="25.0380931" lon="121.5277806"></trkpt>
      <trkpt lat="25.0380898" lon="121.5279716"></trkpt>
      <trkpt lat="25.0380877" lon="121.5280977"></trkpt>
      <trkpt lat="25.0381439" lon="121.5281137"></trkpt>
      <trkpt lat="25.0381834" lon="121.5281250"></trkpt>
      <trkpt lat="25.0382138" lon="121.5281337"></trkpt>
      <trkpt lat="25.0382122" lon="121.5282395"></trkpt>
      <trkpt lat="25.0382105" lon="121.5283589"></trkpt>
      <trkpt lat="25.0382090" lon="121.5284564"></trkpt>
      <trkpt lat="25.0381912" lon="121.5292995"></trkpt>
      <trkpt lat="25.0381894" lon="121.5293840"></trkpt>
      <trkpt lat="25.0381878" lon="121.5294599"></trkpt>
      <trkpt lat="25.0382317" lon="121.5294660"></trkpt>
      <trkpt lat="25.0382700" lon="121.5294715"></trkpt>
      <trkpt lat="25.0382928" lon="121.5294748"></trkpt>
      <trkpt lat="25.0383384" lon="121.5294813"></trkpt>
      <trkpt lat="25.0383791" lon="121.5294870"></trkpt>
      <trkpt lat="25.0383817" lon="121.5306416"></trkpt>
      <trkpt lat="25.0388659" lon="121.5306567"></trkpt>
      <trkpt lat="25.0391566" lon="121.5304472"></trkpt>
      <trkpt lat="25.0391848" lon="121.5304263"></trkpt>
      <trkpt lat="25.0393385" lon="121.5310726"></trkpt>
      <trkpt lat="25.0394112" lon="121.5314739"></trkpt>
      <trkpt lat="25.0390520" lon="121.5315496"></trkpt>
      <trkpt lat="25.0390444" lon="121.5317176"></trkpt>
      <trkpt lat="25.0390929" lon="121.5317355"></trkpt>
      <trkpt lat="25.0393465" lon="121.5317206"></trkpt>
      <trkpt lat="25.0398107" lon="121.5315825"></trkpt>
      <trkpt lat="25.0398344" lon="121.5317076"></trkpt>
      <trkpt lat="25.0400087" lon="121.5316367"></trkpt>
      <trkpt lat="25.0401083" lon="121.5316012"></trkpt>
      <trkpt lat="25.0402190" lon="121.5315965"></trkpt>
      <trkpt lat="25.0402726" lon="121.5315949"></trkpt>
      <trkpt lat="25.0403372" lon="121.5315901"></trkpt>
      <trkpt lat="25.0408027" lon="121.5315582"></trkpt>
      <trkpt lat="25.0408440" lon="121.5315535"></trkpt>
      <trkpt lat="25.0408498" lon="121.5315002"></trkpt>
      <trkpt lat="25.0411544" lon="121.5302340"></trkpt>
      <trkpt lat="25.0415247" lon="121.5303455"></trkpt>
      <trkpt lat="25.0415967" lon="121.5303672"></trkpt>
      <trkpt lat="25.0415247" lon="121.5303455"></trkpt>
      <trkpt lat="25.0411544" lon="121.5302340"></trkpt>
      <trkpt lat="25.0406792" lon="121.5300903"></trkpt>
      <trkpt lat="25.0406327" lon="121.5300762"></trkpt>
      <trkpt lat="25.0405446" lon="121.5300409"></trkpt>
      <trkpt lat="25.0405291" lon="121.5300362"></trkpt>
      <trkpt lat="25.0401106" lon="121.5299104"></trkpt>
      <trkpt lat="25.0396658" lon="121.5297754"></trkpt>
      <trkpt lat="25.0393549" lon="121.5296730"></trkpt>
      <trkpt lat="25.0393203" lon="121.5294275"></trkpt>
      <trkpt lat="25.0389774" lon="121.5294410"></trkpt>
      <trkpt lat="25.0387876" lon="121.5294501"></trkpt>
      <trkpt lat="25.0386229" lon="121.5294466"></trkpt>
      <trkpt lat="25.0384070" lon="121.5294244"></trkpt>
      <trkpt lat="25.0383387" lon="121.5294144"></trkpt>
      <trkpt lat="25.0382713" lon="121.5294009"></trkpt>
      <trkpt lat="25.0382328" lon="121.5293932"></trkpt>
      <trkpt lat="25.0381894" lon="121.5293840"></trkpt>
      <trkpt lat="25.0381322" lon="121.5293719"></trkpt>
      <trkpt lat="25.0380656" lon="121.5293575"></trkpt>
      <trkpt lat="25.0376810" lon="121.5292168"></trkpt>
      <trkpt lat="25.0376266" lon="121.5295912"></trkpt>
      <trkpt lat="25.0376545" lon="121.5296325"></trkpt>
      <trkpt lat="25.0377129" lon="121.5296515"></trkpt>
      <trkpt lat="25.0376575" lon="121.5300418"></trkpt>
      <trkpt lat="25.0375258" lon="121.5309391"></trkpt>
      <trkpt lat="25.0373976" lon="121.5309316"></trkpt>
      <trkpt lat="25.0373334" lon="121.5309196"></trkpt>
      <trkpt lat="25.0373976" lon="121.5309316"></trkpt>
      <trkpt lat="25.0375258" lon="121.5309391"></trkpt>
      <trkpt lat="25.0374984" lon="121.5312220"></trkpt>
      <trkpt lat="25.0372383" lon="121.5316465"></trkpt>
      <trkpt lat="25.0370380" lon="121.5318846"></trkpt>
      <trkpt lat="25.0369026" lon="121.5322998"></trkpt>
      <trkpt lat="25.0368059" lon="121.5325324"></trkpt>
      <trkpt lat="25.0368316" lon="121.5325315"></trkpt>
      <trkpt lat="25.0368299" lon="121.5326678"></trkpt>
      <trkpt lat="25.0368259" lon="121.5328251"></trkpt>
      <trkpt lat="25.0368252" lon="121.5328798"></trkpt>
      <trkpt lat="25.0368255" lon="121.5329185"></trkpt>
      <trkpt lat="25.0370199" lon="121.5329215"></trkpt>
      <trkpt lat="25.0373392" lon="121.5329256"></trkpt>
      <trkpt lat="25.0374197" lon="121.5329269"></trkpt>
      <trkpt lat="25.0374198" lon="121.5329799"></trkpt>
      <trkpt lat="25.0378907" lon="121.5329821"></trkpt>
      <trkpt lat="25.0379208" lon="121.5330121"></trkpt>
      <trkpt lat="25.0379188" lon="121.5337926"></trkpt>
      <trkpt lat="25.0377657" lon="121.5342728"></trkpt>
      <trkpt lat="25.0377128" lon="121.5344531"></trkpt>
      <trkpt lat="25.0377107" lon="121.5345977"></trkpt>
      <trkpt lat="25.0376952" lon="121.5356648"></trkpt>
      <trkpt lat="25.0376679" lon="121.5369288"></trkpt>
      <trkpt lat="25.0376570" lon="121.5369900"></trkpt>
      <trkpt lat="25.0376558" lon="121.5370479"></trkpt>
      <trkpt lat="25.0376509" lon="121.5373920"></trkpt>
      <trkpt lat="25.0376854" lon="121.5374214"></trkpt>
      <trkpt lat="25.0377131" lon="121.5374450"></trkpt>
      <trkpt lat="25.0378671" lon="121.5375427"></trkpt>
      <trkpt lat="25.0378663" lon="121.5376941"></trkpt>
      <trkpt lat="25.0378658" lon="121.5377793"></trkpt>
      <trkpt lat="25.0378624" lon="121.5379771"></trkpt>
      <trkpt lat="25.0378511" lon="121.5380544"></trkpt>
      <trkpt lat="25.0378511" lon="121.5381764"></trkpt>
      <trkpt lat="25.0377016" lon="121.5383110"></trkpt>
      <trkpt lat="25.0376714" lon="121.5383386"></trkpt>
      <trkpt lat="25.0376423" lon="121.5383602"></trkpt>
      <trkpt lat="25.0376327" lon="121.5385158"></trkpt>
      <trkpt lat="25.0376157" lon="121.5396843"></trkpt>
      <trkpt lat="25.0375941" lon="121.5399743"></trkpt>
      <trkpt lat="25.0375933" lon="121.5400935"></trkpt>
      <trkpt lat="25.0375842" lon="121.5408379"></trkpt>
      <trkpt lat="25.0375794" lon="121.5409983"></trkpt>
      <trkpt lat="25.0375768" lon="121.5412972"></trkpt>
      <trkpt lat="25.0377349" lon="121.5419369"></trkpt>
      <trkpt lat="25.0377333" lon="121.5420059"></trkpt>
      <trkpt lat="25.0377199" lon="121.5434632"></trkpt>
      <trkpt lat="25.0377195" lon="121.5435046"></trkpt>
      <trkpt lat="25.0377193" lon="121.5435218"></trkpt>
      <trkpt lat="25.0377911" lon="121.5435212"></trkpt>
      <trkpt lat="25.0378789" lon="121.5435228"></trkpt>
      <trkpt lat="25.0378768" lon="121.5436249"></trkpt>
      <trkpt lat="25.0378741" lon="121.5437593"></trkpt>
      <trkpt lat="25.0378724" lon="121.5438691"></trkpt>
      <trkpt lat="25.0379074" lon="121.5438671"></trkpt>
      <trkpt lat="25.0380157" lon="121.5438697"></trkpt>
      <trkpt lat="25.0380470" lon="121.5438703"></trkpt>
      <trkpt lat="25.0380725" lon="121.5438709"></trkpt>
      <trkpt lat="25.0381522" lon="121.5438727"></trkpt>
      <trkpt lat="25.0382223" lon="121.5438743"></trkpt>
      <trkpt lat="25.0382129" lon="121.5443329"></trkpt>
      <trkpt lat="25.0382120" lon="121.5443730"></trkpt>
      <trkpt lat="25.0386403" lon="121.5443832"></trkpt>
      <trkpt lat="25.0387302" lon="121.5443853"></trkpt>
      <trkpt lat="25.0390300" lon="121.5443925"></trkpt>
      <trkpt lat="25.0394027" lon="121.5444012"></trkpt>
      <trkpt lat="25.0398156" lon="121.5444052"></trkpt>
      <trkpt lat="25.0402289" lon="121.5444208"></trkpt>
      <trkpt lat="25.0405433" lon="121.5444276"></trkpt>
      <trkpt lat="25.0409766" lon="121.5444385"></trkpt>
      <trkpt lat="25.0414434" lon="121.5444480"></trkpt>
      <trkpt lat="25.0414516" lon="121.5439669"></trkpt>
      <trkpt lat="25.0415533" lon="121.5439714"></trkpt>
      <trkpt lat="25.0416782" lon="121.5439715"></trkpt>
      <trkpt lat="25.0417850" lon="121.5439740"></trkpt>
      <trkpt lat="25.0418431" lon="121.5439632"></trkpt>
      <trkpt lat="25.0418438" lon="121.5438436"></trkpt>
      <trkpt lat="25.0418448" lon="121.5437125"></trkpt>
      <trkpt lat="25.0418459" lon="121.5436062"></trkpt>
      <trkpt lat="25.0417924" lon="121.5435532"></trkpt>
      <trkpt lat="25.0417948" lon="121.5433433"></trkpt>
      <trkpt lat="25.0418152" lon="121.5432709"></trkpt>
      <trkpt lat="25.0418152" lon="121.5431244"></trkpt>
      <trkpt lat="25.0417982" lon="121.5430844"></trkpt>
      <trkpt lat="25.0417987" lon="121.5430428"></trkpt>
      <trkpt lat="25.0417993" lon="121.5430175"></trkpt>
      <trkpt lat="25.0419493" lon="121.5430210"></trkpt>
      <trkpt lat="25.0420381" lon="121.5429862"></trkpt>
      <trkpt lat="25.0420416" lon="121.5416417"></trkpt>
      <trkpt lat="25.0418138" lon="121.5416417"></trkpt>
      <trkpt lat="25.0418131" lon="121.5417679"></trkpt>
      <trkpt lat="25.0417993" lon="121.5430175"></trkpt>
      <trkpt lat="25.0419493" lon="121.5430210"></trkpt>
      <trkpt lat="25.0420381" lon="121.5429862"></trkpt>
      <trkpt lat="25.0421890" lon="121.5429121"></trkpt>
      <trkpt lat="25.0423385" lon="121.5428290"></trkpt>
      <trkpt lat="25.0426457" lon="121.5426620"></trkpt>
      <trkpt lat="25.0429696" lon="121.5425161"></trkpt>
      <trkpt lat="25.0430411" lon="121.5424884"></trkpt>
      <trkpt lat="25.0431382" lon="121.5424506"></trkpt>
      <trkpt lat="25.0432898" lon="121.5423850"></trkpt>
      <trkpt lat="25.0434507" lon="121.5423179"></trkpt>
      <trkpt lat="25.0436070" lon="121.5422732"></trkpt>
      <trkpt lat="25.0437929" lon="121.5422138"></trkpt>
      <trkpt lat="25.0438130" lon="121.5422074"></trkpt>
      <trkpt lat="25.0438482" lon="121.5422125"></trkpt>
      <trkpt lat="25.0439659" lon="121.5422302"></trkpt>
      <trkpt lat="25.0440234" lon="121.5422389"></trkpt>
      <trkpt lat="25.0440537" lon="121.5422350"></trkpt>
      <trkpt lat="25.0444145" lon="121.5421889"></trkpt>
      <trkpt lat="25.0444783" lon="121.5421808"></trkpt>
      <trkpt lat="25.0445548" lon="121.5421703"></trkpt>
      <trkpt lat="25.0445681" lon="121.5422960"></trkpt>
      <trkpt lat="25.0445722" lon="121.5423345"></trkpt>
      <trkpt lat="25.0445753" lon="121.5423634"></trkpt>
      <trkpt lat="25.0447916" lon="121.5423002"></trkpt>
      <trkpt lat="25.0447389" lon="121.5416687"></trkpt>
      <trkpt lat="25.0447096" lon="121.5412823"></trkpt>
      <trkpt lat="25.0446317" lon="121.5411932"></trkpt>
      <trkpt lat="25.0444810" lon="121.5411913"></trkpt>
      <trkpt lat="25.0444638" lon="121.5412399"></trkpt>
      <trkpt lat="25.0444710" lon="121.5413865"></trkpt>
      <trkpt lat="25.0444986" lon="121.5416867"></trkpt>
      <trkpt lat="25.0445324" lon="121.5419776"></trkpt>
      <trkpt lat="25.0445375" lon="121.5420217"></trkpt>
      <trkpt lat="25.0445548" lon="121.5421703"></trkpt>
      <trkpt lat="25.0445681" lon="121.5422960"></trkpt>
      <trkpt lat="25.0445722" lon="121.5423345"></trkpt>
      <trkpt lat="25.0445753" lon="121.5423634"></trkpt>
      <trkpt lat="25.0445773" lon="121.5423810"></trkpt>
      <trkpt lat="25.0445830" lon="121.5424291"></trkpt>
      <trkpt lat="25.0446677" lon="121.5431525"></trkpt>
      <trkpt lat="25.0447360" lon="121.5432242"></trkpt>
      <trkpt lat="25.0448509" lon="121.5432106"></trkpt>
      <trkpt lat="25.0448843" lon="121.5431428"></trkpt>
      <trkpt lat="25.0448520" lon="121.5428530"></trkpt>
      <trkpt lat="25.0448883" lon="121.5428429"></trkpt>
      <trkpt lat="25.0455879" lon="121.5426485"></trkpt>
      <trkpt lat="25.0459971" lon="121.5425220"></trkpt>
      <trkpt lat="25.0470393" lon="121.5421928"></trkpt>
      <trkpt lat="25.0471291" lon="121.5421670"></trkpt>
      <trkpt lat="25.0471397" lon="121.5422136"></trkpt>
      <trkpt lat="25.0472245" lon="121.5421903"></trkpt>
      <trkpt lat="25.0472639" lon="121.5421819"></trkpt>
      <trkpt lat="25.0475068" lon="121.5421347"></trkpt>
      <trkpt lat="25.0477474" lon="121.5421332"></trkpt>
      <trkpt lat="25.0481856" lon="121.5421403"></trkpt>
      <trkpt lat="25.0482776" lon="121.5421469"></trkpt>
      <trkpt lat="25.0483501" lon="121.5421486"></trkpt>
      <trkpt lat="25.0487803" lon="121.5421582"></trkpt>
      <trkpt lat="25.0491578" lon="121.5421628"></trkpt>
      <trkpt lat="25.0495318" lon="121.5421788"></trkpt>
      <trkpt lat="25.0499088" lon="121.5421829"></trkpt>
      <trkpt lat="25.0499565" lon="121.5421834"></trkpt>
      <trkpt lat="25.0499576" lon="121.5421355"></trkpt>
      <trkpt lat="25.0499794" lon="121.5413698"></trkpt>
      <trkpt lat="25.0501852" lon="121.5413448"></trkpt>
      <trkpt lat="25.0504892" lon="121.5411622"></trkpt>
      <trkpt lat="25.0507322" lon="121.5409439"></trkpt>
      <trkpt lat="25.0508415" lon="121.5408947"></trkpt>
      <trkpt lat="25.0511478" lon="121.5414959"></trkpt>
      <trkpt lat="25.0513014" lon="121.5414932"></trkpt>
      <trkpt lat="25.0512670" lon="121.5404456"></trkpt>
      <trkpt lat="25.0517272" lon="121.5404584"></trkpt>
      <trkpt lat="25.0517259" lon="121.5405239"></trkpt>
      <trkpt lat="25.0517626" lon="121.5406140"></trkpt>
      <trkpt lat="25.0518417" lon="121.5406165"></trkpt>
      <trkpt lat="25.0518959" lon="121.5406182"></trkpt>
      <trkpt lat="25.0519193" lon="121.5406204"></trkpt>
      <trkpt lat="25.0519492" lon="121.5406199"></trkpt>
      <trkpt lat="25.0520073" lon="121.5406231"></trkpt>
      <trkpt lat="25.0520745" lon="121.5406239"></trkpt>
      <trkpt lat="25.0521225" lon="121.5405380"></trkpt>
      <trkpt lat="25.0521237" lon="121.5404670"></trkpt>
      <trkpt lat="25.0525349" lon="121.5404637"></trkpt>
      <trkpt lat="25.0528047" lon="121.5404689"></trkpt>
      <trkpt lat="25.0528686" lon="121.5404695"></trkpt>
      <trkpt lat="25.0531049" lon="121.5404719"></trkpt>
      <trkpt lat="25.0533269" lon="121.5404752"></trkpt>
      <trkpt lat="25.0533872" lon="121.5404772"></trkpt>
      <trkpt lat="25.0536640" lon="121.5404796"></trkpt>
      <trkpt lat="25.0538183" lon="121.5404822"></trkpt>
      <trkpt lat="25.0539457" lon="121.5404889"></trkpt>
      <trkpt lat="25.0542319" lon="121.5405028"></trkpt>
      <trkpt lat="25.0545403" lon="121.5405140"></trkpt>
      <trkpt lat="25.0546509" lon="121.5405237"></trkpt>
      <trkpt lat="25.0547493" lon="121.5405323"></trkpt>
      <trkpt lat="25.0550908" lon="121.5405417"></trkpt>
      <trkpt lat="25.0554271" lon="121.5405477"></trkpt>
      <trkpt lat="25.0557382" lon="121.5405558"></trkpt>
      <trkpt lat="25.0560115" lon="121.5405647"></trkpt>
      <trkpt lat="25.0560400" lon="121.5405656"></trkpt>
      <trkpt lat="25.0561129" lon="121.5405707"></trkpt>
      <trkpt lat="25.0561115" lon="121.5406641"></trkpt>
      <trkpt lat="25.0561096" lon="121.5407296"></trkpt>
      <trkpt lat="25.0560874" lon="121.5415003"></trkpt>
      <trkpt lat="25.0560745" lon="121.5420522"></trkpt>
      <trkpt lat="25.0560746" lon="121.5420920"></trkpt>
      <trkpt lat="25.0560715" lon="121.5421636"></trkpt>
      <trkpt lat="25.0561550" lon="121.5421610"></trkpt>
      <trkpt lat="25.0561905" lon="121.5421603"></trkpt>
      <trkpt lat="25.0564931" lon="121.5421544"></trkpt>
      <trkpt lat="25.0568450" lon="121.5421768"></trkpt>
      <trkpt lat="25.0571942" lon="121.5421952"></trkpt>
      <trkpt lat="25.0575992" lon="121.5421932"></trkpt>
      <trkpt lat="25.0577285" lon="121.5421649"></trkpt>
      <trkpt lat="25.0578837" lon="121.5421667"></trkpt>
      <trkpt lat="25.0578848" lon="121.5421127"></trkpt>
      <trkpt lat="25.0578893" lon="121.5418828"></trkpt>
      <trkpt lat="25.0578926" lon="121.5416388"></trkpt>
      <trkpt lat="25.0579040" lon="121.5407968"></trkpt>
      <trkpt lat="25.0579054" lon="121.5406929"></trkpt>
      <trkpt lat="25.0579894" lon="121.5406948"></trkpt>
      <trkpt lat="25.0584117" lon="121.5407052"></trkpt>
      <trkpt lat="25.0584430" lon="121.5407060"></trkpt>
      <trkpt lat="25.0584837" lon="121.5407069"></trkpt>
      <trkpt lat="25.0587002" lon="121.5407115"></trkpt>
      <trkpt lat="25.0587473" lon="121.5407123"></trkpt>
      <trkpt lat="25.0587908" lon="121.5407133"></trkpt>
      <trkpt lat="25.0590762" lon="121.5407205"></trkpt>
      <trkpt lat="25.0591111" lon="121.5407206"></trkpt>
      <trkpt lat="25.0591533" lon="121.5407216"></trkpt>
      <trkpt lat="25.0594517" lon="121.5407285"></trkpt>
      <trkpt lat="25.0594825" lon="121.5407292"></trkpt>
      <trkpt lat="25.0595110" lon="121.5407299"></trkpt>
      <trkpt lat="25.0598120" lon="121.5407367"></trkpt>
      <trkpt lat="25.0598413" lon="121.5407374"></trkpt>
      <trkpt lat="25.0598670" lon="121.5407380"></trkpt>
      <trkpt lat="25.0601689" lon="121.5407450"></trkpt>
      <trkpt lat="25.0602268" lon="121.5407463"></trkpt>
      <trkpt lat="25.0602294" lon="121.5406750"></trkpt>
      <trkpt lat="25.0602484" lon="121.5392806"></trkpt>
      <trkpt lat="25.0602480" lon="121.5392198"></trkpt>
      <trkpt lat="25.0602488" lon="121.5391513"></trkpt>
      <trkpt lat="25.0602664" lon="121.5378978"></trkpt>
      <trkpt lat="25.0602670" lon="121.5378558"></trkpt>
      <trkpt lat="25.0602676" lon="121.5378135"></trkpt>
      <trkpt lat="25.0602747" lon="121.5373081"></trkpt>
      <trkpt lat="25.0602760" lon="121.5372132"></trkpt>
      <trkpt lat="25.0602828" lon="121.5367334"></trkpt>
      <trkpt lat="25.0602832" lon="121.5366725"></trkpt>
      <trkpt lat="25.0602872" lon="121.5360936"></trkpt>
      <trkpt lat="25.0603073" lon="121.5349549"></trkpt>
      <trkpt lat="25.0603120" lon="121.5348754"></trkpt>
      <trkpt lat="25.0603093" lon="121.5348078"></trkpt>
      <trkpt lat="25.0603364" lon="121.5337518"></trkpt>
      <trkpt lat="25.0603417" lon="121.5334015"></trkpt>
      <trkpt lat="25.0603424" lon="121.5333523"></trkpt>
      <trkpt lat="25.0603450" lon="121.5332504"></trkpt>
      <trkpt lat="25.0604125" lon="121.5332507"></trkpt>
      <trkpt lat="25.0610607" lon="121.5332608"></trkpt>
      <trkpt lat="25.0613747" lon="121.5332649"></trkpt>
      <trkpt lat="25.0614487" lon="121.5332659"></trkpt>
      <trkpt lat="25.0618149" lon="121.5332725"></trkpt>
      <trkpt lat="25.0621585" lon="121.5332852"></trkpt>
      <trkpt lat="25.0622450" lon="121.5332884"></trkpt>
      <trkpt lat="25.0623003" lon="121.5332904"></trkpt>
      <trkpt lat="25.0624126" lon="121.5332790"></trkpt>
      <trkpt lat="25.0624087" lon="121.5333986"></trkpt>
      <trkpt lat="25.0623705" lon="121.5347897"></trkpt>
      <trkpt lat="25.0623670" lon="121.5349149"></trkpt>
      <trkpt lat="25.0623651" lon="121.5349842"></trkpt>
      <trkpt lat="25.0623433" lon="121.5357809"></trkpt>
      <trkpt lat="25.0623255" lon="121.5358968"></trkpt>
      <trkpt lat="25.0623035" lon="121.5366718"></trkpt>
      <trkpt lat="25.0623173" lon="121.5367986"></trkpt>
      <trkpt lat="25.0623155" lon="121.5370347"></trkpt>
      <trkpt lat="25.0623138" lon="121.5372497"></trkpt>
      <trkpt lat="25.0623129" lon="121.5373674"></trkpt>
      <trkpt lat="25.0622941" lon="121.5392478"></trkpt>
      <trkpt lat="25.0622940" lon="121.5397889"></trkpt>
      <trkpt lat="25.0622791" lon="121.5399014"></trkpt>
      <trkpt lat="25.0622754" lon="121.5405591"></trkpt>
      <trkpt lat="25.0622751" lon="121.5406102"></trkpt>
      <trkpt lat="25.0622747" lon="121.5406863"></trkpt>
      <trkpt lat="25.0622906" lon="121.5408285"></trkpt>
      <trkpt lat="25.0624384" lon="121.5408775"></trkpt>
      <trkpt lat="25.0625247" lon="121.5409053"></trkpt>
      <trkpt lat="25.0625354" lon="121.5409088"></trkpt>
      <trkpt lat="25.0625751" lon="121.5409091"></trkpt>
      <trkpt lat="25.0629379" lon="121.5409143"></trkpt>
      <trkpt lat="25.0629377" lon="121.5409785"></trkpt>
      <trkpt lat="25.0629375" lon="121.5410478"></trkpt>
      <trkpt lat="25.0629326" lon="121.5424375"></trkpt>
      <trkpt lat="25.0629323" lon="121.5425350"></trkpt>
      <trkpt lat="25.0632474" lon="121.5425409"></trkpt>
      <trkpt lat="25.0633110" lon="121.5425421"></trkpt>
      <trkpt lat="25.0633635" lon="121.5425431"></trkpt>
      <trkpt lat="25.0633633" lon="121.5426105"></trkpt>
      <trkpt lat="25.0633632" lon="121.5426420"></trkpt>
      <trkpt lat="25.0633632" lon="121.5426708"></trkpt>
      <trkpt lat="25.0633679" lon="121.5436282"></trkpt>
      <trkpt lat="25.0633682" lon="121.5436795"></trkpt>
      <trkpt lat="25.0633671" lon="121.5437451"></trkpt>
      <trkpt lat="25.0633622" lon="121.5440497"></trkpt>
      <trkpt lat="25.0633622" lon="121.5441202"></trkpt>
      <trkpt lat="25.0633622" lon="121.5441811"></trkpt>
      <trkpt lat="25.0633621" lon="121.5443291"></trkpt>
      <trkpt lat="25.0633612" lon="121.5443890"></trkpt>
      <trkpt lat="25.0633606" lon="121.5444307"></trkpt>
      <trkpt lat="25.0633523" lon="121.5450017"></trkpt>
      <trkpt lat="25.0628144" lon="121.5450021"></trkpt>
      <trkpt lat="25.0628152" lon="121.5450434"></trkpt>
      <trkpt lat="25.0628136" lon="121.5453245"></trkpt>
      <trkpt lat="25.0628117" lon="121.5456702"></trkpt>
      <trkpt lat="25.0628109" lon="121.5458096"></trkpt>
      <trkpt lat="25.0628096" lon="121.5460452"></trkpt>
      <trkpt lat="25.0628071" lon="121.5461657"></trkpt>
      <trkpt lat="25.0628062" lon="121.5462991"></trkpt>
      <trkpt lat="25.0628039" lon="121.5466660"></trkpt>
      <trkpt lat="25.0628032" lon="121.5467790"></trkpt>
      <trkpt lat="25.0627997" lon="121.5472339"></trkpt>
      <trkpt lat="25.0627994" lon="121.5472678"></trkpt>
      <trkpt lat="25.0627985" lon="121.5474163"></trkpt>
      <trkpt lat="25.0627936" lon="121.5477968"></trkpt>
      <trkpt lat="25.0627956" lon="121.5479137"></trkpt>
      <trkpt lat="25.0627752" lon="121.5479382"></trkpt>
      <trkpt lat="25.0627090" lon="121.5479384"></trkpt>
      <trkpt lat="25.0622277" lon="121.5479352"></trkpt>
      <trkpt lat="25.0622082" lon="121.5479349"></trkpt>
      <trkpt lat="25.0621167" lon="121.5479300"></trkpt>
      <trkpt lat="25.0620181" lon="121.5479267"></trkpt>
      <trkpt lat="25.0619654" lon="121.5479242"></trkpt>
      <trkpt lat="25.0619439" lon="121.5480376"></trkpt>
      <trkpt lat="25.0616577" lon="121.5495475"></trkpt>
      <trkpt lat="25.0616015" lon="121.5498672"></trkpt>
      <trkpt lat="25.0615255" lon="121.5502994"></trkpt>
      <trkpt lat="25.0615188" lon="121.5503377"></trkpt>
      <trkpt lat="25.0615153" lon="121.5503622"></trkpt>
      <trkpt lat="25.0616472" lon="121.5503932"></trkpt>
      <trkpt lat="25.0617178" lon="121.5504120"></trkpt>
      <trkpt lat="25.0617396" lon="121.5505596"></trkpt>
      <trkpt lat="25.0621475" lon="121.5507973"></trkpt>
      <trkpt lat="25.0623828" lon="121.5507527"></trkpt>
      <trkpt lat="25.0624477" lon="121.5507458"></trkpt>
      <trkpt lat="25.0624717" lon="121.5506717"></trkpt>
      <trkpt lat="25.0625208" lon="121.5505781"></trkpt>
      <trkpt lat="25.0626515" lon="121.5504453"></trkpt>
      <trkpt lat="25.0628700" lon="121.5502506"></trkpt>
      <trkpt lat="25.0629786" lon="121.5501424"></trkpt>
      <trkpt lat="25.0631347" lon="121.5499596"></trkpt>
      <trkpt lat="25.0629786" lon="121.5501424"></trkpt>
      <trkpt lat="25.0628700" lon="121.5502506"></trkpt>
      <trkpt lat="25.0626515" lon="121.5504453"></trkpt>
      <trkpt lat="25.0625208" lon="121.5505781"></trkpt>
      <trkpt lat="25.0624717" lon="121.5506717"></trkpt>
      <trkpt lat="25.0624477" lon="121.5507458"></trkpt>
      <trkpt lat="25.0624127" lon="121.5508384"></trkpt>
      <trkpt lat="25.0621447" lon="121.5509533"></trkpt>
      <trkpt lat="25.0620504" lon="121.5509682"></trkpt>
      <trkpt lat="25.0619521" lon="121.5509422"></trkpt>
      <trkpt lat="25.0619163" lon="121.5509245"></trkpt>
      <trkpt lat="25.0617457" lon="121.5508402"></trkpt>
      <trkpt lat="25.0616930" lon="121.5508142"></trkpt>
      <trkpt lat="25.0616688" lon="121.5508029"></trkpt>
      <trkpt lat="25.0616647" lon="121.5509295"></trkpt>
      <trkpt lat="25.0616591" lon="121.5510643"></trkpt>
      <trkpt lat="25.0616679" lon="121.5511397"></trkpt>
      <trkpt lat="25.0616763" lon="121.5512160"></trkpt>
      <trkpt lat="25.0616936" lon="121.5512411"></trkpt>
      <trkpt lat="25.0615820" lon="121.5512141"></trkpt>
      <trkpt lat="25.0615286" lon="121.5511947"></trkpt>
      <trkpt lat="25.0614625" lon="121.5512028"></trkpt>
      <trkpt lat="25.0615724" lon="121.5522031"></trkpt>
      <trkpt lat="25.0614874" lon="121.5522547"></trkpt>
      <trkpt lat="25.0614346" lon="121.5522867"></trkpt>
      <trkpt lat="25.0604500" lon="121.5528840"></trkpt>
      <trkpt lat="25.0604433" lon="121.5528191"></trkpt>
      <trkpt lat="25.0602948" lon="121.5513722"></trkpt>
      <trkpt lat="25.0602859" lon="121.5512855"></trkpt>
      <trkpt lat="25.0602537" lon="121.5512601"></trkpt>
      <trkpt lat="25.0602342" lon="121.5512447"></trkpt>
      <trkpt lat="25.0601833" lon="121.5512108"></trkpt>
      <trkpt lat="25.0602203" lon="121.5511334"></trkpt>
      <trkpt lat="25.0602306" lon="121.5511082"></trkpt>
      <trkpt lat="25.0604316" lon="121.5506142"></trkpt>
      <trkpt lat="25.0604491" lon="121.5505711"></trkpt>
      <trkpt lat="25.0604666" lon="121.5505281"></trkpt>
      <trkpt lat="25.0607795" lon="121.5506853"></trkpt>
      <trkpt lat="25.0610557" lon="121.5508241"></trkpt>
      <trkpt lat="25.0610802" lon="121.5508358"></trkpt>
      <trkpt lat="25.0611182" lon="121.5508540"></trkpt>
      <trkpt lat="25.0611357" lon="121.5507924"></trkpt>
      <trkpt lat="25.0611531" lon="121.5507531"></trkpt>
      <trkpt lat="25.0611711" lon="121.5506985"></trkpt>
      <trkpt lat="25.0612008" lon="121.5506281"></trkpt>
      <trkpt lat="25.0612570" lon="121.5505300"></trkpt>
      <trkpt lat="25.0612742" lon="121.5504934"></trkpt>
      <trkpt lat="25.0612882" lon="121.5504661"></trkpt>
      <trkpt lat="25.0613235" lon="121.5504084"></trkpt>
      <trkpt lat="25.0605336" lon="121.5500210"></trkpt>
      <trkpt lat="25.0603519" lon="121.5499301"></trkpt>
      <trkpt lat="25.0601701" lon="121.5498392"></trkpt>
      <trkpt lat="25.0598931" lon="121.5497007"></trkpt>
      <trkpt lat="25.0597555" lon="121.5496319"></trkpt>
      <trkpt lat="25.0597801" lon="121.5495806"></trkpt>
      <trkpt lat="25.0599641" lon="121.5491276"></trkpt>
      <trkpt lat="25.0599823" lon="121.5490835"></trkpt>
      <trkpt lat="25.0601777" lon="121.5488152"></trkpt>
      <trkpt lat="25.0608271" lon="121.5479723"></trkpt>
      <trkpt lat="25.0609324" lon="121.5479017"></trkpt>
      <trkpt lat="25.0608489" lon="121.5478203"></trkpt>
      <trkpt lat="25.0607065" lon="121.5476815"></trkpt>
      <trkpt lat="25.0605119" lon="121.5474918"></trkpt>
      <trkpt lat="25.0603688" lon="121.5473499"></trkpt>
      <trkpt lat="25.0603419" lon="121.5473233"></trkpt>
      <trkpt lat="25.0601247" lon="121.5471080"></trkpt>
      <trkpt lat="25.0600965" lon="121.5470800"></trkpt>
      <trkpt lat="25.0601240" lon="121.5470447"></trkpt>
      <trkpt lat="25.0604042" lon="121.5466858"></trkpt>
      <trkpt lat="25.0604306" lon="121.5466519"></trkpt>
      <trkpt lat="25.0604326" lon="121.5465300"></trkpt>
      <trkpt lat="25.0604593" lon="121.5449335"></trkpt>
      <trkpt lat="25.0604600" lon="121.5448939"></trkpt>
      <trkpt lat="25.0604000" lon="121.5448925"></trkpt>
      <trkpt lat="25.0599652" lon="121.5448820"></trkpt>
      <trkpt lat="25.0594781" lon="121.5448719"></trkpt>
      <trkpt lat="25.0589774" lon="121.5448625"></trkpt>
      <trkpt lat="25.0589841" lon="121.5444187"></trkpt>
      <trkpt lat="25.0589852" lon="121.5443489"></trkpt>
      <trkpt lat="25.0589866" lon="121.5442556"></trkpt>
      <trkpt lat="25.0600375" lon="121.5442714"></trkpt>
      <trkpt lat="25.0600641" lon="121.5442718"></trkpt>
      <trkpt lat="25.0601055" lon="121.5442724"></trkpt>
      <trkpt lat="25.0601778" lon="121.5442739"></trkpt>
      <trkpt lat="25.0601799" lon="121.5441230"></trkpt>
      <trkpt lat="25.0601067" lon="121.5441218"></trkpt>
      <trkpt lat="25.0594290" lon="121.5441108"></trkpt>
      <trkpt lat="25.0586960" lon="121.5440988"></trkpt>
      <trkpt lat="25.0580211" lon="121.5440884"></trkpt>
      <trkpt lat="25.0579600" lon="121.5440872"></trkpt>
      <trkpt lat="25.0578549" lon="121.5440851"></trkpt>
      <trkpt lat="25.0576884" lon="121.5440785"></trkpt>
      <trkpt lat="25.0575026" lon="121.5440754"></trkpt>
      <trkpt lat="25.0575055" lon="121.5442189"></trkpt>
      <trkpt lat="25.0575079" lon="121.5442239"></trkpt>
      <trkpt lat="25.0575055" lon="121.5442189"></trkpt>
      <trkpt lat="25.0575026" lon="121.5440754"></trkpt>
      <trkpt lat="25.0563026" lon="121.5440566"></trkpt>
      <trkpt lat="25.0562667" lon="121.5440560"></trkpt>
      <trkpt lat="25.0562132" lon="121.5440552"></trkpt>
      <trkpt lat="25.0560300" lon="121.5440507"></trkpt>
      <trkpt lat="25.0559765" lon="121.5440507"></trkpt>
      <trkpt lat="25.0553387" lon="121.5440391"></trkpt>
      <trkpt lat="25.0546282" lon="121.5440272"></trkpt>
      <trkpt lat="25.0545731" lon="121.5440263"></trkpt>
      <trkpt lat="25.0544070" lon="121.5440234"></trkpt>
      <trkpt lat="25.0534627" lon="121.5440068"></trkpt>
      <trkpt lat="25.0533108" lon="121.5440041"></trkpt>
      <trkpt lat="25.0523879" lon="121.5439761"></trkpt>
      <trkpt lat="25.0521019" lon="121.5439674"></trkpt>
      <trkpt lat="25.0520788" lon="121.5439667"></trkpt>
      <trkpt lat="25.0520164" lon="121.5439648"></trkpt>
      <trkpt lat="25.0520148" lon="121.5441381"></trkpt>
      <trkpt lat="25.0520138" lon="121.5442331"></trkpt>
      <trkpt lat="25.0519875" lon="121.5442774"></trkpt>
      <trkpt lat="25.0519880" lon="121.5443159"></trkpt>
      <trkpt lat="25.0519240" lon="121.5443146"></trkpt>
      <trkpt lat="25.0518598" lon="121.5443133"></trkpt>
      <trkpt lat="25.0518346" lon="121.5443127"></trkpt>
      <trkpt lat="25.0517628" lon="121.5443112"></trkpt>
      <trkpt lat="25.0516702" lon="121.5443093"></trkpt>
      <trkpt lat="25.0516606" lon="121.5447333"></trkpt>
      <trkpt lat="25.0511884" lon="121.5447210"></trkpt>
      <trkpt lat="25.0507182" lon="121.5447088"></trkpt>
      <trkpt lat="25.0504900" lon="121.5447029"></trkpt>
      <trkpt lat="25.0501883" lon="121.5446951"></trkpt>
      <trkpt lat="25.0497264" lon="121.5446831"></trkpt>
      <trkpt lat="25.0492759" lon="121.5446714"></trkpt>
      <trkpt lat="25.0483306" lon="121.5446469"></trkpt>
      <trkpt lat="25.0482441" lon="121.5446447"></trkpt>
      <trkpt lat="25.0482498" lon="121.5442660"></trkpt>
      <trkpt lat="25.0482518" lon="121.5441649"></trkpt>
      <trkpt lat="25.0482545" lon="121.5440173"></trkpt>
      <trkpt lat="25.0482567" lon="121.5438797"></trkpt>
      <trkpt lat="25.0481305" lon="121.5438775"></trkpt>
      <trkpt lat="25.0477630" lon="121.5438694"></trkpt>
      <trkpt lat="25.0477163" lon="121.5438683"></trkpt>
      <trkpt lat="25.0476832" lon="121.5438676"></trkpt>
      <trkpt lat="25.0475633" lon="121.5438654"></trkpt>
      <trkpt lat="25.0474380" lon="121.5438611"></trkpt>
      <trkpt lat="25.0470794" lon="121.5438537"></trkpt>
      <trkpt lat="25.0468991" lon="121.5438469"></trkpt>
      <trkpt lat="25.0464469" lon="121.5438351"></trkpt>
      <trkpt lat="25.0455628" lon="121.5438099"></trkpt>
      <trkpt lat="25.0450231" lon="121.5437968"></trkpt>
      <trkpt lat="25.0449613" lon="121.5437953"></trkpt>
      <trkpt lat="25.0447395" lon="121.5437875"></trkpt>
      <trkpt lat="25.0447557" lon="121.5439352"></trkpt>
      <trkpt lat="25.0447678" lon="121.5440366"></trkpt>
      <trkpt lat="25.0448277" lon="121.5445389"></trkpt>
      <trkpt lat="25.0447452" lon="121.5445367"></trkpt>
      <trkpt lat="25.0445182" lon="121.5445309"></trkpt>
      <trkpt lat="25.0442621" lon="121.5445237"></trkpt>
      <trkpt lat="25.0436258" lon="121.5445067"></trkpt>
      <trkpt lat="25.0431536" lon="121.5444935"></trkpt>
      <trkpt lat="25.0426624" lon="121.5445145"></trkpt>
      <trkpt lat="25.0424818" lon="121.5445098"></trkpt>
      <trkpt lat="25.0417770" lon="121.5444550"></trkpt>
      <trkpt lat="25.0417850" lon="121.5439740"></trkpt>
      <trkpt lat="25.0416782" lon="121.5439715"></trkpt>
      <trkpt lat="25.0415533" lon="121.5439714"></trkpt>
      <trkpt lat="25.0414516" lon="121.5439669"></trkpt>
      <trkpt lat="25.0414298" lon="121.5439469"></trkpt>
      <trkpt lat="25.0413728" lon="121.5439464"></trkpt>
      <trkpt lat="25.0411348" lon="121.5439390"></trkpt>
      <trkpt lat="25.0408479" lon="121.5439288"></trkpt>
      <trkpt lat="25.0405518" lon="121.5439233"></trkpt>
      <trkpt lat="25.0398846" lon="121.5439022"></trkpt>
      <trkpt lat="25.0398225" lon="121.5439007"></trkpt>
      <trkpt lat="25.0397170" lon="121.5439003"></trkpt>
      <trkpt lat="25.0390399" lon="121.5438858"></trkpt>
      <trkpt lat="25.0387328" lon="121.5438795"></trkpt>
      <trkpt lat="25.0382462" lon="121.5438590"></trkpt>
      <trkpt lat="25.0382471" lon="121.5438133"></trkpt>
      <trkpt lat="25.0382481" lon="121.5437667"></trkpt>
      <trkpt lat="25.0382495" lon="121.5437378"></trkpt>
      <trkpt lat="25.0382534" lon="121.5436580"></trkpt>
      <trkpt lat="25.0382546" lon="121.5436336"></trkpt>
      <trkpt lat="25.0381580" lon="121.5436314"></trkpt>
      <trkpt lat="25.0380532" lon="121.5436290"></trkpt>
      <trkpt lat="25.0380224" lon="121.5436291"></trkpt>
      <trkpt lat="25.0379123" lon="121.5436257"></trkpt>
      <trkpt lat="25.0378768" lon="121.5436249"></trkpt>
      <trkpt lat="25.0377882" lon="121.5436229"></trkpt>
      <trkpt lat="25.0377168" lon="121.5436212"></trkpt>
      <trkpt lat="25.0377193" lon="121.5435218"></trkpt>
      <trkpt lat="25.0377195" lon="121.5435046"></trkpt>
      <trkpt lat="25.0377199" lon="121.5434632"></trkpt>
      <trkpt lat="25.0377333" lon="121.5420059"></trkpt>
      <trkpt lat="25.0377349" lon="121.5419369"></trkpt>
      <trkpt lat="25.0375768" lon="121.5412972"></trkpt>
      <trkpt lat="25.0375794" lon="121.5409983"></trkpt>
      <trkpt lat="25.0375842" lon="121.5408379"></trkpt>
      <trkpt lat="25.0375933" lon="121.5400935"></trkpt>
      <trkpt lat="25.0375941" lon="121.5399743"></trkpt>
      <trkpt lat="25.0376157" lon="121.5396843"></trkpt>
      <trkpt lat="25.0376327" lon="121.5385158"></trkpt>
      <trkpt lat="25.0376423" lon="121.5383602"></trkpt>
      <trkpt lat="25.0376714" lon="121.5383386"></trkpt>
      <trkpt lat="25.0375981" lon="121.5382962"></trkpt>
      <trkpt lat="25.0375562" lon="121.5382683"></trkpt>
      <trkpt lat="25.0375453" lon="121.5382232"></trkpt>
      <trkpt lat="25.0375541" lon="121.5381127"></trkpt>
      <trkpt lat="25.0376053" lon="121.5380848"></trkpt>
      <trkpt lat="25.0376539" lon="121.5380654"></trkpt>
      <trkpt lat="25.0377136" lon="121.5380545"></trkpt>
      <trkpt lat="25.0377782" lon="121.5380541"></trkpt>
      <trkpt lat="25.0378511" lon="121.5380544"></trkpt>
      <trkpt lat="25.0378624" lon="121.5379771"></trkpt>
      <trkpt lat="25.0378658" lon="121.5377793"></trkpt>
      <trkpt lat="25.0378663" lon="121.5376941"></trkpt>
      <trkpt lat="25.0378671" lon="121.5375427"></trkpt>
      <trkpt lat="25.0377131" lon="121.5374450"></trkpt>
      <trkpt lat="25.0376854" lon="121.5374214"></trkpt>
      <trkpt lat="25.0376509" lon="121.5373920"></trkpt>
      <trkpt lat="25.0376558" lon="121.5370479"></trkpt>
      <trkpt lat="25.0376570" lon="121.5369900"></trkpt>
      <trkpt lat="25.0376679" lon="121.5369288"></trkpt>
      <trkpt lat="25.0376952" lon="121.5356648"></trkpt>
      <trkpt lat="25.0377576" lon="121.5356665"></trkpt>
      <trkpt lat="25.0377762" lon="121.5345990"></trkpt>
      <trkpt lat="25.0377850" lon="121.5344468"></trkpt>
      <trkpt lat="25.0378305" lon="121.5342887"></trkpt>
      <trkpt lat="25.0378809" lon="121.5341049"></trkpt>
      <trkpt lat="25.0379747" lon="121.5338107"></trkpt>
      <trkpt lat="25.0379874" lon="121.5330131"></trkpt>
      <trkpt lat="25.0379996" lon="121.5329378"></trkpt>
      <trkpt lat="25.0380082" lon="121.5328864"></trkpt>
      <trkpt lat="25.0380145" lon="121.5328419"></trkpt>
      <trkpt lat="25.0380405" lon="121.5326843"></trkpt>
      <trkpt lat="25.0380587" lon="121.5325432"></trkpt>
      <trkpt lat="25.0380639" lon="121.5323139"></trkpt>
      <trkpt lat="25.0380186" lon="121.5323048"></trkpt>
      <trkpt lat="25.0375766" lon="121.5322150"></trkpt>
      <trkpt lat="25.0375907" lon="121.5320320"></trkpt>
      <trkpt lat="25.0376168" lon="121.5317629"></trkpt>
      <trkpt lat="25.0376472" lon="121.5312908"></trkpt>
      <trkpt lat="25.0376640" lon="121.5312319"></trkpt>
      <trkpt lat="25.0380356" lon="121.5312382"></trkpt>
      <trkpt lat="25.0380881" lon="121.5312391"></trkpt>
      <trkpt lat="25.0381284" lon="121.5294517"></trkpt>
      <trkpt lat="25.0381878" lon="121.5294599"></trkpt>
      <trkpt lat="25.0382317" lon="121.5294660"></trkpt>
      <trkpt lat="25.0382700" lon="121.5294715"></trkpt>
      <trkpt lat="25.0382928" lon="121.5294748"></trkpt>
      <trkpt lat="25.0383384" lon="121.5294813"></trkpt>
      <trkpt lat="25.0383791" lon="121.5294870"></trkpt>
      <trkpt lat="25.0383817" lon="121.5306416"></trkpt>
      <trkpt lat="25.0383465" lon="121.5316362"></trkpt>
      <trkpt lat="25.0386261" lon="121.5316355"></trkpt>
      <trkpt lat="25.0388534" lon="121.5316724"></trkpt>
      <trkpt lat="25.0390444" lon="121.5317176"></trkpt>
      <trkpt lat="25.0390929" lon="121.5317355"></trkpt>
      <trkpt lat="25.0393465" lon="121.5317206"></trkpt>
      <trkpt lat="25.0398107" lon="121.5315825"></trkpt>
      <trkpt lat="25.0398344" lon="121.5317076"></trkpt>
      <trkpt lat="25.0400087" lon="121.5316367"></trkpt>
      <trkpt lat="25.0401083" lon="121.5316012"></trkpt>
      <trkpt lat="25.0402190" lon="121.5315965"></trkpt>
      <trkpt lat="25.0402726" lon="121.5315949"></trkpt>
      <trkpt lat="25.0402901" lon="121.5315193"></trkpt>
      <trkpt lat="25.0403853" lon="121.5311082"></trkpt>
      <trkpt lat="25.0403934" lon="121.5310746"></trkpt>
      <trkpt lat="25.0406157" lon="121.5301470"></trkpt>
      <trkpt lat="25.0406327" lon="121.5300762"></trkpt>
      <trkpt lat="25.0406792" lon="121.5300903"></trkpt>
      <trkpt lat="25.0411544" lon="121.5302340"></trkpt>
      <trkpt lat="25.0413418" lon="121.5294841"></trkpt>
      <trkpt lat="25.0413513" lon="121.5294462"></trkpt>
      <trkpt lat="25.0417928" lon="121.5295789"></trkpt>
      <trkpt lat="25.0421812" lon="121.5296986"></trkpt>
      <trkpt lat="25.0426068" lon="121.5298140"></trkpt>
      <trkpt lat="25.0426154" lon="121.5297851"></trkpt>
      <trkpt lat="25.0426414" lon="121.5297028"></trkpt>
      <trkpt lat="25.0426555" lon="121.5296648"></trkpt>
      <trkpt lat="25.0426694" lon="121.5296218"></trkpt>
      <trkpt lat="25.0426771" lon="121.5295863"></trkpt>
      <trkpt lat="25.0427031" lon="121.5294725"></trkpt>
      <trkpt lat="25.0425845" lon="121.5293275"></trkpt>
      <trkpt lat="25.0428178" lon="121.5291398"></trkpt>
      <trkpt lat="25.0427841" lon="121.5290570"></trkpt>
      <trkpt lat="25.0429335" lon="121.5284994"></trkpt>
      <trkpt lat="25.0431303" lon="121.5277831"></trkpt>
      <trkpt lat="25.0432920" lon="121.5271219"></trkpt>
      <trkpt lat="25.0433813" lon="121.5267571"></trkpt>
      <trkpt lat="25.0434318" lon="121.5267706"></trkpt>
      <trkpt lat="25.0437643" lon="121.5268649"></trkpt>
      <trkpt lat="25.0437827" lon="121.5267927"></trkpt>
      <trkpt lat="25.0439020" lon="121.5268271"></trkpt>
      <trkpt lat="25.0440126" lon="121.5268600"></trkpt>
      <trkpt lat="25.0441261" lon="121.5268928"></trkpt>
      <trkpt lat="25.0440936" lon="121.5270210"></trkpt>
      <trkpt lat="25.0437865" lon="121.5280933"></trkpt>
      <trkpt lat="25.0437407" lon="121.5281504"></trkpt>
      <trkpt lat="25.0436066" lon="121.5286704"></trkpt>
      <trkpt lat="25.0435940" lon="121.5287193"></trkpt>
      <trkpt lat="25.0435425" lon="121.5290042"></trkpt>
      <trkpt lat="25.0435604" lon="121.5290773"></trkpt>
      <trkpt lat="25.0434921" lon="121.5292607"></trkpt>
      <trkpt lat="25.0435977" lon="121.5297025"></trkpt>
      <trkpt lat="25.0436113" lon="121.5297595"></trkpt>
      <trkpt lat="25.0436187" lon="121.5297872"></trkpt>
      <trkpt lat="25.0436437" lon="121.5298938"></trkpt>
      <trkpt lat="25.0437086" lon="121.5301650"></trkpt>
      <trkpt lat="25.0438275" lon="121.5302275"></trkpt>
      <trkpt lat="25.0445838" lon="121.5304605"></trkpt>
      <trkpt lat="25.0449579" lon="121.5305732"></trkpt>
      <trkpt lat="25.0456033" lon="121.5307677"></trkpt>
      <trkpt lat="25.0456505" lon="121.5307810"></trkpt>
      <trkpt lat="25.0458042" lon="121.5308241"></trkpt>
      <trkpt lat="25.0458238" lon="121.5308296"></trkpt>
      <trkpt lat="25.0459219" lon="121.5308292"></trkpt>
      <trkpt lat="25.0460268" lon="121.5308268"></trkpt>
      <trkpt lat="25.0461013" lon="121.5308345"></trkpt>
      <trkpt lat="25.0461496" lon="121.5306685"></trkpt>
      <trkpt lat="25.0461740" lon="121.5305835"></trkpt>
      <trkpt lat="25.0462316" lon="121.5303824"></trkpt>
      <trkpt lat="25.0464142" lon="121.5297299"></trkpt>
      <trkpt lat="25.0464655" lon="121.5295472"></trkpt>
      <trkpt lat="25.0464949" lon="121.5294577"></trkpt>
      <trkpt lat="25.0465490" lon="121.5292782"></trkpt>
      <trkpt lat="25.0466028" lon="121.5290995"></trkpt>
      <trkpt lat="25.0467947" lon="121.5284830"></trkpt>
      <trkpt lat="25.0470037" lon="121.5278110"></trkpt>
      <trkpt lat="25.0470240" lon="121.5277459"></trkpt>
      <trkpt lat="25.0472614" lon="121.5278148"></trkpt>
      <trkpt lat="25.0474203" lon="121.5278597"></trkpt>
      <trkpt lat="25.0474882" lon="121.5278795"></trkpt>
      <trkpt lat="25.0478647" lon="121.5279862"></trkpt>
      <trkpt lat="25.0482279" lon="121.5280977"></trkpt>
      <trkpt lat="25.0483342" lon="121.5281304"></trkpt>
      <trkpt lat="25.0484253" lon="121.5281586"></trkpt>
      <trkpt lat="25.0486242" lon="121.5282203"></trkpt>
      <trkpt lat="25.0486309" lon="121.5282234"></trkpt>
      <trkpt lat="25.0490092" lon="121.5283433"></trkpt>
      <trkpt lat="25.0494213" lon="121.5284428"></trkpt>
      <trkpt lat="25.0495087" lon="121.5283967"></trkpt>
      <trkpt lat="25.0498205" lon="121.5282545"></trkpt>
      <trkpt lat="25.0503556" lon="121.5280069"></trkpt>
      <trkpt lat="25.0503873" lon="121.5280883"></trkpt>
      <trkpt lat="25.0504391" lon="121.5282262"></trkpt>
      <trkpt lat="25.0504538" lon="121.5282655"></trkpt>
      <trkpt lat="25.0505185" lon="121.5283039"></trkpt>
      <trkpt lat="25.0508733" lon="121.5281786"></trkpt>
      <trkpt lat="25.0509109" lon="121.5282110"></trkpt>
      <trkpt lat="25.0510404" lon="121.5281632"></trkpt>
      <trkpt lat="25.0511788" lon="121.5281130"></trkpt>
      <trkpt lat="25.0514656" lon="121.5280321"></trkpt>
      <trkpt lat="25.0516905" lon="121.5279657"></trkpt>
      <trkpt lat="25.0519078" lon="121.5279060"></trkpt>
      <trkpt lat="25.0520124" lon="121.5278844"></trkpt>
      <trkpt lat="25.0521590" lon="121.5278565"></trkpt>
      <trkpt lat="25.0522565" lon="121.5278431"></trkpt>
      <trkpt lat="25.0524476" lon="121.5278147"></trkpt>
      <trkpt lat="25.0525484" lon="121.5277428"></trkpt>
      <trkpt lat="25.0529338" lon="121.5276949"></trkpt>
      <trkpt lat="25.0529496" lon="121.5276694"></trkpt>
      <trkpt lat="25.0529644" lon="121.5275910"></trkpt>
      <trkpt lat="25.0538126" lon="121.5275523"></trkpt>
      <trkpt lat="25.0538966" lon="121.5276319"></trkpt>
      <trkpt lat="25.0541577" lon="121.5276317"></trkpt>
      <trkpt lat="25.0542261" lon="121.5277034"></trkpt>
      <trkpt lat="25.0543914" lon="121.5276995"></trkpt>
      <trkpt lat="25.0549023" lon="121.5277119"></trkpt>
      <trkpt lat="25.0549042" lon="121.5276704"></trkpt>
      <trkpt lat="25.0549076" lon="121.5274237"></trkpt>
      <trkpt lat="25.0549077" lon="121.5273886"></trkpt>
      <trkpt lat="25.0549108" lon="121.5273227"></trkpt>
      <trkpt lat="25.0549102" lon="121.5272407"></trkpt>
      <trkpt lat="25.0549803" lon="121.5272466"></trkpt>
      <trkpt lat="25.0552650" lon="121.5272706"></trkpt>
      <trkpt lat="25.0553305" lon="121.5272719"></trkpt>
      <trkpt lat="25.0557030" lon="121.5272794"></trkpt>
      <trkpt lat="25.0559599" lon="121.5272846"></trkpt>
      <trkpt lat="25.0560514" lon="121.5272864"></trkpt>
      <trkpt lat="25.0565398" lon="121.5272963"></trkpt>
      <trkpt lat="25.0565987" lon="121.5272975"></trkpt>
      <trkpt lat="25.0570239" lon="121.5273061"></trkpt>
      <trkpt lat="25.0570639" lon="121.5273069"></trkpt>
      <trkpt lat="25.0572974" lon="121.5273118"></trkpt>
      <trkpt lat="25.0574743" lon="121.5273155"></trkpt>
      <trkpt lat="25.0577223" lon="121.5273194"></trkpt>
      <trkpt lat="25.0577807" lon="121.5272876"></trkpt>
      <trkpt lat="25.0578165" lon="121.5272487"></trkpt>
      <trkpt lat="25.0578440" lon="121.5271941"></trkpt>
      <trkpt lat="25.0579271" lon="121.5269009"></trkpt>
      <trkpt lat="25.0579571" lon="121.5268681"></trkpt>
      <trkpt lat="25.0580335" lon="121.5268421"></trkpt>
      <trkpt lat="25.0580394" lon="121.5264581"></trkpt>
      <trkpt lat="25.0581407" lon="121.5264577"></trkpt>
      <trkpt lat="25.0585572" lon="121.5264767"></trkpt>
      <trkpt lat="25.0585478" lon="121.5273053"></trkpt>
      <trkpt lat="25.0587273" lon="121.5273236"></trkpt>
      <trkpt lat="25.0589513" lon="121.5273367"></trkpt>
      <trkpt lat="25.0593590" lon="121.5273584"></trkpt>
      <trkpt lat="25.0607650" lon="121.5273699"></trkpt>
      <trkpt lat="25.0611304" lon="121.5273713"></trkpt>
      <trkpt lat="25.0611907" lon="121.5273716"></trkpt>
      <trkpt lat="25.0614340" lon="121.5273712"></trkpt>
      <trkpt lat="25.0624627" lon="121.5274166"></trkpt>
      <trkpt lat="25.0625706" lon="121.5274280"></trkpt>
      <trkpt lat="25.0625689" lon="121.5275480"></trkpt>
      <trkpt lat="25.0625558" lon="121.5278891"></trkpt>
      <trkpt lat="25.0625511" lon="121.5280441"></trkpt>
      <trkpt lat="25.0625235" lon="121.5289065"></trkpt>
      <trkpt lat="25.0625228" lon="121.5289948"></trkpt>
      <trkpt lat="25.0625188" lon="121.5290925"></trkpt>
      <trkpt lat="25.0625125" lon="121.5293173"></trkpt>
      <trkpt lat="25.0624986" lon="121.5294977"></trkpt>
      <trkpt lat="25.0624639" lon="121.5302109"></trkpt>
      <trkpt lat="25.0624758" lon="121.5303375"></trkpt>
      <trkpt lat="25.0623678" lon="121.5303373"></trkpt>
      <trkpt lat="25.0619700" lon="121.5302878"></trkpt>
      <trkpt lat="25.0612522" lon="121.5302737"></trkpt>
      <trkpt lat="25.0612082" lon="121.5302728"></trkpt>
      <trkpt lat="25.0611535" lon="121.5302717"></trkpt>
      <trkpt lat="25.0604238" lon="121.5302574"></trkpt>
      <trkpt lat="25.0603508" lon="121.5302574"></trkpt>
      <trkpt lat="25.0602121" lon="121.5302533"></trkpt>
      <trkpt lat="25.0599372" lon="121.5302479"></trkpt>
      <trkpt lat="25.0598035" lon="121.5302453"></trkpt>
      <trkpt lat="25.0593641" lon="121.5302366"></trkpt>
      <trkpt lat="25.0589875" lon="121.5302292"></trkpt>
      <trkpt lat="25.0589612" lon="121.5302287"></trkpt>
      <trkpt lat="25.0588817" lon="121.5302272"></trkpt>
      <trkpt lat="25.0585045" lon="121.5302198"></trkpt>
      <trkpt lat="25.0581032" lon="121.5302119"></trkpt>
      <trkpt lat="25.0579817" lon="121.5302095"></trkpt>
      <trkpt lat="25.0578533" lon="121.5302070"></trkpt>
      <trkpt lat="25.0574095" lon="121.5301983"></trkpt>
      <trkpt lat="25.0572808" lon="121.5301957"></trkpt>
      <trkpt lat="25.0571277" lon="121.5301927"></trkpt>
      <trkpt lat="25.0568018" lon="121.5301863"></trkpt>
      <trkpt lat="25.0564703" lon="121.5301798"></trkpt>
      <trkpt lat="25.0564373" lon="121.5301792"></trkpt>
      <trkpt lat="25.0561210" lon="121.5301730"></trkpt>
      <trkpt lat="25.0560474" lon="121.5301715"></trkpt>
      <trkpt lat="25.0559825" lon="121.5301702"></trkpt>
      <trkpt lat="25.0556674" lon="121.5301641"></trkpt>
      <trkpt lat="25.0552968" lon="121.5301568"></trkpt>
      <trkpt lat="25.0549402" lon="121.5301515"></trkpt>
      <trkpt lat="25.0548615" lon="121.5301483"></trkpt>
      <trkpt lat="25.0547432" lon="121.5301654"></trkpt>
      <trkpt lat="25.0543818" lon="121.5301389"></trkpt>
      <trkpt lat="25.0540440" lon="121.5301322"></trkpt>
      <trkpt lat="25.0536745" lon="121.5301250"></trkpt>
      <trkpt lat="25.0533581" lon="121.5301188"></trkpt>
      <trkpt lat="25.0532979" lon="121.5301176"></trkpt>
      <trkpt lat="25.0529583" lon="121.5301109"></trkpt>
      <trkpt lat="25.0526012" lon="121.5301039"></trkpt>
      <trkpt lat="25.0522379" lon="121.5300985"></trkpt>
      <trkpt lat="25.0522391" lon="121.5301699"></trkpt>
      <trkpt lat="25.0522309" lon="121.5301876"></trkpt>
      <trkpt lat="25.0522325" lon="121.5302219"></trkpt>
      <trkpt lat="25.0521496" lon="121.5302215"></trkpt>
      <trkpt lat="25.0520937" lon="121.5302212"></trkpt>
      <trkpt lat="25.0520653" lon="121.5302211"></trkpt>
      <trkpt lat="25.0519798" lon="121.5302207"></trkpt>
      <trkpt lat="25.0518951" lon="121.5302202"></trkpt>
      <trkpt lat="25.0518811" lon="121.5301703"></trkpt>
      <trkpt lat="25.0518808" lon="121.5300875"></trkpt>
      <trkpt lat="25.0514483" lon="121.5300777"></trkpt>
      <trkpt lat="25.0510309" lon="121.5300682"></trkpt>
      <trkpt lat="25.0505155" lon="121.5300565"></trkpt>
      <trkpt lat="25.0501051" lon="121.5300475"></trkpt>
      <trkpt lat="25.0497306" lon="121.5300386"></trkpt>
      <trkpt lat="25.0493714" lon="121.5300305"></trkpt>
      <trkpt lat="25.0490739" lon="121.5300237"></trkpt>
      <trkpt lat="25.0490239" lon="121.5300226"></trkpt>
      <trkpt lat="25.0486102" lon="121.5300129"></trkpt>
      <trkpt lat="25.0485116" lon="121.5300109"></trkpt>
      <trkpt lat="25.0483436" lon="121.5297572"></trkpt>
      <trkpt lat="25.0481698" lon="121.5294904"></trkpt>
      <trkpt lat="25.0480452" lon="121.5295948"></trkpt>
      <trkpt lat="25.0479251" lon="121.5296792"></trkpt>
      <trkpt lat="25.0476632" lon="121.5299455"></trkpt>
      <trkpt lat="25.0473428" lon="121.5302816"></trkpt>
      <trkpt lat="25.0469939" lon="121.5306958"></trkpt>
      <trkpt lat="25.0468760" lon="121.5308508"></trkpt>
      <trkpt lat="25.0463449" lon="121.5307180"></trkpt>
      <trkpt lat="25.0461496" lon="121.5306685"></trkpt>
      <trkpt lat="25.0460768" lon="121.5306452"></trkpt>
      <trkpt lat="25.0459788" lon="121.5306115"></trkpt>
      <trkpt lat="25.0458914" lon="121.5305888"></trkpt>
      <trkpt lat="25.0458727" lon="121.5305827"></trkpt>
      <trkpt lat="25.0457047" lon="121.5305275"></trkpt>
      <trkpt lat="25.0456539" lon="121.5304525"></trkpt>
      <trkpt lat="25.0452764" lon="121.5303347"></trkpt>
      <trkpt lat="25.0441763" lon="121.5300222"></trkpt>
      <trkpt lat="25.0438138" lon="121.5299348"></trkpt>
      <trkpt lat="25.0437867" lon="121.5299283"></trkpt>
      <trkpt lat="25.0437635" lon="121.5299227"></trkpt>
      <trkpt lat="25.0436437" lon="121.5298938"></trkpt>
      <trkpt lat="25.0437086" lon="121.5301650"></trkpt>
      <trkpt lat="25.0437164" lon="121.5302166"></trkpt>
      <trkpt lat="25.0437416" lon="121.5303029"></trkpt>
      <trkpt lat="25.0437550" lon="121.5303587"></trkpt>
      <trkpt lat="25.0438213" lon="121.5306358"></trkpt>
      <trkpt lat="25.0438393" lon="121.5307108"></trkpt>
      <trkpt lat="25.0437623" lon="121.5307367"></trkpt>
      <trkpt lat="25.0433283" lon="121.5308720"></trkpt>
      <trkpt lat="25.0430502" lon="121.5307906"></trkpt>
      <trkpt lat="25.0429529" lon="121.5307596"></trkpt>
      <trkpt lat="25.0428366" lon="121.5307233"></trkpt>
      <trkpt lat="25.0427531" lon="121.5306957"></trkpt>
      <trkpt lat="25.0425139" lon="121.5306303"></trkpt>
      <trkpt lat="25.0423956" lon="121.5305980"></trkpt>
      <trkpt lat="25.0419901" lon="121.5304771"></trkpt>
      <trkpt lat="25.0416147" lon="121.5303722"></trkpt>
      <trkpt lat="25.0415967" lon="121.5303672"></trkpt>
      <trkpt lat="25.0415247" lon="121.5303455"></trkpt>
      <trkpt lat="25.0411544" lon="121.5302340"></trkpt>
      <trkpt lat="25.0406792" lon="121.5300903"></trkpt>
      <trkpt lat="25.0406327" lon="121.5300762"></trkpt>
      <trkpt lat="25.0405446" lon="121.5300409"></trkpt>
      <trkpt lat="25.0405291" lon="121.5300362"></trkpt>
      <trkpt lat="25.0401106" lon="121.5299104"></trkpt>
      <trkpt lat="25.0396658" lon="121.5297754"></trkpt>
      <trkpt lat="25.0395343" lon="121.5303198"></trkpt>
      <trkpt lat="25.0391848" lon="121.5304263"></trkpt>
      <trkpt lat="25.0389961" lon="121.5296991"></trkpt>
      <trkpt lat="25.0389716" lon="121.5295071"></trkpt>
      <trkpt lat="25.0389774" lon="121.5294410"></trkpt>
      <trkpt lat="25.0387876" lon="121.5294501"></trkpt>
      <trkpt lat="25.0386229" lon="121.5294466"></trkpt>
      <trkpt lat="25.0384070" lon="121.5294244"></trkpt>
      <trkpt lat="25.0383387" lon="121.5294144"></trkpt>
      <trkpt lat="25.0382713" lon="121.5294009"></trkpt>
      <trkpt lat="25.0382328" lon="121.5293932"></trkpt>
      <trkpt lat="25.0381894" lon="121.5293840"></trkpt>
      <trkpt lat="25.0381322" lon="121.5293719"></trkpt>
      <trkpt lat="25.0380656" lon="121.5293575"></trkpt>
      <trkpt lat="25.0376810" lon="121.5292168"></trkpt>
      <trkpt lat="25.0373754" lon="121.5290905"></trkpt>
      <trkpt lat="25.0371845" lon="121.5290041"></trkpt>
      <trkpt lat="25.0373771" lon="121.5281956"></trkpt>
      <trkpt lat="25.0373967" lon="121.5281133"></trkpt>
      <trkpt lat="25.0376051" lon="121.5281760"></trkpt>
      <trkpt lat="25.0378136" lon="121.5282387"></trkpt>
      <trkpt lat="25.0380575" lon="121.5283088"></trkpt>
      <trkpt lat="25.0380581" lon="121.5281956"></trkpt>
      <trkpt lat="25.0380585" lon="121.5281130"></trkpt>
      <trkpt lat="25.0378565" lon="121.5280543"></trkpt>
      <trkpt lat="25.0378297" lon="121.5280465"></trkpt>
      <trkpt lat="25.0377993" lon="121.5280377"></trkpt>
      <trkpt lat="25.0372423" lon="121.5278757"></trkpt>
      <trkpt lat="25.0372158" lon="121.5278680"></trkpt>
      <trkpt lat="25.0371897" lon="121.5278604"></trkpt>
      <trkpt lat="25.0368940" lon="121.5277745"></trkpt>
      <trkpt lat="25.0368768" lon="121.5277695"></trkpt>
      <trkpt lat="25.0370279" lon="121.5271277"></trkpt>
      <trkpt lat="25.0370982" lon="121.5268331"></trkpt>
      <trkpt lat="25.0374388" lon="121.5269378"></trkpt>
      <trkpt lat="25.0370982" lon="121.5268331"></trkpt>
      <trkpt lat="25.0372220" lon="121.5263134"></trkpt>
      <trkpt lat="25.0373181" lon="121.5259088"></trkpt>
      <trkpt lat="25.0374211" lon="121.5254950"></trkpt>
      <trkpt lat="25.0375383" lon="121.5249783"></trkpt>
      <trkpt lat="25.0378846" lon="121.5250789"></trkpt>
      <trkpt lat="25.0381250" lon="121.5251512"></trkpt>
      <trkpt lat="25.0382070" lon="121.5251740"></trkpt>
      <trkpt lat="25.0382625" lon="121.5251895"></trkpt>
      <trkpt lat="25.0383004" lon="121.5252001"></trkpt>
      <trkpt lat="25.0383327" lon="121.5252094"></trkpt>
      <trkpt lat="25.0384177" lon="121.5252338"></trkpt>
      <trkpt lat="25.0384725" lon="121.5252504"></trkpt>
      <trkpt lat="25.0387510" lon="121.5253306"></trkpt>
      <trkpt lat="25.0388574" lon="121.5253615"></trkpt>
      <trkpt lat="25.0390235" lon="121.5254063"></trkpt>
      <trkpt lat="25.0390376" lon="121.5253479"></trkpt>
      <trkpt lat="25.0391915" lon="121.5247103"></trkpt>
      <trkpt lat="25.0392273" lon="121.5245660"></trkpt>
      <trkpt lat="25.0394429" lon="121.5236754"></trkpt>
      <trkpt lat="25.0395331" lon="121.5233131"></trkpt>
      <trkpt lat="25.0395448" lon="121.5232589"></trkpt>
      <trkpt lat="25.0396054" lon="121.5232727"></trkpt>
      <trkpt lat="25.0397711" lon="121.5233444"></trkpt>
      <trkpt lat="25.0400908" lon="121.5233244"></trkpt>
      <trkpt lat="25.0400517" lon="121.5237730"></trkpt>
      <trkpt lat="25.0400363" lon="121.5238481"></trkpt>
      <trkpt lat="25.0400517" lon="121.5237730"></trkpt>
      <trkpt lat="25.0400908" lon="121.5233244"></trkpt>
      <trkpt lat="25.0402372" lon="121.5233113"></trkpt>
      <trkpt lat="25.0406211" lon="121.5231278"></trkpt>
      <trkpt lat="25.0407551" lon="121.5233413"></trkpt>
      <trkpt lat="25.0408658" lon="121.5229075"></trkpt>
      <trkpt lat="25.0409805" lon="121.5223981"></trkpt>
      <trkpt lat="25.0410396" lon="121.5224142"></trkpt>
      <trkpt lat="25.0410700" lon="121.5223905"></trkpt>
      <trkpt lat="25.0410985" lon="121.5222771"></trkpt>
      <trkpt lat="25.0416600" lon="121.5224127"></trkpt>
      <trkpt lat="25.0417934" lon="121.5224533"></trkpt>
      <trkpt lat="25.0418937" lon="121.5224852"></trkpt>
      <trkpt lat="25.0419207" lon="121.5224941"></trkpt>
      <trkpt lat="25.0421120" lon="121.5225568"></trkpt>
      <trkpt lat="25.0423150" lon="121.5226171"></trkpt>
      <trkpt lat="25.0423327" lon="121.5225365"></trkpt>
      <trkpt lat="25.0411196" lon="121.5221965"></trkpt>
      <trkpt lat="25.0410895" lon="121.5221625"></trkpt>
      <trkpt lat="25.0410342" lon="121.5221496"></trkpt>
      <trkpt lat="25.0410584" lon="121.5220764"></trkpt>
      <trkpt lat="25.0410721" lon="121.5220197"></trkpt>
      <trkpt lat="25.0412773" lon="121.5211699"></trkpt>
      <trkpt lat="25.0414251" lon="121.5205259"></trkpt>
      <trkpt lat="25.0414488" lon="121.5204224"></trkpt>
      <trkpt lat="25.0414885" lon="121.5202721"></trkpt>
      <trkpt lat="25.0414968" lon="121.5202366"></trkpt>
      <trkpt lat="25.0415923" lon="121.5198283"></trkpt>
      <trkpt lat="25.0416651" lon="121.5195297"></trkpt>
      <trkpt lat="25.0417298" lon="121.5192646"></trkpt>
      <trkpt lat="25.0417950" lon="121.5189804"></trkpt>
      <trkpt lat="25.0418526" lon="121.5187463"></trkpt>
      <trkpt lat="25.0418822" lon="121.5186258"></trkpt>
      <trkpt lat="25.0419087" lon="121.5185048"></trkpt>
      <trkpt lat="25.0417554" lon="121.5184603"></trkpt>
      <trkpt lat="25.0417467" lon="121.5184577"></trkpt>
      <trkpt lat="25.0417729" lon="121.5183405"></trkpt>
      <trkpt lat="25.0417891" lon="121.5182677"></trkpt>
      <trkpt lat="25.0416044" lon="121.5182133"></trkpt>
      <trkpt lat="25.0411040" lon="121.5180681"></trkpt>
      <trkpt lat="25.0408962" lon="121.5180078"></trkpt>
      <trkpt lat="25.0408770" lon="121.5180023"></trkpt>
      <trkpt lat="25.0408717" lon="121.5180005"></trkpt>
      <trkpt lat="25.0408404" lon="121.5179898"></trkpt>
      <trkpt lat="25.0407744" lon="121.5179704"></trkpt>
      <trkpt lat="25.0409116" lon="121.5173947"></trkpt>
      <trkpt lat="25.0412135" lon="121.5161705"></trkpt>
      <trkpt lat="25.0412951" lon="121.5160828"></trkpt>
      <trkpt lat="25.0414303" lon="121.5161237"></trkpt>
      <trkpt lat="25.0414570" lon="121.5160323"></trkpt>
      <trkpt lat="25.0426447" lon="121.5163644"></trkpt>
      <trkpt lat="25.0431515" lon="121.5165292"></trkpt>
      <trkpt lat="25.0432206" lon="121.5164708"></trkpt>
      <trkpt lat="25.0432725" lon="121.5164204"></trkpt>
      <trkpt lat="25.0432897" lon="121.5161978"></trkpt>
      <trkpt lat="25.0432926" lon="121.5161611"></trkpt>
      <trkpt lat="25.0432931" lon="121.5160944"></trkpt>
      <trkpt lat="25.0432952" lon="121.5160436"></trkpt>
      <trkpt lat="25.0433429" lon="121.5150164"></trkpt>
      <trkpt lat="25.0433316" lon="121.5145398"></trkpt>
      <trkpt lat="25.0433305" lon="121.5144953"></trkpt>
      <trkpt lat="25.0433221" lon="121.5141454"></trkpt>
      <trkpt lat="25.0432930" lon="121.5141320"></trkpt>
      <trkpt lat="25.0432676" lon="121.5141007"></trkpt>
      <trkpt lat="25.0423248" lon="121.5140752"></trkpt>
      <trkpt lat="25.0423217" lon="121.5133033"></trkpt>
      <trkpt lat="25.0423214" lon="121.5132396"></trkpt>
      <trkpt lat="25.0423213" lon="121.5132195"></trkpt>
      <trkpt lat="25.0423192" lon="121.5131674"></trkpt>
      <trkpt lat="25.0423161" lon="121.5130897"></trkpt>
      <trkpt lat="25.0422845" lon="121.5123215"></trkpt>
      <trkpt lat="25.0422554" lon="121.5116218"></trkpt>
      <trkpt lat="25.0422524" lon="121.5115094"></trkpt>
      <trkpt lat="25.0422527" lon="121.5114924"></trkpt>
      <trkpt lat="25.0422526" lon="121.5114893"></trkpt>
      <trkpt lat="25.0422507" lon="121.5114434"></trkpt>
      <trkpt lat="25.0422275" lon="121.5108841"></trkpt>
      <trkpt lat="25.0422265" lon="121.5108537"></trkpt>
      <trkpt lat="25.0422218" lon="121.5107316"></trkpt>
      <trkpt lat="25.0422147" lon="121.5105481"></trkpt>
      <trkpt lat="25.0422131" lon="121.5105148"></trkpt>
      <trkpt lat="25.0422061" lon="121.5103715"></trkpt>
      <trkpt lat="25.0421877" lon="121.5098338"></trkpt>
      <trkpt lat="25.0421800" lon="121.5096086"></trkpt>
      <trkpt lat="25.0421649" lon="121.5091657"></trkpt>
      <trkpt lat="25.0421156" lon="121.5089728"></trkpt>
      <trkpt lat="25.0421049" lon="121.5087628"></trkpt>
      <trkpt lat="25.0421311" lon="121.5086616"></trkpt>
      <trkpt lat="25.0421415" lon="121.5086215"></trkpt>
      <trkpt lat="25.0421791" lon="121.5084866"></trkpt>
      <trkpt lat="25.0422985" lon="121.5085206"></trkpt>
      <trkpt lat="25.0430073" lon="121.5087246"></trkpt>
      <trkpt lat="25.0438180" lon="121.5089579"></trkpt>
      <trkpt lat="25.0441191" lon="121.5090445"></trkpt>
      <trkpt lat="25.0442089" lon="121.5090703"></trkpt>
      <trkpt lat="25.0443203" lon="121.5091024"></trkpt>
      <trkpt lat="25.0447131" lon="121.5092155"></trkpt>
      <trkpt lat="25.0449429" lon="121.5092816"></trkpt>
      <trkpt lat="25.0450740" lon="121.5093193"></trkpt>
      <trkpt lat="25.0451564" lon="121.5093430"></trkpt>
      <trkpt lat="25.0451560" lon="121.5094280"></trkpt>
      <trkpt lat="25.0452348" lon="121.5094599"></trkpt>
      <trkpt lat="25.0452230" lon="121.5095065"></trkpt>
      <trkpt lat="25.0454936" lon="121.5095867"></trkpt>
      <trkpt lat="25.0455319" lon="121.5095981"></trkpt>
      <trkpt lat="25.0455898" lon="121.5096152"></trkpt>
      <trkpt lat="25.0456674" lon="121.5096383"></trkpt>
      <trkpt lat="25.0458753" lon="121.5096999"></trkpt>
      <trkpt lat="25.0459314" lon="121.5097214"></trkpt>
      <trkpt lat="25.0460047" lon="121.5097437"></trkpt>
      <trkpt lat="25.0460545" lon="121.5097588"></trkpt>
      <trkpt lat="25.0462618" lon="121.5098181"></trkpt>
      <trkpt lat="25.0462704" lon="121.5097847"></trkpt>
      <trkpt lat="25.0462749" lon="121.5097688"></trkpt>
      <trkpt lat="25.0462799" lon="121.5097514"></trkpt>
      <trkpt lat="25.0464924" lon="121.5098162"></trkpt>
      <trkpt lat="25.0465127" lon="121.5096796"></trkpt>
      <trkpt lat="25.0466739" lon="121.5097608"></trkpt>
      <trkpt lat="25.0469032" lon="121.5098563"></trkpt>
      <trkpt lat="25.0469757" lon="121.5098844"></trkpt>
      <trkpt lat="25.0470238" lon="121.5099029"></trkpt>
      <trkpt lat="25.0470850" lon="121.5099197"></trkpt>
      <trkpt lat="25.0474050" lon="121.5099464"></trkpt>
      <trkpt lat="25.0478370" lon="121.5100552"></trkpt>
      <trkpt lat="25.0480761" lon="121.5099848"></trkpt>
      <trkpt lat="25.0482293" lon="121.5100062"></trkpt>
      <trkpt lat="25.0483958" lon="121.5100584"></trkpt>
      <trkpt lat="25.0484956" lon="121.5100855"></trkpt>
      <trkpt lat="25.0488721" lon="121.5101837"></trkpt>
      <trkpt lat="25.0491982" lon="121.5102682"></trkpt>
      <trkpt lat="25.0494087" lon="121.5103236"></trkpt>
      <trkpt lat="25.0499592" lon="121.5104695"></trkpt>
      <trkpt lat="25.0500666" lon="121.5104996"></trkpt>
      <trkpt lat="25.0501346" lon="121.5105157"></trkpt>
      <trkpt lat="25.0502841" lon="121.5105380"></trkpt>
      <trkpt lat="25.0503064" lon="121.5103987"></trkpt>
      <trkpt lat="25.0503404" lon="121.5101757"></trkpt>
      <trkpt lat="25.0503549" lon="121.5100436"></trkpt>
      <trkpt lat="25.0503962" lon="121.5097761"></trkpt>
      <trkpt lat="25.0504230" lon="121.5097803"></trkpt>
      <trkpt lat="25.0506777" lon="121.5098205"></trkpt>
      <trkpt lat="25.0507420" lon="121.5098287"></trkpt>
      <trkpt lat="25.0509558" lon="121.5098638"></trkpt>
      <trkpt lat="25.0514189" lon="121.5099398"></trkpt>
      <trkpt lat="25.0520192" lon="121.5100422"></trkpt>
      <trkpt lat="25.0520298" lon="121.5103595"></trkpt>
      <trkpt lat="25.0520359" lon="121.5104744"></trkpt>
      <trkpt lat="25.0520901" lon="121.5104652"></trkpt>
      <trkpt lat="25.0524808" lon="121.5104172"></trkpt>
      <trkpt lat="25.0525290" lon="121.5104131"></trkpt>
      <trkpt lat="25.0525596" lon="121.5104101"></trkpt>
      <trkpt lat="25.0528669" lon="121.5103782"></trkpt>
      <trkpt lat="25.0531681" lon="121.5103416"></trkpt>
      <trkpt lat="25.0532547" lon="121.5103300"></trkpt>
      <trkpt lat="25.0533493" lon="121.5103168"></trkpt>
      <trkpt lat="25.0536532" lon="121.5102755"></trkpt>
      <trkpt lat="25.0537044" lon="121.5102663"></trkpt>
      <trkpt lat="25.0537659" lon="121.5102574"></trkpt>
      <trkpt lat="25.0538464" lon="121.5101936"></trkpt>
      <trkpt lat="25.0539472" lon="121.5101725"></trkpt>
      <trkpt lat="25.0541634" lon="121.5101490"></trkpt>
      <trkpt lat="25.0543894" lon="121.5101329"></trkpt>
      <trkpt lat="25.0545818" lon="121.5101047"></trkpt>
      <trkpt lat="25.0550338" lon="121.5100768"></trkpt>
      <trkpt lat="25.0554707" lon="121.5100283"></trkpt>
      <trkpt lat="25.0556468" lon="121.5099975"></trkpt>
      <trkpt lat="25.0568335" lon="121.5098474"></trkpt>
      <trkpt lat="25.0569048" lon="121.5098384"></trkpt>
      <trkpt lat="25.0569721" lon="121.5098300"></trkpt>
      <trkpt lat="25.0571178" lon="121.5098119"></trkpt>
      <trkpt lat="25.0582077" lon="121.5096919"></trkpt>
      <trkpt lat="25.0582649" lon="121.5096499"></trkpt>
      <trkpt lat="25.0582675" lon="121.5096495"></trkpt>
      <trkpt lat="25.0589781" lon="121.5095321"></trkpt>
      <trkpt lat="25.0595415" lon="121.5094323"></trkpt>
      <trkpt lat="25.0604831" lon="121.5093232"></trkpt>
      <trkpt lat="25.0605260" lon="121.5093182"></trkpt>
      <trkpt lat="25.0606083" lon="121.5093143"></trkpt>
      <trkpt lat="25.0610004" lon="121.5092958"></trkpt>
      <trkpt lat="25.0616695" lon="121.5092432"></trkpt>
      <trkpt lat="25.0617000" lon="121.5092422"></trkpt>
      <trkpt lat="25.0620711" lon="121.5092331"></trkpt>
      <trkpt lat="25.0620917" lon="121.5097575"></trkpt>
    </trkseg>
  </trk>
</gpx>
