<?xml version="1.0" encoding="UTF-8"?>
<gpx version="1.1" creator="shape-route-poc" xmlns="http://www.topografix.com/GPX/1/1">
  <metadata>
    <name>LIT (stroke)</name>
    <desc>LIT · 40.5 km · bike · shape distance 0.164 · 201 repeated segments</desc>
    <time>2026-09-11T09:50:06Z</time>
  </metadata>
  <trk>
    <name>LIT (stroke)</name>
    <type>cycling</type>
    <trkseg>
      <trkpt lat="25.0474644" lon="121.5134404"></trkpt>
      <trkpt lat="25.0474669" lon="121.5132904"></trkpt>
      <trkpt lat="25.0473215" lon="121.5132751"></trkpt>
      <trkpt lat="25.0471860" lon="121.5132706"></trkpt>
      <trkpt lat="25.0470286" lon="121.5132759"></trkpt>
      <trkpt lat="25.0466098" lon="121.5132600"></trkpt>
      <trkpt lat="25.0464720" lon="121.5132575"></trkpt>
      <trkpt lat="25.0460608" lon="121.5132500"></trkpt>
      <trkpt lat="25.0459863" lon="121.5132486"></trkpt>
      <trkpt lat="25.0459174" lon="121.5132481"></trkpt>
      <trkpt lat="25.0456679" lon="121.5132465"></trkpt>
      <trkpt lat="25.0456114" lon="121.5132461"></trkpt>
      <trkpt lat="25.0454986" lon="121.5132454"></trkpt>
      <trkpt lat="25.0452333" lon="121.5132436"></trkpt>
      <trkpt lat="25.0451709" lon="121.5132432"></trkpt>
      <trkpt lat="25.0450863" lon="121.5132422"></trkpt>
      <trkpt lat="25.0447786" lon="121.5132382"></trkpt>
      <trkpt lat="25.0445291" lon="121.5132349"></trkpt>
      <trkpt lat="25.0444188" lon="121.5132335"></trkpt>
      <trkpt lat="25.0441247" lon="121.5132298"></trkpt>
      <trkpt lat="25.0440636" lon="121.5132290"></trkpt>
      <trkpt lat="25.0440153" lon="121.5132284"></trkpt>
      <trkpt lat="25.0435077" lon="121.5132219"></trkpt>
      <trkpt lat="25.0434122" lon="121.5132206"></trkpt>
      <trkpt lat="25.0434059" lon="121.5132207"></trkpt>
      <trkpt lat="25.0434034" lon="121.5132207"></trkpt>
      <trkpt lat="25.0433246" lon="121.5132214"></trkpt>
      <trkpt lat="25.0428004" lon="121.5132265"></trkpt>
      <trkpt lat="25.0424965" lon="121.5132232"></trkpt>
      <trkpt lat="25.0423720" lon="121.5132202"></trkpt>
      <trkpt lat="25.0423213" lon="121.5132195"></trkpt>
      <trkpt lat="25.0423067" lon="121.5132171"></trkpt>
      <trkpt lat="25.0422867" lon="121.5132138"></trkpt>
      <trkpt lat="25.0422170" lon="121.5132024"></trkpt>
      <trkpt lat="25.0420160" lon="121.5131718"></trkpt>
      <trkpt lat="25.0418079" lon="121.5131364"></trkpt>
      <trkpt lat="25.0414560" lon="121.5130968"></trkpt>
      <trkpt lat="25.0411481" lon="121.5130614"></trkpt>
      <trkpt lat="25.0410453" lon="121.5130496"></trkpt>
      <trkpt lat="25.0410286" lon="121.5131954"></trkpt>
      <trkpt lat="25.0409477" lon="121.5139003"></trkpt>
      <trkpt lat="25.0409401" lon="121.5139639"></trkpt>
      <trkpt lat="25.0408359" lon="121.5139503"></trkpt>
      <trkpt lat="25.0404569" lon="121.5139177"></trkpt>
      <trkpt lat="25.0400242" lon="121.5138470"></trkpt>
      <trkpt lat="25.0399700" lon="121.5138400"></trkpt>
      <trkpt lat="25.0398353" lon="121.5138366"></trkpt>
      <trkpt lat="25.0396481" lon="121.5138408"></trkpt>
      <trkpt lat="25.0396041" lon="121.5138362"></trkpt>
      <trkpt lat="25.0388057" lon="121.5137521"></trkpt>
      <trkpt lat="25.0387113" lon="121.5137422"></trkpt>
      <trkpt lat="25.0387725" lon="121.5129759"></trkpt>
      <trkpt lat="25.0387777" lon="121.5129231"></trkpt>
      <trkpt lat="25.0387859" lon="121.5128354"></trkpt>
      <trkpt lat="25.0387354" lon="121.5128280"></trkpt>
      <trkpt lat="25.0386666" lon="121.5128219"></trkpt>
      <trkpt lat="25.0381015" lon="121.5127565"></trkpt>
      <trkpt lat="25.0377195" lon="121.5127158"></trkpt>
      <trkpt lat="25.0376084" lon="121.5126996"></trkpt>
      <trkpt lat="25.0371570" lon="121.5126476"></trkpt>
      <trkpt lat="25.0369235" lon="121.5126207"></trkpt>
      <trkpt lat="25.0368086" lon="121.5126074"></trkpt>
      <trkpt lat="25.0364400" lon="121.5125649"></trkpt>
      <trkpt lat="25.0362296" lon="121.5125407"></trkpt>
      <trkpt lat="25.0355923" lon="121.5125033"></trkpt>
      <trkpt lat="25.0355758" lon="121.5126347"></trkpt>
      <trkpt lat="25.0355066" lon="121.5126318"></trkpt>
      <trkpt lat="25.0353519" lon="121.5126233"></trkpt>
      <trkpt lat="25.0352929" lon="121.5126343"></trkpt>
      <trkpt lat="25.0351974" lon="121.5126460"></trkpt>
      <trkpt lat="25.0350403" lon="121.5126666"></trkpt>
      <trkpt lat="25.0349591" lon="121.5127066"></trkpt>
      <trkpt lat="25.0349413" lon="121.5126922"></trkpt>
      <trkpt lat="25.0345056" lon="121.5129744"></trkpt>
      <trkpt lat="25.0344846" lon="121.5129861"></trkpt>
      <trkpt lat="25.0344661" lon="121.5129621"></trkpt>
      <trkpt lat="25.0344494" lon="121.5129174"></trkpt>
      <trkpt lat="25.0343777" lon="121.5128116"></trkpt>
      <trkpt lat="25.0342845" lon="121.5128674"></trkpt>
      <trkpt lat="25.0338332" lon="121.5131373"></trkpt>
      <trkpt lat="25.0338111" lon="121.5130718"></trkpt>
      <trkpt lat="25.0326230" lon="121.5137462"></trkpt>
      <trkpt lat="25.0326037" lon="121.5136829"></trkpt>
      <trkpt lat="25.0325375" lon="121.5134661"></trkpt>
      <trkpt lat="25.0322050" lon="121.5135647"></trkpt>
      <trkpt lat="25.0321053" lon="121.5135674"></trkpt>
      <trkpt lat="25.0320130" lon="121.5134923"></trkpt>
      <trkpt lat="25.0318273" lon="121.5135483"></trkpt>
      <trkpt lat="25.0317980" lon="121.5135571"></trkpt>
      <trkpt lat="25.0317089" lon="121.5136463"></trkpt>
      <trkpt lat="25.0316224" lon="121.5136713"></trkpt>
      <trkpt lat="25.0314051" lon="121.5137180"></trkpt>
      <trkpt lat="25.0310723" lon="121.5138040"></trkpt>
      <trkpt lat="25.0308400" lon="121.5138756"></trkpt>
      <trkpt lat="25.0306265" lon="121.5139289"></trkpt>
      <trkpt lat="25.0304583" lon="121.5139834"></trkpt>
      <trkpt lat="25.0304004" lon="121.5140071"></trkpt>
      <trkpt lat="25.0303788" lon="121.5140126"></trkpt>
      <trkpt lat="25.0301074" lon="121.5140832"></trkpt>
      <trkpt lat="25.0296169" lon="121.5142041"></trkpt>
      <trkpt lat="25.0295566" lon="121.5142199"></trkpt>
      <trkpt lat="25.0294742" lon="121.5142415"></trkpt>
      <trkpt lat="25.0293454" lon="121.5142733"></trkpt>
      <trkpt lat="25.0292029" lon="121.5143097"></trkpt>
      <trkpt lat="25.0290692" lon="121.5143411"></trkpt>
      <trkpt lat="25.0288363" lon="121.5144018"></trkpt>
      <trkpt lat="25.0287922" lon="121.5144102"></trkpt>
      <trkpt lat="25.0286532" lon="121.5144427"></trkpt>
      <trkpt lat="25.0284428" lon="121.5144933"></trkpt>
      <trkpt lat="25.0283051" lon="121.5145264"></trkpt>
      <trkpt lat="25.0282170" lon="121.5145524"></trkpt>
      <trkpt lat="25.0278914" lon="121.5146406"></trkpt>
      <trkpt lat="25.0277840" lon="121.5146516"></trkpt>
      <trkpt lat="25.0277429" lon="121.5146408"></trkpt>
      <trkpt lat="25.0276447" lon="121.5146202"></trkpt>
      <trkpt lat="25.0275394" lon="121.5146052"></trkpt>
      <trkpt lat="25.0274711" lon="121.5145856"></trkpt>
      <trkpt lat="25.0273917" lon="121.5145542"></trkpt>
      <trkpt lat="25.0273463" lon="121.5145355"></trkpt>
      <trkpt lat="25.0269481" lon="121.5142962"></trkpt>
      <trkpt lat="25.0267505" lon="121.5141959"></trkpt>
      <trkpt lat="25.0266386" lon="121.5141446"></trkpt>
      <trkpt lat="25.0265739" lon="121.5141197"></trkpt>
      <trkpt lat="25.0262915" lon="121.5139664"></trkpt>
      <trkpt lat="25.0262265" lon="121.5139210"></trkpt>
      <trkpt lat="25.0261487" lon="121.5138765"></trkpt>
      <trkpt lat="25.0260932" lon="121.5138408"></trkpt>
      <trkpt lat="25.0252794" lon="121.5132103"></trkpt>
      <trkpt lat="25.0252008" lon="121.5131465"></trkpt>
      <trkpt lat="25.0252794" lon="121.5132103"></trkpt>
      <trkpt lat="25.0260932" lon="121.5138408"></trkpt>
      <trkpt lat="25.0261487" lon="121.5138765"></trkpt>
      <trkpt lat="25.0262265" lon="121.5139210"></trkpt>
      <trkpt lat="25.0262064" lon="121.5140430"></trkpt>
      <trkpt lat="25.0261903" lon="121.5140925"></trkpt>
      <trkpt lat="25.0261150" lon="121.5144805"></trkpt>
      <trkpt lat="25.0259468" lon="121.5152826"></trkpt>
      <trkpt lat="25.0258576" lon="121.5156435"></trkpt>
      <trkpt lat="25.0258237" lon="121.5157929"></trkpt>
      <trkpt lat="25.0257546" lon="121.5160847"></trkpt>
      <trkpt lat="25.0257282" lon="121.5161879"></trkpt>
      <trkpt lat="25.0256068" lon="121.5162618"></trkpt>
      <trkpt lat="25.0255863" lon="121.5163404"></trkpt>
      <trkpt lat="25.0255625" lon="121.5164564"></trkpt>
      <trkpt lat="25.0255426" lon="121.5165755"></trkpt>
      <trkpt lat="25.0255049" lon="121.5165675"></trkpt>
      <trkpt lat="25.0254527" lon="121.5165682"></trkpt>
      <trkpt lat="25.0253201" lon="121.5166061"></trkpt>
      <trkpt lat="25.0250132" lon="121.5166902"></trkpt>
      <trkpt lat="25.0247804" lon="121.5167446"></trkpt>
      <trkpt lat="25.0247671" lon="121.5168221"></trkpt>
      <trkpt lat="25.0247325" lon="121.5171628"></trkpt>
      <trkpt lat="25.0246777" lon="121.5174400"></trkpt>
      <trkpt lat="25.0245337" lon="121.5174386"></trkpt>
      <trkpt lat="25.0244692" lon="121.5182575"></trkpt>
      <trkpt lat="25.0244091" lon="121.5190209"></trkpt>
      <trkpt lat="25.0247817" lon="121.5190269"></trkpt>
      <trkpt lat="25.0249775" lon="121.5190229"></trkpt>
      <trkpt lat="25.0250485" lon="121.5190215"></trkpt>
      <trkpt lat="25.0250208" lon="121.5191403"></trkpt>
      <trkpt lat="25.0249393" lon="121.5194892"></trkpt>
      <trkpt lat="25.0248894" lon="121.5196630"></trkpt>
      <trkpt lat="25.0247717" lon="121.5201442"></trkpt>
      <trkpt lat="25.0247517" lon="121.5202258"></trkpt>
      <trkpt lat="25.0247318" lon="121.5203091"></trkpt>
      <trkpt lat="25.0247060" lon="121.5204167"></trkpt>
      <trkpt lat="25.0246211" lon="121.5207078"></trkpt>
      <trkpt lat="25.0248960" lon="121.5208628"></trkpt>
      <trkpt lat="25.0248137" lon="121.5211088"></trkpt>
      <trkpt lat="25.0247117" lon="121.5218352"></trkpt>
      <trkpt lat="25.0245581" lon="121.5220024"></trkpt>
      <trkpt lat="25.0245280" lon="121.5220262"></trkpt>
      <trkpt lat="25.0247635" lon="121.5222519"></trkpt>
      <trkpt lat="25.0248586" lon="121.5223481"></trkpt>
      <trkpt lat="25.0249059" lon="121.5223959"></trkpt>
      <trkpt lat="25.0250808" lon="121.5224486"></trkpt>
      <trkpt lat="25.0252266" lon="121.5225300"></trkpt>
      <trkpt lat="25.0253851" lon="121.5227115"></trkpt>
      <trkpt lat="25.0254341" lon="121.5227544"></trkpt>
      <trkpt lat="25.0256777" lon="121.5224731"></trkpt>
      <trkpt lat="25.0257421" lon="121.5224865"></trkpt>
      <trkpt lat="25.0257765" lon="121.5225159"></trkpt>
      <trkpt lat="25.0260298" lon="121.5225479"></trkpt>
      <trkpt lat="25.0262449" lon="121.5225747"></trkpt>
      <trkpt lat="25.0263924" lon="121.5225964"></trkpt>
      <trkpt lat="25.0264825" lon="121.5226035"></trkpt>
      <trkpt lat="25.0265233" lon="121.5226253"></trkpt>
      <trkpt lat="25.0267470" lon="121.5224301"></trkpt>
      <trkpt lat="25.0267649" lon="121.5224144"></trkpt>
      <trkpt lat="25.0268749" lon="121.5223298"></trkpt>
      <trkpt lat="25.0269076" lon="121.5223123"></trkpt>
      <trkpt lat="25.0269266" lon="121.5224569"></trkpt>
      <trkpt lat="25.0269088" lon="121.5225273"></trkpt>
      <trkpt lat="25.0268922" lon="121.5225926"></trkpt>
      <trkpt lat="25.0268793" lon="121.5226611"></trkpt>
      <trkpt lat="25.0268440" lon="121.5228324"></trkpt>
      <trkpt lat="25.0267961" lon="121.5228323"></trkpt>
      <trkpt lat="25.0266326" lon="121.5229776"></trkpt>
      <trkpt lat="25.0266103" lon="121.5229974"></trkpt>
      <trkpt lat="25.0264945" lon="121.5230819"></trkpt>
      <trkpt lat="25.0263298" lon="121.5231855"></trkpt>
      <trkpt lat="25.0260212" lon="121.5234193"></trkpt>
      <trkpt lat="25.0260285" lon="121.5234329"></trkpt>
      <trkpt lat="25.0259038" lon="121.5235267"></trkpt>
      <trkpt lat="25.0258909" lon="121.5235189"></trkpt>
      <trkpt lat="25.0258704" lon="121.5235335"></trkpt>
      <trkpt lat="25.0258322" lon="121.5235624"></trkpt>
      <trkpt lat="25.0255974" lon="121.5237403"></trkpt>
      <trkpt lat="25.0253311" lon="121.5239420"></trkpt>
      <trkpt lat="25.0247381" lon="121.5243911"></trkpt>
      <trkpt lat="25.0247114" lon="121.5244113"></trkpt>
      <trkpt lat="25.0248256" lon="121.5245933"></trkpt>
      <trkpt lat="25.0248318" lon="121.5246349"></trkpt>
      <trkpt lat="25.0247752" lon="121.5254542"></trkpt>
      <trkpt lat="25.0247175" lon="121.5262226"></trkpt>
      <trkpt lat="25.0246636" lon="121.5269352"></trkpt>
      <trkpt lat="25.0245299" lon="121.5269222"></trkpt>
      <trkpt lat="25.0245025" lon="121.5272590"></trkpt>
      <trkpt lat="25.0244753" lon="121.5275926"></trkpt>
      <trkpt lat="25.0244626" lon="121.5277486"></trkpt>
      <trkpt lat="25.0244208" lon="121.5282617"></trkpt>
      <trkpt lat="25.0244172" lon="121.5283057"></trkpt>
      <trkpt lat="25.0244019" lon="121.5284935"></trkpt>
      <trkpt lat="25.0243966" lon="121.5285577"></trkpt>
      <trkpt lat="25.0242498" lon="121.5285436"></trkpt>
      <trkpt lat="25.0242545" lon="121.5286171"></trkpt>
      <trkpt lat="25.0242745" lon="121.5289262"></trkpt>
      <trkpt lat="25.0242763" lon="121.5290873"></trkpt>
      <trkpt lat="25.0242697" lon="121.5292429"></trkpt>
      <trkpt lat="25.0242528" lon="121.5294370"></trkpt>
      <trkpt lat="25.0243273" lon="121.5302119"></trkpt>
      <trkpt lat="25.0243625" lon="121.5305861"></trkpt>
      <trkpt lat="25.0243362" lon="121.5309134"></trkpt>
      <trkpt lat="25.0242987" lon="121.5313848"></trkpt>
      <trkpt lat="25.0244571" lon="121.5314008"></trkpt>
      <trkpt lat="25.0246856" lon="121.5314240"></trkpt>
      <trkpt lat="25.0248587" lon="121.5314425"></trkpt>
      <trkpt lat="25.0248366" lon="121.5316679"></trkpt>
      <trkpt lat="25.0247862" lon="121.5321814"></trkpt>
      <trkpt lat="25.0247333" lon="121.5327213"></trkpt>
      <trkpt lat="25.0246617" lon="121.5334526"></trkpt>
      <trkpt lat="25.0249120" lon="121.5334810"></trkpt>
      <trkpt lat="25.0250861" lon="121.5335009"></trkpt>
      <trkpt lat="25.0250218" lon="121.5345732"></trkpt>
      <trkpt lat="25.0254630" lon="121.5346269"></trkpt>
      <trkpt lat="25.0258404" lon="121.5346705"></trkpt>
      <trkpt lat="25.0258878" lon="121.5346712"></trkpt>
      <trkpt lat="25.0258730" lon="121.5347718"></trkpt>
      <trkpt lat="25.0258528" lon="121.5349094"></trkpt>
      <trkpt lat="25.0258388" lon="121.5350052"></trkpt>
      <trkpt lat="25.0258406" lon="121.5350160"></trkpt>
      <trkpt lat="25.0258394" lon="121.5350628"></trkpt>
      <trkpt lat="25.0258210" lon="121.5351813"></trkpt>
      <trkpt lat="25.0257744" lon="121.5356092"></trkpt>
      <trkpt lat="25.0257290" lon="121.5359272"></trkpt>
      <trkpt lat="25.0253234" lon="121.5359251"></trkpt>
      <trkpt lat="25.0249616" lon="121.5359231"></trkpt>
      <trkpt lat="25.0249620" lon="121.5362367"></trkpt>
      <trkpt lat="25.0249834" lon="121.5366362"></trkpt>
      <trkpt lat="25.0249629" lon="121.5369338"></trkpt>
      <trkpt lat="25.0249634" lon="121.5373159"></trkpt>
      <trkpt lat="25.0249993" lon="121.5374389"></trkpt>
      <trkpt lat="25.0250201" lon="121.5375156"></trkpt>
      <trkpt lat="25.0250157" lon="121.5378962"></trkpt>
      <trkpt lat="25.0254180" lon="121.5379116"></trkpt>
      <trkpt lat="25.0254044" lon="121.5379832"></trkpt>
      <trkpt lat="25.0254485" lon="121.5380044"></trkpt>
      <trkpt lat="25.0254263" lon="121.5381774"></trkpt>
      <trkpt lat="25.0253551" lon="121.5386769"></trkpt>
      <trkpt lat="25.0254357" lon="121.5386944"></trkpt>
      <trkpt lat="25.0254164" lon="121.5388300"></trkpt>
      <trkpt lat="25.0254088" lon="121.5388883"></trkpt>
      <trkpt lat="25.0253633" lon="121.5392369"></trkpt>
      <trkpt lat="25.0252955" lon="121.5397566"></trkpt>
      <trkpt lat="25.0252302" lon="121.5402570"></trkpt>
      <trkpt lat="25.0250836" lon="121.5413809"></trkpt>
      <trkpt lat="25.0250339" lon="121.5417616"></trkpt>
      <trkpt lat="25.0250261" lon="121.5418219"></trkpt>
      <trkpt lat="25.0249906" lon="121.5420936"></trkpt>
      <trkpt lat="25.0248866" lon="121.5428911"></trkpt>
      <trkpt lat="25.0248434" lon="121.5432235"></trkpt>
      <trkpt lat="25.0248300" lon="121.5433642"></trkpt>
      <trkpt lat="25.0248177" lon="121.5434841"></trkpt>
      <trkpt lat="25.0248111" lon="121.5436011"></trkpt>
      <trkpt lat="25.0249317" lon="121.5436106"></trkpt>
      <trkpt lat="25.0249873" lon="121.5436168"></trkpt>
      <trkpt lat="25.0249317" lon="121.5436106"></trkpt>
      <trkpt lat="25.0248111" lon="121.5436011"></trkpt>
      <trkpt lat="25.0247405" lon="121.5435956"></trkpt>
      <trkpt lat="25.0247182" lon="121.5435531"></trkpt>
      <trkpt lat="25.0247208" lon="121.5434764"></trkpt>
      <trkpt lat="25.0247247" lon="121.5433637"></trkpt>
      <trkpt lat="25.0247276" lon="121.5432796"></trkpt>
      <trkpt lat="25.0247357" lon="121.5432196"></trkpt>
      <trkpt lat="25.0247820" lon="121.5428887"></trkpt>
      <trkpt lat="25.0249247" lon="121.5418355"></trkpt>
      <trkpt lat="25.0249283" lon="121.5418091"></trkpt>
      <trkpt lat="25.0249809" lon="121.5414209"></trkpt>
      <trkpt lat="25.0249883" lon="121.5413667"></trkpt>
      <trkpt lat="25.0250836" lon="121.5413809"></trkpt>
      <trkpt lat="25.0249883" lon="121.5413667"></trkpt>
      <trkpt lat="25.0249980" lon="121.5412961"></trkpt>
      <trkpt lat="25.0251306" lon="121.5403158"></trkpt>
      <trkpt lat="25.0251675" lon="121.5400437"></trkpt>
      <trkpt lat="25.0251982" lon="121.5398167"></trkpt>
      <trkpt lat="25.0251675" lon="121.5400437"></trkpt>
      <trkpt lat="25.0251306" lon="121.5403158"></trkpt>
      <trkpt lat="25.0249980" lon="121.5412961"></trkpt>
      <trkpt lat="25.0249883" lon="121.5413667"></trkpt>
      <trkpt lat="25.0250836" lon="121.5413809"></trkpt>
      <trkpt lat="25.0250339" lon="121.5417616"></trkpt>
      <trkpt lat="25.0250261" lon="121.5418219"></trkpt>
      <trkpt lat="25.0249906" lon="121.5420936"></trkpt>
      <trkpt lat="25.0248866" lon="121.5428911"></trkpt>
      <trkpt lat="25.0248434" lon="121.5432235"></trkpt>
      <trkpt lat="25.0249768" lon="121.5432283"></trkpt>
      <trkpt lat="25.0250686" lon="121.5432369"></trkpt>
      <trkpt lat="25.0250524" lon="121.5433619"></trkpt>
      <trkpt lat="25.0250358" lon="121.5434965"></trkpt>
      <trkpt lat="25.0250236" lon="121.5436030"></trkpt>
      <trkpt lat="25.0249873" lon="121.5436168"></trkpt>
      <trkpt lat="25.0249543" lon="121.5439725"></trkpt>
      <trkpt lat="25.0249509" lon="121.5440091"></trkpt>
      <trkpt lat="25.0249490" lon="121.5440348"></trkpt>
      <trkpt lat="25.0249185" lon="121.5444342"></trkpt>
      <trkpt lat="25.0248916" lon="121.5449848"></trkpt>
      <trkpt lat="25.0249004" lon="121.5450587"></trkpt>
      <trkpt lat="25.0248958" lon="121.5451188"></trkpt>
      <trkpt lat="25.0248879" lon="121.5451986"></trkpt>
      <trkpt lat="25.0248499" lon="121.5458574"></trkpt>
      <trkpt lat="25.0248268" lon="121.5462775"></trkpt>
      <trkpt lat="25.0247998" lon="121.5466441"></trkpt>
      <trkpt lat="25.0247981" lon="121.5466661"></trkpt>
      <trkpt lat="25.0247942" lon="121.5467089"></trkpt>
      <trkpt lat="25.0247460" lon="121.5467014"></trkpt>
      <trkpt lat="25.0246366" lon="121.5467103"></trkpt>
      <trkpt lat="25.0245899" lon="121.5474474"></trkpt>
      <trkpt lat="25.0245617" lon="121.5478936"></trkpt>
      <trkpt lat="25.0245394" lon="121.5482495"></trkpt>
      <trkpt lat="25.0245357" lon="121.5483196"></trkpt>
      <trkpt lat="25.0245303" lon="121.5483516"></trkpt>
      <trkpt lat="25.0245274" lon="121.5484771"></trkpt>
      <trkpt lat="25.0245218" lon="121.5485841"></trkpt>
      <trkpt lat="25.0245159" lon="121.5487084"></trkpt>
      <trkpt lat="25.0245020" lon="121.5489583"></trkpt>
      <trkpt lat="25.0246178" lon="121.5489620"></trkpt>
      <trkpt lat="25.0246892" lon="121.5489623"></trkpt>
      <trkpt lat="25.0246859" lon="121.5490305"></trkpt>
      <trkpt lat="25.0254396" lon="121.5490410"></trkpt>
      <trkpt lat="25.0254227" lon="121.5493874"></trkpt>
      <trkpt lat="25.0253928" lon="121.5500708"></trkpt>
      <trkpt lat="25.0253889" lon="121.5501361"></trkpt>
      <trkpt lat="25.0253831" lon="121.5502118"></trkpt>
      <trkpt lat="25.0253779" lon="121.5503342"></trkpt>
      <trkpt lat="25.0253607" lon="121.5504654"></trkpt>
      <trkpt lat="25.0253539" lon="121.5506456"></trkpt>
      <trkpt lat="25.0253425" lon="121.5508270"></trkpt>
      <trkpt lat="25.0253101" lon="121.5515844"></trkpt>
      <trkpt lat="25.0254386" lon="121.5520680"></trkpt>
      <trkpt lat="25.0254510" lon="121.5521146"></trkpt>
      <trkpt lat="25.0247692" lon="121.5523507"></trkpt>
      <trkpt lat="25.0247955" lon="121.5524278"></trkpt>
      <trkpt lat="25.0248138" lon="121.5524832"></trkpt>
      <trkpt lat="25.0248101" lon="121.5525424"></trkpt>
      <trkpt lat="25.0248026" lon="121.5526012"></trkpt>
      <trkpt lat="25.0247913" lon="121.5526593"></trkpt>
      <trkpt lat="25.0247762" lon="121.5527163"></trkpt>
      <trkpt lat="25.0247575" lon="121.5527719"></trkpt>
      <trkpt lat="25.0247030" lon="121.5528291"></trkpt>
      <trkpt lat="25.0246299" lon="121.5529103"></trkpt>
      <trkpt lat="25.0246146" lon="121.5529283"></trkpt>
      <trkpt lat="25.0247356" lon="121.5530576"></trkpt>
      <trkpt lat="25.0250887" lon="121.5534351"></trkpt>
      <trkpt lat="25.0253478" lon="121.5537121"></trkpt>
      <trkpt lat="25.0254379" lon="121.5538494"></trkpt>
      <trkpt lat="25.0253567" lon="121.5541372"></trkpt>
      <trkpt lat="25.0253223" lon="121.5542432"></trkpt>
      <trkpt lat="25.0252667" lon="121.5544456"></trkpt>
      <trkpt lat="25.0252710" lon="121.5544885"></trkpt>
      <trkpt lat="25.0253473" lon="121.5546255"></trkpt>
      <trkpt lat="25.0250681" lon="121.5548968"></trkpt>
      <trkpt lat="25.0249287" lon="121.5548963"></trkpt>
      <trkpt lat="25.0246134" lon="121.5549008"></trkpt>
      <trkpt lat="25.0242685" lon="121.5548888"></trkpt>
      <trkpt lat="25.0242620" lon="121.5552368"></trkpt>
      <trkpt lat="25.0242608" lon="121.5552981"></trkpt>
      <trkpt lat="25.0241390" lon="121.5555138"></trkpt>
      <trkpt lat="25.0240749" lon="121.5557354"></trkpt>
      <trkpt lat="25.0240442" lon="121.5558100"></trkpt>
      <trkpt lat="25.0241207" lon="121.5558335"></trkpt>
      <trkpt lat="25.0244234" lon="121.5559020"></trkpt>
      <trkpt lat="25.0245287" lon="121.5559362"></trkpt>
      <trkpt lat="25.0246343" lon="121.5559849"></trkpt>
      <trkpt lat="25.0247387" lon="121.5560518"></trkpt>
      <trkpt lat="25.0247861" lon="121.5561048"></trkpt>
      <trkpt lat="25.0248510" lon="121.5561531"></trkpt>
      <trkpt lat="25.0252772" lon="121.5564513"></trkpt>
      <trkpt lat="25.0253780" lon="121.5565339"></trkpt>
      <trkpt lat="25.0253729" lon="121.5566096"></trkpt>
      <trkpt lat="25.0253023" lon="121.5567176"></trkpt>
      <trkpt lat="25.0250059" lon="121.5571708"></trkpt>
      <trkpt lat="25.0251011" lon="121.5573599"></trkpt>
      <trkpt lat="25.0252202" lon="121.5575964"></trkpt>
      <trkpt lat="25.0251857" lon="121.5583044"></trkpt>
      <trkpt lat="25.0251766" lon="121.5583457"></trkpt>
      <trkpt lat="25.0250505" lon="121.5586380"></trkpt>
      <trkpt lat="25.0249092" lon="121.5590046"></trkpt>
      <trkpt lat="25.0249050" lon="121.5590291"></trkpt>
      <trkpt lat="25.0249091" lon="121.5590499"></trkpt>
      <trkpt lat="25.0251119" lon="121.5593945"></trkpt>
      <trkpt lat="25.0251197" lon="121.5594144"></trkpt>
      <trkpt lat="25.0251890" lon="121.5597740"></trkpt>
      <trkpt lat="25.0251931" lon="121.5598311"></trkpt>
      <trkpt lat="25.0251650" lon="121.5599161"></trkpt>
      <trkpt lat="25.0251573" lon="121.5599511"></trkpt>
      <trkpt lat="25.0251388" lon="121.5599924"></trkpt>
      <trkpt lat="25.0251887" lon="121.5600282"></trkpt>
      <trkpt lat="25.0253893" lon="121.5602803"></trkpt>
      <trkpt lat="25.0254128" lon="121.5603093"></trkpt>
      <trkpt lat="25.0257315" lon="121.5607209"></trkpt>
      <trkpt lat="25.0257758" lon="121.5607640"></trkpt>
      <trkpt lat="25.0258696" lon="121.5608541"></trkpt>
      <trkpt lat="25.0259577" lon="121.5609363"></trkpt>
      <trkpt lat="25.0259779" lon="121.5609662"></trkpt>
      <trkpt lat="25.0260797" lon="121.5610997"></trkpt>
      <trkpt lat="25.0262865" lon="121.5613687"></trkpt>
      <trkpt lat="25.0262287" lon="121.5614208"></trkpt>
      <trkpt lat="25.0260113" lon="121.5616169"></trkpt>
      <trkpt lat="25.0260821" lon="121.5617089"></trkpt>
      <trkpt lat="25.0260729" lon="121.5619784"></trkpt>
      <trkpt lat="25.0259696" lon="121.5620846"></trkpt>
      <trkpt lat="25.0256728" lon="121.5623641"></trkpt>
      <trkpt lat="25.0255759" lon="121.5625188"></trkpt>
      <trkpt lat="25.0253680" lon="121.5627127"></trkpt>
      <trkpt lat="25.0250997" lon="121.5629631"></trkpt>
      <trkpt lat="25.0248943" lon="121.5631547"></trkpt>
      <trkpt lat="25.0248451" lon="121.5632007"></trkpt>
      <trkpt lat="25.0245138" lon="121.5635150"></trkpt>
      <trkpt lat="25.0244808" lon="121.5635463"></trkpt>
      <trkpt lat="25.0244602" lon="121.5636514"></trkpt>
      <trkpt lat="25.0246969" lon="121.5637043"></trkpt>
      <trkpt lat="25.0252263" lon="121.5638427"></trkpt>
      <trkpt lat="25.0254230" lon="121.5638856"></trkpt>
      <trkpt lat="25.0256749" lon="121.5639445"></trkpt>
      <trkpt lat="25.0257155" lon="121.5639540"></trkpt>
      <trkpt lat="25.0261612" lon="121.5641088"></trkpt>
      <trkpt lat="25.0263485" lon="121.5641738"></trkpt>
      <trkpt lat="25.0263920" lon="121.5641889"></trkpt>
      <trkpt lat="25.0263419" lon="121.5643731"></trkpt>
      <trkpt lat="25.0263443" lon="121.5647645"></trkpt>
      <trkpt lat="25.0262539" lon="121.5649651"></trkpt>
      <trkpt lat="25.0261538" lon="121.5652054"></trkpt>
      <trkpt lat="25.0261511" lon="121.5655553"></trkpt>
      <trkpt lat="25.0262105" lon="121.5661485"></trkpt>
      <trkpt lat="25.0261158" lon="121.5662188"></trkpt>
      <trkpt lat="25.0257716" lon="121.5664718"></trkpt>
      <trkpt lat="25.0259277" lon="121.5667753"></trkpt>
      <trkpt lat="25.0265193" lon="121.5663631"></trkpt>
      <trkpt lat="25.0266407" lon="121.5665951"></trkpt>
      <trkpt lat="25.0268450" lon="121.5662451"></trkpt>
      <trkpt lat="25.0270265" lon="121.5662996"></trkpt>
      <trkpt lat="25.0272627" lon="121.5663866"></trkpt>
      <trkpt lat="25.0272119" lon="121.5665530"></trkpt>
      <trkpt lat="25.0272836" lon="121.5665827"></trkpt>
      <trkpt lat="25.0276070" lon="121.5667166"></trkpt>
      <trkpt lat="25.0279559" lon="121.5668267"></trkpt>
      <trkpt lat="25.0281703" lon="121.5668944"></trkpt>
      <trkpt lat="25.0285389" lon="121.5670107"></trkpt>
      <trkpt lat="25.0285476" lon="121.5667702"></trkpt>
      <trkpt lat="25.0295552" lon="121.5663178"></trkpt>
      <trkpt lat="25.0300710" lon="121.5663934"></trkpt>
      <trkpt lat="25.0304091" lon="121.5664513"></trkpt>
      <trkpt lat="25.0304560" lon="121.5664486"></trkpt>
      <trkpt lat="25.0305309" lon="121.5664126"></trkpt>
      <trkpt lat="25.0306648" lon="121.5664149"></trkpt>
      <trkpt lat="25.0308023" lon="121.5664172"></trkpt>
      <trkpt lat="25.0309823" lon="121.5664202"></trkpt>
      <trkpt lat="25.0312118" lon="121.5664241"></trkpt>
      <trkpt lat="25.0314754" lon="121.5664285"></trkpt>
      <trkpt lat="25.0318736" lon="121.5664335"></trkpt>
      <trkpt lat="25.0319480" lon="121.5664364"></trkpt>
      <trkpt lat="25.0319994" lon="121.5664362"></trkpt>
      <trkpt lat="25.0327692" lon="121.5664502"></trkpt>
      <trkpt lat="25.0327777" lon="121.5655379"></trkpt>
      <trkpt lat="25.0328421" lon="121.5655396"></trkpt>
      <trkpt lat="25.0329550" lon="121.5655425"></trkpt>
      <trkpt lat="25.0330739" lon="121.5655458"></trkpt>
      <trkpt lat="25.0331182" lon="121.5655487"></trkpt>
      <trkpt lat="25.0338437" lon="121.5655627"></trkpt>
      <trkpt lat="25.0338993" lon="121.5655731"></trkpt>
      <trkpt lat="25.0340149" lon="121.5655753"></trkpt>
      <trkpt lat="25.0340610" lon="121.5655750"></trkpt>
      <trkpt lat="25.0341133" lon="121.5655779"></trkpt>
      <trkpt lat="25.0347921" lon="121.5655934"></trkpt>
      <trkpt lat="25.0348661" lon="121.5655951"></trkpt>
      <trkpt lat="25.0348639" lon="121.5657236"></trkpt>
      <trkpt lat="25.0350009" lon="121.5657267"></trkpt>
      <trkpt lat="25.0357546" lon="121.5657423"></trkpt>
      <trkpt lat="25.0357539" lon="121.5663030"></trkpt>
      <trkpt lat="25.0357522" lon="121.5663948"></trkpt>
      <trkpt lat="25.0351053" lon="121.5663825"></trkpt>
      <trkpt lat="25.0357522" lon="121.5663948"></trkpt>
      <trkpt lat="25.0358534" lon="121.5663989"></trkpt>
      <trkpt lat="25.0358653" lon="121.5657457"></trkpt>
      <trkpt lat="25.0359580" lon="121.5657477"></trkpt>
      <trkpt lat="25.0370505" lon="121.5657719"></trkpt>
      <trkpt lat="25.0374343" lon="121.5657804"></trkpt>
      <trkpt lat="25.0375353" lon="121.5657826"></trkpt>
      <trkpt lat="25.0378471" lon="121.5657894"></trkpt>
      <trkpt lat="25.0378995" lon="121.5657906"></trkpt>
      <trkpt lat="25.0378983" lon="121.5658525"></trkpt>
      <trkpt lat="25.0378979" lon="121.5662660"></trkpt>
      <trkpt lat="25.0378979" lon="121.5664377"></trkpt>
      <trkpt lat="25.0379472" lon="121.5664421"></trkpt>
      <trkpt lat="25.0382088" lon="121.5664481"></trkpt>
      <trkpt lat="25.0389866" lon="121.5664658"></trkpt>
      <trkpt lat="25.0391115" lon="121.5664686"></trkpt>
      <trkpt lat="25.0391181" lon="121.5660984"></trkpt>
      <trkpt lat="25.0392398" lon="121.5661011"></trkpt>
      <trkpt lat="25.0394379" lon="121.5661055"></trkpt>
      <trkpt lat="25.0396873" lon="121.5661110"></trkpt>
      <trkpt lat="25.0399337" lon="121.5661164"></trkpt>
      <trkpt lat="25.0399499" lon="121.5661167"></trkpt>
      <trkpt lat="25.0400422" lon="121.5661188"></trkpt>
      <trkpt lat="25.0400789" lon="121.5661196"></trkpt>
      <trkpt lat="25.0400818" lon="121.5659942"></trkpt>
      <trkpt lat="25.0402327" lon="121.5659962"></trkpt>
      <trkpt lat="25.0407766" lon="121.5660068"></trkpt>
      <trkpt lat="25.0409798" lon="121.5660107"></trkpt>
      <trkpt lat="25.0409899" lon="121.5659942"></trkpt>
      <trkpt lat="25.0410550" lon="121.5659962"></trkpt>
      <trkpt lat="25.0411719" lon="121.5660004"></trkpt>
      <trkpt lat="25.0412493" lon="121.5660019"></trkpt>
      <trkpt lat="25.0412539" lon="121.5658614"></trkpt>
      <trkpt lat="25.0414058" lon="121.5658645"></trkpt>
      <trkpt lat="25.0414402" lon="121.5658555"></trkpt>
      <trkpt lat="25.0414710" lon="121.5658335"></trkpt>
      <trkpt lat="25.0415000" lon="121.5658035"></trkpt>
      <trkpt lat="25.0415407" lon="121.5657895"></trkpt>
      <trkpt lat="25.0416509" lon="121.5657925"></trkpt>
      <trkpt lat="25.0416546" lon="121.5655602"></trkpt>
      <trkpt lat="25.0414646" lon="121.5654451"></trkpt>
      <trkpt lat="25.0412685" lon="121.5653354"></trkpt>
      <trkpt lat="25.0412794" lon="121.5648395"></trkpt>
      <trkpt lat="25.0413253" lon="121.5647995"></trkpt>
      <trkpt lat="25.0413502" lon="121.5647414"></trkpt>
      <trkpt lat="25.0415420" lon="121.5648564"></trkpt>
      <trkpt lat="25.0417182" lon="121.5649666"></trkpt>
      <trkpt lat="25.0426500" lon="121.5654947"></trkpt>
      <trkpt lat="25.0431788" lon="121.5657980"></trkpt>
      <trkpt lat="25.0432163" lon="121.5658195"></trkpt>
      <trkpt lat="25.0433495" lon="121.5658952"></trkpt>
      <trkpt lat="25.0434582" lon="121.5659580"></trkpt>
      <trkpt lat="25.0435592" lon="121.5660201"></trkpt>
      <trkpt lat="25.0435806" lon="121.5660327"></trkpt>
      <trkpt lat="25.0453691" lon="121.5671040"></trkpt>
      <trkpt lat="25.0453999" lon="121.5671225"></trkpt>
      <trkpt lat="25.0454300" lon="121.5671405"></trkpt>
      <trkpt lat="25.0455531" lon="121.5672206"></trkpt>
      <trkpt lat="25.0455849" lon="121.5672413"></trkpt>
      <trkpt lat="25.0456627" lon="121.5672918"></trkpt>
      <trkpt lat="25.0458103" lon="121.5673934"></trkpt>
      <trkpt lat="25.0458252" lon="121.5672993"></trkpt>
      <trkpt lat="25.0458603" lon="121.5671248"></trkpt>
      <trkpt lat="25.0457318" lon="121.5670629"></trkpt>
      <trkpt lat="25.0456335" lon="121.5670075"></trkpt>
      <trkpt lat="25.0453653" lon="121.5668723"></trkpt>
      <trkpt lat="25.0453670" lon="121.5668115"></trkpt>
      <trkpt lat="25.0454048" lon="121.5668275"></trkpt>
      <trkpt lat="25.0455084" lon="121.5668713"></trkpt>
      <trkpt lat="25.0456107" lon="121.5669282"></trkpt>
      <trkpt lat="25.0456468" lon="121.5669257"></trkpt>
      <trkpt lat="25.0456731" lon="121.5669160"></trkpt>
      <trkpt lat="25.0457835" lon="121.5669649"></trkpt>
      <trkpt lat="25.0458857" lon="121.5670263"></trkpt>
      <trkpt lat="25.0459471" lon="121.5669396"></trkpt>
      <trkpt lat="25.0470142" lon="121.5664515"></trkpt>
      <trkpt lat="25.0471123" lon="121.5664066"></trkpt>
      <trkpt lat="25.0471568" lon="121.5663863"></trkpt>
      <trkpt lat="25.0474021" lon="121.5662806"></trkpt>
      <trkpt lat="25.0478346" lon="121.5660842"></trkpt>
      <trkpt lat="25.0480613" lon="121.5659793"></trkpt>
      <trkpt lat="25.0480968" lon="121.5659628"></trkpt>
      <trkpt lat="25.0481416" lon="121.5659421"></trkpt>
      <trkpt lat="25.0482416" lon="121.5658839"></trkpt>
      <trkpt lat="25.0482624" lon="121.5659547"></trkpt>
      <trkpt lat="25.0484941" lon="121.5667844"></trkpt>
      <trkpt lat="25.0485137" lon="121.5668549"></trkpt>
      <trkpt lat="25.0485658" lon="121.5670774"></trkpt>
      <trkpt lat="25.0485958" lon="121.5671993"></trkpt>
      <trkpt lat="25.0486060" lon="121.5672405"></trkpt>
      <trkpt lat="25.0486237" lon="121.5673122"></trkpt>
      <trkpt lat="25.0486473" lon="121.5674074"></trkpt>
      <trkpt lat="25.0489457" lon="121.5687900"></trkpt>
      <trkpt lat="25.0489557" lon="121.5688371"></trkpt>
      <trkpt lat="25.0489650" lon="121.5688811"></trkpt>
      <trkpt lat="25.0489031" lon="121.5688587"></trkpt>
      <trkpt lat="25.0489152" lon="121.5689302"></trkpt>
      <trkpt lat="25.0482627" lon="121.5685581"></trkpt>
      <trkpt lat="25.0481134" lon="121.5687763"></trkpt>
      <trkpt lat="25.0480818" lon="121.5688411"></trkpt>
      <trkpt lat="25.0480423" lon="121.5688933"></trkpt>
      <trkpt lat="25.0480111" lon="121.5689532"></trkpt>
      <trkpt lat="25.0479915" lon="121.5689896"></trkpt>
      <trkpt lat="25.0480057" lon="121.5690200"></trkpt>
      <trkpt lat="25.0480023" lon="121.5690814"></trkpt>
      <trkpt lat="25.0479888" lon="121.5696170"></trkpt>
      <trkpt lat="25.0479649" lon="121.5703493"></trkpt>
      <trkpt lat="25.0479619" lon="121.5704415"></trkpt>
      <trkpt lat="25.0479606" lon="121.5705034"></trkpt>
      <trkpt lat="25.0479389" lon="121.5715447"></trkpt>
      <trkpt lat="25.0479377" lon="121.5716005"></trkpt>
      <trkpt lat="25.0479362" lon="121.5716568"></trkpt>
      <trkpt lat="25.0479308" lon="121.5719175"></trkpt>
      <trkpt lat="25.0479253" lon="121.5720921"></trkpt>
      <trkpt lat="25.0479223" lon="121.5721827"></trkpt>
      <trkpt lat="25.0479811" lon="121.5721848"></trkpt>
      <trkpt lat="25.0482374" lon="121.5721941"></trkpt>
      <trkpt lat="25.0482360" lon="121.5722679"></trkpt>
      <trkpt lat="25.0482272" lon="121.5727347"></trkpt>
      <trkpt lat="25.0482360" lon="121.5722679"></trkpt>
      <trkpt lat="25.0482374" lon="121.5721941"></trkpt>
      <trkpt lat="25.0479811" lon="121.5721848"></trkpt>
      <trkpt lat="25.0479223" lon="121.5721827"></trkpt>
      <trkpt lat="25.0479811" lon="121.5721848"></trkpt>
      <trkpt lat="25.0482374" lon="121.5721941"></trkpt>
      <trkpt lat="25.0491425" lon="121.5722254"></trkpt>
      <trkpt lat="25.0492208" lon="121.5722271"></trkpt>
      <trkpt lat="25.0492604" lon="121.5722310"></trkpt>
      <trkpt lat="25.0492748" lon="121.5722315"></trkpt>
      <trkpt lat="25.0494169" lon="121.5722364"></trkpt>
      <trkpt lat="25.0494254" lon="121.5722368"></trkpt>
      <trkpt lat="25.0494746" lon="121.5722405"></trkpt>
      <trkpt lat="25.0494795" lon="121.5720894"></trkpt>
      <trkpt lat="25.0494734" lon="121.5717737"></trkpt>
      <trkpt lat="25.0494655" lon="121.5714564"></trkpt>
      <trkpt lat="25.0494035" lon="121.5708225"></trkpt>
      <trkpt lat="25.0493532" lon="121.5705636"></trkpt>
      <trkpt lat="25.0492993" lon="121.5703492"></trkpt>
      <trkpt lat="25.0492653" lon="121.5701852"></trkpt>
      <trkpt lat="25.0491681" lon="121.5696237"></trkpt>
      <trkpt lat="25.0491607" lon="121.5695810"></trkpt>
      <trkpt lat="25.0491593" lon="121.5695445"></trkpt>
      <trkpt lat="25.0491449" lon="121.5693973"></trkpt>
      <trkpt lat="25.0491441" lon="121.5690695"></trkpt>
      <trkpt lat="25.0489808" lon="121.5689675"></trkpt>
      <trkpt lat="25.0489152" lon="121.5689302"></trkpt>
      <trkpt lat="25.0489031" lon="121.5688587"></trkpt>
      <trkpt lat="25.0489650" lon="121.5688811"></trkpt>
      <trkpt lat="25.0491359" lon="121.5689547"></trkpt>
      <trkpt lat="25.0487572" lon="121.5674376"></trkpt>
      <trkpt lat="25.0487485" lon="121.5674032"></trkpt>
      <trkpt lat="25.0487415" lon="121.5673760"></trkpt>
      <trkpt lat="25.0487187" lon="121.5672857"></trkpt>
      <trkpt lat="25.0486599" lon="121.5670514"></trkpt>
      <trkpt lat="25.0485580" lon="121.5665966"></trkpt>
      <trkpt lat="25.0483982" lon="121.5659793"></trkpt>
      <trkpt lat="25.0483897" lon="121.5659466"></trkpt>
      <trkpt lat="25.0483782" lon="121.5659024"></trkpt>
      <trkpt lat="25.0483567" lon="121.5658228"></trkpt>
      <trkpt lat="25.0483338" lon="121.5657348"></trkpt>
      <trkpt lat="25.0482049" lon="121.5657921"></trkpt>
      <trkpt lat="25.0482416" lon="121.5658839"></trkpt>
      <trkpt lat="25.0483567" lon="121.5658228"></trkpt>
      <trkpt lat="25.0483338" lon="121.5657348"></trkpt>
      <trkpt lat="25.0483004" lon="121.5656393"></trkpt>
      <trkpt lat="25.0481023" lon="121.5650719"></trkpt>
      <trkpt lat="25.0480717" lon="121.5649843"></trkpt>
      <trkpt lat="25.0478052" lon="121.5642749"></trkpt>
      <trkpt lat="25.0478971" lon="121.5642485"></trkpt>
      <trkpt lat="25.0479293" lon="121.5642393"></trkpt>
      <trkpt lat="25.0480525" lon="121.5642040"></trkpt>
      <trkpt lat="25.0481973" lon="121.5641902"></trkpt>
      <trkpt lat="25.0480742" lon="121.5629927"></trkpt>
      <trkpt lat="25.0480617" lon="121.5628714"></trkpt>
      <trkpt lat="25.0484478" lon="121.5628130"></trkpt>
      <trkpt lat="25.0485265" lon="121.5628011"></trkpt>
      <trkpt lat="25.0485939" lon="121.5627909"></trkpt>
      <trkpt lat="25.0486818" lon="121.5627599"></trkpt>
      <trkpt lat="25.0486664" lon="121.5626208"></trkpt>
      <trkpt lat="25.0486614" lon="121.5625685"></trkpt>
      <trkpt lat="25.0486555" lon="121.5625072"></trkpt>
      <trkpt lat="25.0486066" lon="121.5620003"></trkpt>
      <trkpt lat="25.0485243" lon="121.5612174"></trkpt>
      <trkpt lat="25.0485204" lon="121.5611614"></trkpt>
      <trkpt lat="25.0485133" lon="121.5611007"></trkpt>
      <trkpt lat="25.0485020" lon="121.5609822"></trkpt>
      <trkpt lat="25.0484899" lon="121.5608683"></trkpt>
      <trkpt lat="25.0484815" lon="121.5607898"></trkpt>
      <trkpt lat="25.0484788" lon="121.5607659"></trkpt>
      <trkpt lat="25.0484733" lon="121.5607086"></trkpt>
      <trkpt lat="25.0484233" lon="121.5601911"></trkpt>
      <trkpt lat="25.0484204" lon="121.5601570"></trkpt>
      <trkpt lat="25.0484150" lon="121.5601019"></trkpt>
      <trkpt lat="25.0484095" lon="121.5600442"></trkpt>
      <trkpt lat="25.0484037" lon="121.5599742"></trkpt>
      <trkpt lat="25.0483594" lon="121.5594411"></trkpt>
      <trkpt lat="25.0483327" lon="121.5591490"></trkpt>
      <trkpt lat="25.0482365" lon="121.5591608"></trkpt>
      <trkpt lat="25.0477796" lon="121.5592142"></trkpt>
      <trkpt lat="25.0478672" lon="121.5601622"></trkpt>
      <trkpt lat="25.0482985" lon="121.5601064"></trkpt>
      <trkpt lat="25.0483247" lon="121.5601030"></trkpt>
      <trkpt lat="25.0484150" lon="121.5601019"></trkpt>
      <trkpt lat="25.0484204" lon="121.5601570"></trkpt>
      <trkpt lat="25.0484233" lon="121.5601911"></trkpt>
      <trkpt lat="25.0484733" lon="121.5607086"></trkpt>
      <trkpt lat="25.0484788" lon="121.5607659"></trkpt>
      <trkpt lat="25.0484815" lon="121.5607898"></trkpt>
      <trkpt lat="25.0484899" lon="121.5608683"></trkpt>
      <trkpt lat="25.0485020" lon="121.5609822"></trkpt>
      <trkpt lat="25.0485133" lon="121.5611007"></trkpt>
      <trkpt lat="25.0485204" lon="121.5611614"></trkpt>
      <trkpt lat="25.0485243" lon="121.5612174"></trkpt>
      <trkpt lat="25.0486066" lon="121.5620003"></trkpt>
      <trkpt lat="25.0486555" lon="121.5625072"></trkpt>
      <trkpt lat="25.0486614" lon="121.5625685"></trkpt>
      <trkpt lat="25.0486664" lon="121.5626208"></trkpt>
      <trkpt lat="25.0486818" lon="121.5627599"></trkpt>
      <trkpt lat="25.0485939" lon="121.5627909"></trkpt>
      <trkpt lat="25.0485265" lon="121.5628011"></trkpt>
      <trkpt lat="25.0484478" lon="121.5628130"></trkpt>
      <trkpt lat="25.0480617" lon="121.5628714"></trkpt>
      <trkpt lat="25.0475438" lon="121.5629450"></trkpt>
      <trkpt lat="25.0474813" lon="121.5629677"></trkpt>
      <trkpt lat="25.0473595" lon="121.5629987"></trkpt>
      <trkpt lat="25.0472442" lon="121.5630342"></trkpt>
      <trkpt lat="25.0472915" lon="121.5631925"></trkpt>
      <trkpt lat="25.0475901" lon="121.5640397"></trkpt>
      <trkpt lat="25.0476877" lon="121.5643165"></trkpt>
      <trkpt lat="25.0481449" lon="121.5656259"></trkpt>
      <trkpt lat="25.0481544" lon="121.5656532"></trkpt>
      <trkpt lat="25.0481704" lon="121.5656989"></trkpt>
      <trkpt lat="25.0482049" lon="121.5657921"></trkpt>
      <trkpt lat="25.0481024" lon="121.5658394"></trkpt>
      <trkpt lat="25.0471198" lon="121.5662869"></trkpt>
      <trkpt lat="25.0458846" lon="121.5668762"></trkpt>
      <trkpt lat="25.0458503" lon="121.5668926"></trkpt>
      <trkpt lat="25.0457835" lon="121.5669649"></trkpt>
      <trkpt lat="25.0456731" lon="121.5669160"></trkpt>
      <trkpt lat="25.0456468" lon="121.5669257"></trkpt>
      <trkpt lat="25.0456107" lon="121.5669282"></trkpt>
      <trkpt lat="25.0455084" lon="121.5668713"></trkpt>
      <trkpt lat="25.0454048" lon="121.5668275"></trkpt>
      <trkpt lat="25.0453670" lon="121.5668115"></trkpt>
      <trkpt lat="25.0453653" lon="121.5668723"></trkpt>
      <trkpt lat="25.0452198" lon="121.5668152"></trkpt>
      <trkpt lat="25.0442176" lon="121.5662073"></trkpt>
      <trkpt lat="25.0437199" lon="121.5659075"></trkpt>
      <trkpt lat="25.0436793" lon="121.5658831"></trkpt>
      <trkpt lat="25.0436304" lon="121.5658536"></trkpt>
      <trkpt lat="25.0435296" lon="121.5657929"></trkpt>
      <trkpt lat="25.0433812" lon="121.5658325"></trkpt>
      <trkpt lat="25.0433495" lon="121.5658952"></trkpt>
      <trkpt lat="25.0433104" lon="121.5660686"></trkpt>
      <trkpt lat="25.0432674" lon="121.5665001"></trkpt>
      <trkpt lat="25.0431896" lon="121.5664510"></trkpt>
      <trkpt lat="25.0427809" lon="121.5662115"></trkpt>
      <trkpt lat="25.0424628" lon="121.5660138"></trkpt>
      <trkpt lat="25.0424007" lon="121.5659752"></trkpt>
      <trkpt lat="25.0420267" lon="121.5657637"></trkpt>
      <trkpt lat="25.0416546" lon="121.5655602"></trkpt>
      <trkpt lat="25.0416509" lon="121.5657925"></trkpt>
      <trkpt lat="25.0415407" lon="121.5657895"></trkpt>
      <trkpt lat="25.0415000" lon="121.5658035"></trkpt>
      <trkpt lat="25.0414710" lon="121.5658335"></trkpt>
      <trkpt lat="25.0414402" lon="121.5658555"></trkpt>
      <trkpt lat="25.0414058" lon="121.5658645"></trkpt>
      <trkpt lat="25.0412539" lon="121.5658614"></trkpt>
      <trkpt lat="25.0412493" lon="121.5660019"></trkpt>
      <trkpt lat="25.0411719" lon="121.5660004"></trkpt>
      <trkpt lat="25.0410550" lon="121.5659962"></trkpt>
      <trkpt lat="25.0409899" lon="121.5659942"></trkpt>
      <trkpt lat="25.0409798" lon="121.5660107"></trkpt>
      <trkpt lat="25.0409756" lon="121.5661394"></trkpt>
      <trkpt lat="25.0409401" lon="121.5661386"></trkpt>
      <trkpt lat="25.0408179" lon="121.5661359"></trkpt>
      <trkpt lat="25.0402331" lon="121.5661230"></trkpt>
      <trkpt lat="25.0400789" lon="121.5661196"></trkpt>
      <trkpt lat="25.0400422" lon="121.5661188"></trkpt>
      <trkpt lat="25.0399499" lon="121.5661167"></trkpt>
      <trkpt lat="25.0399337" lon="121.5661164"></trkpt>
      <trkpt lat="25.0396873" lon="121.5661110"></trkpt>
      <trkpt lat="25.0394379" lon="121.5661055"></trkpt>
      <trkpt lat="25.0392398" lon="121.5661011"></trkpt>
      <trkpt lat="25.0391181" lon="121.5660984"></trkpt>
      <trkpt lat="25.0391232" lon="121.5658176"></trkpt>
      <trkpt lat="25.0391266" lon="121.5656990"></trkpt>
      <trkpt lat="25.0389882" lon="121.5656986"></trkpt>
      <trkpt lat="25.0389885" lon="121.5658146"></trkpt>
      <trkpt lat="25.0383562" lon="121.5658007"></trkpt>
      <trkpt lat="25.0378995" lon="121.5657906"></trkpt>
      <trkpt lat="25.0378471" lon="121.5657894"></trkpt>
      <trkpt lat="25.0375353" lon="121.5657826"></trkpt>
      <trkpt lat="25.0374343" lon="121.5657804"></trkpt>
      <trkpt lat="25.0370505" lon="121.5657719"></trkpt>
      <trkpt lat="25.0370495" lon="121.5658330"></trkpt>
      <trkpt lat="25.0370448" lon="121.5661171"></trkpt>
      <trkpt lat="25.0370397" lon="121.5664230"></trkpt>
      <trkpt lat="25.0363442" lon="121.5664083"></trkpt>
      <trkpt lat="25.0363112" lon="121.5664076"></trkpt>
      <trkpt lat="25.0359613" lon="121.5663971"></trkpt>
      <trkpt lat="25.0358534" lon="121.5663989"></trkpt>
      <trkpt lat="25.0357522" lon="121.5663948"></trkpt>
      <trkpt lat="25.0351053" lon="121.5663825"></trkpt>
      <trkpt lat="25.0357522" lon="121.5663948"></trkpt>
      <trkpt lat="25.0357539" lon="121.5663030"></trkpt>
      <trkpt lat="25.0357546" lon="121.5657423"></trkpt>
      <trkpt lat="25.0350009" lon="121.5657267"></trkpt>
      <trkpt lat="25.0348639" lon="121.5657236"></trkpt>
      <trkpt lat="25.0348661" lon="121.5655951"></trkpt>
      <trkpt lat="25.0347921" lon="121.5655934"></trkpt>
      <trkpt lat="25.0341133" lon="121.5655779"></trkpt>
      <trkpt lat="25.0340610" lon="121.5655750"></trkpt>
      <trkpt lat="25.0340149" lon="121.5655753"></trkpt>
      <trkpt lat="25.0338993" lon="121.5655731"></trkpt>
      <trkpt lat="25.0338437" lon="121.5655627"></trkpt>
      <trkpt lat="25.0331182" lon="121.5655487"></trkpt>
      <trkpt lat="25.0330739" lon="121.5655458"></trkpt>
      <trkpt lat="25.0329550" lon="121.5655425"></trkpt>
      <trkpt lat="25.0328421" lon="121.5655396"></trkpt>
      <trkpt lat="25.0327777" lon="121.5655379"></trkpt>
      <trkpt lat="25.0327692" lon="121.5664502"></trkpt>
      <trkpt lat="25.0319994" lon="121.5664362"></trkpt>
      <trkpt lat="25.0319480" lon="121.5664364"></trkpt>
      <trkpt lat="25.0318736" lon="121.5664335"></trkpt>
      <trkpt lat="25.0314754" lon="121.5664285"></trkpt>
      <trkpt lat="25.0312118" lon="121.5664241"></trkpt>
      <trkpt lat="25.0309823" lon="121.5664202"></trkpt>
      <trkpt lat="25.0308023" lon="121.5664172"></trkpt>
      <trkpt lat="25.0306648" lon="121.5664149"></trkpt>
      <trkpt lat="25.0305309" lon="121.5664126"></trkpt>
      <trkpt lat="25.0304560" lon="121.5664486"></trkpt>
      <trkpt lat="25.0304091" lon="121.5664513"></trkpt>
      <trkpt lat="25.0300710" lon="121.5663934"></trkpt>
      <trkpt lat="25.0295552" lon="121.5663178"></trkpt>
      <trkpt lat="25.0285476" lon="121.5667702"></trkpt>
      <trkpt lat="25.0285389" lon="121.5670107"></trkpt>
      <trkpt lat="25.0281703" lon="121.5668944"></trkpt>
      <trkpt lat="25.0279559" lon="121.5668267"></trkpt>
      <trkpt lat="25.0276070" lon="121.5667166"></trkpt>
      <trkpt lat="25.0272836" lon="121.5665827"></trkpt>
      <trkpt lat="25.0272119" lon="121.5665530"></trkpt>
      <trkpt lat="25.0272627" lon="121.5663866"></trkpt>
      <trkpt lat="25.0270265" lon="121.5662996"></trkpt>
      <trkpt lat="25.0268450" lon="121.5662451"></trkpt>
      <trkpt lat="25.0266407" lon="121.5665951"></trkpt>
      <trkpt lat="25.0265193" lon="121.5663631"></trkpt>
      <trkpt lat="25.0259277" lon="121.5667753"></trkpt>
      <trkpt lat="25.0257716" lon="121.5664718"></trkpt>
      <trkpt lat="25.0254551" lon="121.5667134"></trkpt>
      <trkpt lat="25.0257716" lon="121.5664718"></trkpt>
      <trkpt lat="25.0261158" lon="121.5662188"></trkpt>
      <trkpt lat="25.0262105" lon="121.5661485"></trkpt>
      <trkpt lat="25.0265113" lon="121.5659114"></trkpt>
      <trkpt lat="25.0265080" lon="121.5654029"></trkpt>
      <trkpt lat="25.0264856" lon="121.5646597"></trkpt>
      <trkpt lat="25.0264801" lon="121.5643154"></trkpt>
      <trkpt lat="25.0264785" lon="121.5642189"></trkpt>
      <trkpt lat="25.0267174" lon="121.5639868"></trkpt>
      <trkpt lat="25.0267609" lon="121.5639445"></trkpt>
      <trkpt lat="25.0267226" lon="121.5638946"></trkpt>
      <trkpt lat="25.0265881" lon="121.5637200"></trkpt>
      <trkpt lat="25.0262817" lon="121.5633588"></trkpt>
      <trkpt lat="25.0262476" lon="121.5633207"></trkpt>
      <trkpt lat="25.0259834" lon="121.5630258"></trkpt>
      <trkpt lat="25.0259490" lon="121.5629876"></trkpt>
      <trkpt lat="25.0258450" lon="121.5628723"></trkpt>
      <trkpt lat="25.0257088" lon="121.5626802"></trkpt>
      <trkpt lat="25.0255759" lon="121.5625188"></trkpt>
      <trkpt lat="25.0256728" lon="121.5623641"></trkpt>
      <trkpt lat="25.0249401" lon="121.5614426"></trkpt>
      <trkpt lat="25.0243567" lon="121.5607129"></trkpt>
      <trkpt lat="25.0242486" lon="121.5607697"></trkpt>
      <trkpt lat="25.0242181" lon="121.5607310"></trkpt>
      <trkpt lat="25.0247063" lon="121.5603221"></trkpt>
      <trkpt lat="25.0248989" lon="121.5601789"></trkpt>
      <trkpt lat="25.0250734" lon="121.5600344"></trkpt>
      <trkpt lat="25.0251388" lon="121.5599924"></trkpt>
      <trkpt lat="25.0251573" lon="121.5599511"></trkpt>
      <trkpt lat="25.0251650" lon="121.5599161"></trkpt>
      <trkpt lat="25.0251931" lon="121.5598311"></trkpt>
      <trkpt lat="25.0251890" lon="121.5597740"></trkpt>
      <trkpt lat="25.0251197" lon="121.5594144"></trkpt>
      <trkpt lat="25.0251119" lon="121.5593945"></trkpt>
      <trkpt lat="25.0249091" lon="121.5590499"></trkpt>
      <trkpt lat="25.0249050" lon="121.5590291"></trkpt>
      <trkpt lat="25.0249092" lon="121.5590046"></trkpt>
      <trkpt lat="25.0250505" lon="121.5586380"></trkpt>
      <trkpt lat="25.0251766" lon="121.5583457"></trkpt>
      <trkpt lat="25.0251857" lon="121.5583044"></trkpt>
      <trkpt lat="25.0252202" lon="121.5575964"></trkpt>
      <trkpt lat="25.0254178" lon="121.5572466"></trkpt>
      <trkpt lat="25.0255825" lon="121.5569550"></trkpt>
      <trkpt lat="25.0256035" lon="121.5569179"></trkpt>
      <trkpt lat="25.0256570" lon="121.5567829"></trkpt>
      <trkpt lat="25.0258487" lon="121.5562265"></trkpt>
      <trkpt lat="25.0256359" lon="121.5561293"></trkpt>
      <trkpt lat="25.0248603" lon="121.5557966"></trkpt>
      <trkpt lat="25.0246169" lon="121.5556966"></trkpt>
      <trkpt lat="25.0243279" lon="121.5553154"></trkpt>
      <trkpt lat="25.0243067" lon="121.5553099"></trkpt>
      <trkpt lat="25.0242608" lon="121.5552981"></trkpt>
      <trkpt lat="25.0242620" lon="121.5552368"></trkpt>
      <trkpt lat="25.0242685" lon="121.5548888"></trkpt>
      <trkpt lat="25.0246134" lon="121.5549008"></trkpt>
      <trkpt lat="25.0249287" lon="121.5548963"></trkpt>
      <trkpt lat="25.0250681" lon="121.5548968"></trkpt>
      <trkpt lat="25.0253473" lon="121.5546255"></trkpt>
      <trkpt lat="25.0252710" lon="121.5544885"></trkpt>
      <trkpt lat="25.0252667" lon="121.5544456"></trkpt>
      <trkpt lat="25.0253223" lon="121.5542432"></trkpt>
      <trkpt lat="25.0253567" lon="121.5541372"></trkpt>
      <trkpt lat="25.0254379" lon="121.5538494"></trkpt>
      <trkpt lat="25.0253478" lon="121.5537121"></trkpt>
      <trkpt lat="25.0250887" lon="121.5534351"></trkpt>
      <trkpt lat="25.0247356" lon="121.5530576"></trkpt>
      <trkpt lat="25.0246146" lon="121.5529283"></trkpt>
      <trkpt lat="25.0246299" lon="121.5529103"></trkpt>
      <trkpt lat="25.0247030" lon="121.5528291"></trkpt>
      <trkpt lat="25.0247575" lon="121.5527719"></trkpt>
      <trkpt lat="25.0247762" lon="121.5527163"></trkpt>
      <trkpt lat="25.0247913" lon="121.5526593"></trkpt>
      <trkpt lat="25.0248026" lon="121.5526012"></trkpt>
      <trkpt lat="25.0248101" lon="121.5525424"></trkpt>
      <trkpt lat="25.0248138" lon="121.5524832"></trkpt>
      <trkpt lat="25.0247955" lon="121.5524278"></trkpt>
      <trkpt lat="25.0249773" lon="121.5523557"></trkpt>
      <trkpt lat="25.0250687" lon="121.5523179"></trkpt>
      <trkpt lat="25.0252205" lon="121.5522621"></trkpt>
      <trkpt lat="25.0254696" lon="121.5521703"></trkpt>
      <trkpt lat="25.0254510" lon="121.5521146"></trkpt>
      <trkpt lat="25.0254386" lon="121.5520680"></trkpt>
      <trkpt lat="25.0253101" lon="121.5515844"></trkpt>
      <trkpt lat="25.0253425" lon="121.5508270"></trkpt>
      <trkpt lat="25.0253539" lon="121.5506456"></trkpt>
      <trkpt lat="25.0253607" lon="121.5504654"></trkpt>
      <trkpt lat="25.0251268" lon="121.5505311"></trkpt>
      <trkpt lat="25.0249882" lon="121.5505611"></trkpt>
      <trkpt lat="25.0248214" lon="121.5505886"></trkpt>
      <trkpt lat="25.0245999" lon="121.5505798"></trkpt>
      <trkpt lat="25.0245988" lon="121.5504818"></trkpt>
      <trkpt lat="25.0246102" lon="121.5503599"></trkpt>
      <trkpt lat="25.0246179" lon="121.5502599"></trkpt>
      <trkpt lat="25.0246250" lon="121.5502108"></trkpt>
      <trkpt lat="25.0246475" lon="121.5495003"></trkpt>
      <trkpt lat="25.0246638" lon="121.5490629"></trkpt>
      <trkpt lat="25.0246105" lon="121.5490628"></trkpt>
      <trkpt lat="25.0246178" lon="121.5489620"></trkpt>
      <trkpt lat="25.0246324" lon="121.5487098"></trkpt>
      <trkpt lat="25.0246445" lon="121.5484773"></trkpt>
      <trkpt lat="25.0246457" lon="121.5483549"></trkpt>
      <trkpt lat="25.0246936" lon="121.5483601"></trkpt>
      <trkpt lat="25.0246880" lon="121.5483306"></trkpt>
      <trkpt lat="25.0247313" lon="121.5478902"></trkpt>
      <trkpt lat="25.0247318" lon="121.5478495"></trkpt>
      <trkpt lat="25.0247332" lon="121.5478238"></trkpt>
      <trkpt lat="25.0247915" lon="121.5467585"></trkpt>
      <trkpt lat="25.0247942" lon="121.5467089"></trkpt>
      <trkpt lat="25.0247981" lon="121.5466661"></trkpt>
      <trkpt lat="25.0247998" lon="121.5466441"></trkpt>
      <trkpt lat="25.0248268" lon="121.5462775"></trkpt>
      <trkpt lat="25.0250803" lon="121.5463145"></trkpt>
      <trkpt lat="25.0248268" lon="121.5462775"></trkpt>
      <trkpt lat="25.0248499" lon="121.5458574"></trkpt>
      <trkpt lat="25.0248879" lon="121.5451986"></trkpt>
      <trkpt lat="25.0248958" lon="121.5451188"></trkpt>
      <trkpt lat="25.0249004" lon="121.5450587"></trkpt>
      <trkpt lat="25.0248916" lon="121.5449848"></trkpt>
      <trkpt lat="25.0249185" lon="121.5444342"></trkpt>
      <trkpt lat="25.0249490" lon="121.5440348"></trkpt>
      <trkpt lat="25.0249509" lon="121.5440091"></trkpt>
      <trkpt lat="25.0249543" lon="121.5439725"></trkpt>
      <trkpt lat="25.0249873" lon="121.5436168"></trkpt>
      <trkpt lat="25.0250236" lon="121.5436030"></trkpt>
      <trkpt lat="25.0257420" lon="121.5436172"></trkpt>
      <trkpt lat="25.0264936" lon="121.5436321"></trkpt>
      <trkpt lat="25.0265386" lon="121.5436330"></trkpt>
      <trkpt lat="25.0266217" lon="121.5436346"></trkpt>
      <trkpt lat="25.0273335" lon="121.5436490"></trkpt>
      <trkpt lat="25.0277242" lon="121.5436572"></trkpt>
      <trkpt lat="25.0277472" lon="121.5436569"></trkpt>
      <trkpt lat="25.0283115" lon="121.5436851"></trkpt>
      <trkpt lat="25.0283442" lon="121.5436866"></trkpt>
      <trkpt lat="25.0284021" lon="121.5436892"></trkpt>
      <trkpt lat="25.0284583" lon="121.5436891"></trkpt>
      <trkpt lat="25.0284846" lon="121.5436891"></trkpt>
      <trkpt lat="25.0291432" lon="121.5436845"></trkpt>
      <trkpt lat="25.0291838" lon="121.5436853"></trkpt>
      <trkpt lat="25.0298237" lon="121.5436980"></trkpt>
      <trkpt lat="25.0299340" lon="121.5437002"></trkpt>
      <trkpt lat="25.0300723" lon="121.5436995"></trkpt>
      <trkpt lat="25.0303337" lon="121.5436982"></trkpt>
      <trkpt lat="25.0302325" lon="121.5437719"></trkpt>
      <trkpt lat="25.0304283" lon="121.5442183"></trkpt>
      <trkpt lat="25.0305558" lon="121.5441660"></trkpt>
      <trkpt lat="25.0305661" lon="121.5441052"></trkpt>
      <trkpt lat="25.0308833" lon="121.5438764"></trkpt>
      <trkpt lat="25.0310639" lon="121.5439521"></trkpt>
      <trkpt lat="25.0312512" lon="121.5440018"></trkpt>
      <trkpt lat="25.0313405" lon="121.5440065"></trkpt>
      <trkpt lat="25.0313720" lon="121.5440082"></trkpt>
      <trkpt lat="25.0315388" lon="121.5440171"></trkpt>
      <trkpt lat="25.0317280" lon="121.5440228"></trkpt>
      <trkpt lat="25.0317800" lon="121.5440233"></trkpt>
      <trkpt lat="25.0318756" lon="121.5440243"></trkpt>
      <trkpt lat="25.0320716" lon="121.5440279"></trkpt>
      <trkpt lat="25.0324333" lon="121.5439497"></trkpt>
      <trkpt lat="25.0324592" lon="121.5439484"></trkpt>
      <trkpt lat="25.0328039" lon="121.5439185"></trkpt>
      <trkpt lat="25.0328124" lon="121.5437571"></trkpt>
      <trkpt lat="25.0331452" lon="121.5437637"></trkpt>
      <trkpt lat="25.0332145" lon="121.5438489"></trkpt>
      <trkpt lat="25.0332907" lon="121.5438497"></trkpt>
      <trkpt lat="25.0333563" lon="121.5438504"></trkpt>
      <trkpt lat="25.0334077" lon="121.5438509"></trkpt>
      <trkpt lat="25.0334653" lon="121.5438515"></trkpt>
      <trkpt lat="25.0335329" lon="121.5438522"></trkpt>
      <trkpt lat="25.0336058" lon="121.5437724"></trkpt>
      <trkpt lat="25.0339837" lon="121.5437771"></trkpt>
      <trkpt lat="25.0340232" lon="121.5438187"></trkpt>
      <trkpt lat="25.0341769" lon="121.5438194"></trkpt>
      <trkpt lat="25.0343458" lon="121.5437926"></trkpt>
      <trkpt lat="25.0343853" lon="121.5437933"></trkpt>
      <trkpt lat="25.0349928" lon="121.5438043"></trkpt>
      <trkpt lat="25.0351182" lon="121.5438065"></trkpt>
      <trkpt lat="25.0351602" lon="121.5438073"></trkpt>
      <trkpt lat="25.0351794" lon="121.5438077"></trkpt>
      <trkpt lat="25.0352225" lon="121.5438085"></trkpt>
      <trkpt lat="25.0355955" lon="121.5438153"></trkpt>
      <trkpt lat="25.0356199" lon="121.5438157"></trkpt>
      <trkpt lat="25.0356384" lon="121.5438162"></trkpt>
      <trkpt lat="25.0358060" lon="121.5438211"></trkpt>
      <trkpt lat="25.0359932" lon="121.5438224"></trkpt>
      <trkpt lat="25.0359977" lon="121.5437287"></trkpt>
      <trkpt lat="25.0360767" lon="121.5437303"></trkpt>
      <trkpt lat="25.0361631" lon="121.5437320"></trkpt>
      <trkpt lat="25.0368158" lon="121.5437448"></trkpt>
      <trkpt lat="25.0377016" lon="121.5437559"></trkpt>
      <trkpt lat="25.0377844" lon="121.5437575"></trkpt>
      <trkpt lat="25.0378741" lon="121.5437593"></trkpt>
      <trkpt lat="25.0378724" lon="121.5438691"></trkpt>
      <trkpt lat="25.0379074" lon="121.5438671"></trkpt>
      <trkpt lat="25.0380157" lon="121.5438697"></trkpt>
      <trkpt lat="25.0380470" lon="121.5438703"></trkpt>
      <trkpt lat="25.0380725" lon="121.5438709"></trkpt>
      <trkpt lat="25.0381522" lon="121.5438727"></trkpt>
      <trkpt lat="25.0382223" lon="121.5438743"></trkpt>
      <trkpt lat="25.0382462" lon="121.5438590"></trkpt>
      <trkpt lat="25.0387328" lon="121.5438795"></trkpt>
      <trkpt lat="25.0390399" lon="121.5438858"></trkpt>
      <trkpt lat="25.0397170" lon="121.5439003"></trkpt>
      <trkpt lat="25.0398225" lon="121.5439007"></trkpt>
      <trkpt lat="25.0398846" lon="121.5439022"></trkpt>
      <trkpt lat="25.0405518" lon="121.5439233"></trkpt>
      <trkpt lat="25.0408479" lon="121.5439288"></trkpt>
      <trkpt lat="25.0411348" lon="121.5439390"></trkpt>
      <trkpt lat="25.0413728" lon="121.5439464"></trkpt>
      <trkpt lat="25.0414298" lon="121.5439469"></trkpt>
      <trkpt lat="25.0414516" lon="121.5439669"></trkpt>
      <trkpt lat="25.0415533" lon="121.5439714"></trkpt>
      <trkpt lat="25.0416782" lon="121.5439715"></trkpt>
      <trkpt lat="25.0417850" lon="121.5439740"></trkpt>
      <trkpt lat="25.0418431" lon="121.5439632"></trkpt>
      <trkpt lat="25.0420250" lon="121.5439662"></trkpt>
      <trkpt lat="25.0425177" lon="121.5439764"></trkpt>
      <trkpt lat="25.0426889" lon="121.5439804"></trkpt>
      <trkpt lat="25.0431348" lon="121.5439934"></trkpt>
      <trkpt lat="25.0431365" lon="121.5438857"></trkpt>
      <trkpt lat="25.0436380" lon="121.5439007"></trkpt>
      <trkpt lat="25.0444063" lon="121.5439236"></trkpt>
      <trkpt lat="25.0446521" lon="121.5439303"></trkpt>
      <trkpt lat="25.0447557" lon="121.5439352"></trkpt>
      <trkpt lat="25.0449789" lon="121.5439383"></trkpt>
      <trkpt lat="25.0450304" lon="121.5439396"></trkpt>
      <trkpt lat="25.0455158" lon="121.5439514"></trkpt>
      <trkpt lat="25.0464715" lon="121.5439747"></trkpt>
      <trkpt lat="25.0466303" lon="121.5439786"></trkpt>
      <trkpt lat="25.0473171" lon="121.5439978"></trkpt>
      <trkpt lat="25.0473642" lon="121.5439991"></trkpt>
      <trkpt lat="25.0474518" lon="121.5440016"></trkpt>
      <trkpt lat="25.0475992" lon="121.5440063"></trkpt>
      <trkpt lat="25.0475633" lon="121.5438654"></trkpt>
      <trkpt lat="25.0475296" lon="121.5437531"></trkpt>
      <trkpt lat="25.0475229" lon="121.5437217"></trkpt>
      <trkpt lat="25.0474928" lon="121.5436041"></trkpt>
      <trkpt lat="25.0474804" lon="121.5435559"></trkpt>
      <trkpt lat="25.0474555" lon="121.5434591"></trkpt>
      <trkpt lat="25.0475333" lon="121.5434347"></trkpt>
      <trkpt lat="25.0477907" lon="121.5433664"></trkpt>
      <trkpt lat="25.0477474" lon="121.5421332"></trkpt>
      <trkpt lat="25.0477330" lon="121.5412826"></trkpt>
      <trkpt lat="25.0473931" lon="121.5413704"></trkpt>
      <trkpt lat="25.0473166" lon="121.5408798"></trkpt>
      <trkpt lat="25.0472781" lon="121.5403880"></trkpt>
      <trkpt lat="25.0473057" lon="121.5394455"></trkpt>
      <trkpt lat="25.0473166" lon="121.5390728"></trkpt>
      <trkpt lat="25.0477808" lon="121.5390879"></trkpt>
      <trkpt lat="25.0477446" lon="121.5403887"></trkpt>
      <trkpt lat="25.0477330" lon="121.5412826"></trkpt>
      <trkpt lat="25.0477474" lon="121.5421332"></trkpt>
      <trkpt lat="25.0475068" lon="121.5421347"></trkpt>
      <trkpt lat="25.0472639" lon="121.5421819"></trkpt>
      <trkpt lat="25.0472245" lon="121.5421903"></trkpt>
      <trkpt lat="25.0471397" lon="121.5422136"></trkpt>
      <trkpt lat="25.0471589" lon="121.5423217"></trkpt>
      <trkpt lat="25.0471686" lon="121.5423620"></trkpt>
      <trkpt lat="25.0471814" lon="121.5424153"></trkpt>
      <trkpt lat="25.0472662" lon="121.5427172"></trkpt>
      <trkpt lat="25.0474280" lon="121.5433524"></trkpt>
      <trkpt lat="25.0474555" lon="121.5434591"></trkpt>
      <trkpt lat="25.0474804" lon="121.5435559"></trkpt>
      <trkpt lat="25.0474928" lon="121.5436041"></trkpt>
      <trkpt lat="25.0475229" lon="121.5437217"></trkpt>
      <trkpt lat="25.0475296" lon="121.5437531"></trkpt>
      <trkpt lat="25.0475633" lon="121.5438654"></trkpt>
      <trkpt lat="25.0475992" lon="121.5440063"></trkpt>
      <trkpt lat="25.0476335" lon="121.5441454"></trkpt>
      <trkpt lat="25.0476503" lon="121.5442162"></trkpt>
      <trkpt lat="25.0476615" lon="121.5442633"></trkpt>
      <trkpt lat="25.0478235" lon="121.5449455"></trkpt>
      <trkpt lat="25.0478953" lon="121.5452472"></trkpt>
      <trkpt lat="25.0479676" lon="121.5455512"></trkpt>
      <trkpt lat="25.0479808" lon="121.5456070"></trkpt>
      <trkpt lat="25.0480022" lon="121.5456968"></trkpt>
      <trkpt lat="25.0480466" lon="121.5458956"></trkpt>
      <trkpt lat="25.0480512" lon="121.5459359"></trkpt>
      <trkpt lat="25.0480605" lon="121.5459799"></trkpt>
      <trkpt lat="25.0481239" lon="121.5463938"></trkpt>
      <trkpt lat="25.0481427" lon="121.5465967"></trkpt>
      <trkpt lat="25.0481485" lon="121.5466714"></trkpt>
      <trkpt lat="25.0481536" lon="121.5467364"></trkpt>
      <trkpt lat="25.0481563" lon="121.5467709"></trkpt>
      <trkpt lat="25.0482040" lon="121.5468407"></trkpt>
      <trkpt lat="25.0482047" lon="121.5468791"></trkpt>
      <trkpt lat="25.0482047" lon="121.5469345"></trkpt>
      <trkpt lat="25.0482047" lon="121.5469941"></trkpt>
      <trkpt lat="25.0482047" lon="121.5472451"></trkpt>
      <trkpt lat="25.0482047" lon="121.5473035"></trkpt>
      <trkpt lat="25.0482047" lon="121.5473526"></trkpt>
      <trkpt lat="25.0482051" lon="121.5474292"></trkpt>
      <trkpt lat="25.0482048" lon="121.5475069"></trkpt>
      <trkpt lat="25.0482047" lon="121.5475318"></trkpt>
      <trkpt lat="25.0482045" lon="121.5475920"></trkpt>
      <trkpt lat="25.0482040" lon="121.5477135"></trkpt>
      <trkpt lat="25.0482062" lon="121.5483804"></trkpt>
      <trkpt lat="25.0482064" lon="121.5484500"></trkpt>
      <trkpt lat="25.0482067" lon="121.5485455"></trkpt>
      <trkpt lat="25.0482059" lon="121.5486680"></trkpt>
      <trkpt lat="25.0480422" lon="121.5486669"></trkpt>
      <trkpt lat="25.0480436" lon="121.5485386"></trkpt>
      <trkpt lat="25.0482067" lon="121.5485455"></trkpt>
      <trkpt lat="25.0482064" lon="121.5484500"></trkpt>
      <trkpt lat="25.0482062" lon="121.5483804"></trkpt>
      <trkpt lat="25.0482040" lon="121.5477135"></trkpt>
      <trkpt lat="25.0482045" lon="121.5475920"></trkpt>
      <trkpt lat="25.0482047" lon="121.5475318"></trkpt>
      <trkpt lat="25.0482048" lon="121.5475069"></trkpt>
      <trkpt lat="25.0482051" lon="121.5474292"></trkpt>
      <trkpt lat="25.0482047" lon="121.5473526"></trkpt>
      <trkpt lat="25.0482047" lon="121.5473035"></trkpt>
      <trkpt lat="25.0482047" lon="121.5472451"></trkpt>
      <trkpt lat="25.0482047" lon="121.5469941"></trkpt>
      <trkpt lat="25.0482047" lon="121.5469345"></trkpt>
      <trkpt lat="25.0482047" lon="121.5468791"></trkpt>
      <trkpt lat="25.0482040" lon="121.5468407"></trkpt>
      <trkpt lat="25.0482324" lon="121.5467691"></trkpt>
      <trkpt lat="25.0482295" lon="121.5463858"></trkpt>
      <trkpt lat="25.0481502" lon="121.5461339"></trkpt>
      <trkpt lat="25.0481353" lon="121.5460939"></trkpt>
      <trkpt lat="25.0481177" lon="121.5460466"></trkpt>
      <trkpt lat="25.0480605" lon="121.5459799"></trkpt>
      <trkpt lat="25.0480512" lon="121.5459359"></trkpt>
      <trkpt lat="25.0480466" lon="121.5458956"></trkpt>
      <trkpt lat="25.0480022" lon="121.5456968"></trkpt>
      <trkpt lat="25.0479808" lon="121.5456070"></trkpt>
      <trkpt lat="25.0479676" lon="121.5455512"></trkpt>
      <trkpt lat="25.0478953" lon="121.5452472"></trkpt>
      <trkpt lat="25.0478235" lon="121.5449455"></trkpt>
      <trkpt lat="25.0476615" lon="121.5442633"></trkpt>
      <trkpt lat="25.0476503" lon="121.5442162"></trkpt>
      <trkpt lat="25.0476335" lon="121.5441454"></trkpt>
      <trkpt lat="25.0475992" lon="121.5440063"></trkpt>
      <trkpt lat="25.0475633" lon="121.5438654"></trkpt>
      <trkpt lat="25.0474380" lon="121.5438611"></trkpt>
      <trkpt lat="25.0470794" lon="121.5438537"></trkpt>
      <trkpt lat="25.0468991" lon="121.5438469"></trkpt>
      <trkpt lat="25.0464469" lon="121.5438351"></trkpt>
      <trkpt lat="25.0455628" lon="121.5438099"></trkpt>
      <trkpt lat="25.0450231" lon="121.5437968"></trkpt>
      <trkpt lat="25.0449613" lon="121.5437953"></trkpt>
      <trkpt lat="25.0447395" lon="121.5437875"></trkpt>
      <trkpt lat="25.0446452" lon="121.5437839"></trkpt>
      <trkpt lat="25.0443148" lon="121.5437763"></trkpt>
      <trkpt lat="25.0437567" lon="121.5437634"></trkpt>
      <trkpt lat="25.0431387" lon="121.5437442"></trkpt>
      <trkpt lat="25.0431365" lon="121.5438857"></trkpt>
      <trkpt lat="25.0431348" lon="121.5439934"></trkpt>
      <trkpt lat="25.0426889" lon="121.5439804"></trkpt>
      <trkpt lat="25.0425177" lon="121.5439764"></trkpt>
      <trkpt lat="25.0420250" lon="121.5439662"></trkpt>
      <trkpt lat="25.0418431" lon="121.5439632"></trkpt>
      <trkpt lat="25.0417850" lon="121.5439740"></trkpt>
      <trkpt lat="25.0416782" lon="121.5439715"></trkpt>
      <trkpt lat="25.0415533" lon="121.5439714"></trkpt>
      <trkpt lat="25.0414516" lon="121.5439669"></trkpt>
      <trkpt lat="25.0414298" lon="121.5439469"></trkpt>
      <trkpt lat="25.0413728" lon="121.5439464"></trkpt>
      <trkpt lat="25.0411348" lon="121.5439390"></trkpt>
      <trkpt lat="25.0408479" lon="121.5439288"></trkpt>
      <trkpt lat="25.0405518" lon="121.5439233"></trkpt>
      <trkpt lat="25.0398846" lon="121.5439022"></trkpt>
      <trkpt lat="25.0398225" lon="121.5439007"></trkpt>
      <trkpt lat="25.0397170" lon="121.5439003"></trkpt>
      <trkpt lat="25.0390399" lon="121.5438858"></trkpt>
      <trkpt lat="25.0387328" lon="121.5438795"></trkpt>
      <trkpt lat="25.0382462" lon="121.5438590"></trkpt>
      <trkpt lat="25.0382223" lon="121.5438743"></trkpt>
      <trkpt lat="25.0381522" lon="121.5438727"></trkpt>
      <trkpt lat="25.0380725" lon="121.5438709"></trkpt>
      <trkpt lat="25.0380470" lon="121.5438703"></trkpt>
      <trkpt lat="25.0380157" lon="121.5438697"></trkpt>
      <trkpt lat="25.0379074" lon="121.5438671"></trkpt>
      <trkpt lat="25.0378724" lon="121.5438691"></trkpt>
      <trkpt lat="25.0377811" lon="121.5438744"></trkpt>
      <trkpt lat="25.0377844" lon="121.5437575"></trkpt>
      <trkpt lat="25.0377882" lon="121.5436229"></trkpt>
      <trkpt lat="25.0377168" lon="121.5436212"></trkpt>
      <trkpt lat="25.0371568" lon="121.5436241"></trkpt>
      <trkpt lat="25.0361639" lon="121.5436011"></trkpt>
      <trkpt lat="25.0360893" lon="121.5435994"></trkpt>
      <trkpt lat="25.0360767" lon="121.5437303"></trkpt>
      <trkpt lat="25.0360749" lon="121.5438242"></trkpt>
      <trkpt lat="25.0359932" lon="121.5438224"></trkpt>
      <trkpt lat="25.0358060" lon="121.5438211"></trkpt>
      <trkpt lat="25.0356384" lon="121.5438162"></trkpt>
      <trkpt lat="25.0356199" lon="121.5438157"></trkpt>
      <trkpt lat="25.0355955" lon="121.5438153"></trkpt>
      <trkpt lat="25.0352225" lon="121.5438085"></trkpt>
      <trkpt lat="25.0351794" lon="121.5438077"></trkpt>
      <trkpt lat="25.0351602" lon="121.5438073"></trkpt>
      <trkpt lat="25.0351182" lon="121.5438065"></trkpt>
      <trkpt lat="25.0349928" lon="121.5438043"></trkpt>
      <trkpt lat="25.0343853" lon="121.5437933"></trkpt>
      <trkpt lat="25.0343458" lon="121.5437926"></trkpt>
      <trkpt lat="25.0341769" lon="121.5438194"></trkpt>
      <trkpt lat="25.0340232" lon="121.5438187"></trkpt>
      <trkpt lat="25.0339837" lon="121.5437771"></trkpt>
      <trkpt lat="25.0336058" lon="121.5437724"></trkpt>
      <trkpt lat="25.0335329" lon="121.5438522"></trkpt>
      <trkpt lat="25.0334653" lon="121.5438515"></trkpt>
      <trkpt lat="25.0334077" lon="121.5438509"></trkpt>
      <trkpt lat="25.0333563" lon="121.5438504"></trkpt>
      <trkpt lat="25.0332907" lon="121.5438497"></trkpt>
      <trkpt lat="25.0332145" lon="121.5438489"></trkpt>
      <trkpt lat="25.0331452" lon="121.5437637"></trkpt>
      <trkpt lat="25.0328124" lon="121.5437571"></trkpt>
      <trkpt lat="25.0323943" lon="121.5437488"></trkpt>
      <trkpt lat="25.0320801" lon="121.5437426"></trkpt>
      <trkpt lat="25.0319281" lon="121.5437408"></trkpt>
      <trkpt lat="25.0317788" lon="121.5437374"></trkpt>
      <trkpt lat="25.0315358" lon="121.5437319"></trkpt>
      <trkpt lat="25.0313446" lon="121.5437281"></trkpt>
      <trkpt lat="25.0311122" lon="121.5437235"></trkpt>
      <trkpt lat="25.0310797" lon="121.5437228"></trkpt>
      <trkpt lat="25.0310118" lon="121.5437215"></trkpt>
      <trkpt lat="25.0307771" lon="121.5437169"></trkpt>
      <trkpt lat="25.0303337" lon="121.5436982"></trkpt>
      <trkpt lat="25.0302325" lon="121.5437719"></trkpt>
      <trkpt lat="25.0300937" lon="121.5438819"></trkpt>
      <trkpt lat="25.0299756" lon="121.5439446"></trkpt>
      <trkpt lat="25.0296521" lon="121.5440626"></trkpt>
      <trkpt lat="25.0295780" lon="121.5441283"></trkpt>
      <trkpt lat="25.0295758" lon="121.5442154"></trkpt>
      <trkpt lat="25.0291390" lon="121.5442001"></trkpt>
      <trkpt lat="25.0291509" lon="121.5445780"></trkpt>
      <trkpt lat="25.0289329" lon="121.5445847"></trkpt>
      <trkpt lat="25.0288376" lon="121.5445876"></trkpt>
      <trkpt lat="25.0287743" lon="121.5445863"></trkpt>
      <trkpt lat="25.0286708" lon="121.5445777"></trkpt>
      <trkpt lat="25.0286199" lon="121.5445746"></trkpt>
      <trkpt lat="25.0283596" lon="121.5445615"></trkpt>
      <trkpt lat="25.0283833" lon="121.5440951"></trkpt>
      <trkpt lat="25.0280923" lon="121.5440866"></trkpt>
      <trkpt lat="25.0277210" lon="121.5440743"></trkpt>
      <trkpt lat="25.0273319" lon="121.5440638"></trkpt>
      <trkpt lat="25.0272247" lon="121.5440609"></trkpt>
      <trkpt lat="25.0271401" lon="121.5440587"></trkpt>
      <trkpt lat="25.0265370" lon="121.5440431"></trkpt>
      <trkpt lat="25.0257344" lon="121.5440403"></trkpt>
      <trkpt lat="25.0253865" lon="121.5440271"></trkpt>
      <trkpt lat="25.0249509" lon="121.5440091"></trkpt>
      <trkpt lat="25.0249077" lon="121.5440097"></trkpt>
      <trkpt lat="25.0249177" lon="121.5438435"></trkpt>
      <trkpt lat="25.0249317" lon="121.5436106"></trkpt>
      <trkpt lat="25.0248111" lon="121.5436011"></trkpt>
      <trkpt lat="25.0247405" lon="121.5435956"></trkpt>
      <trkpt lat="25.0247182" lon="121.5435531"></trkpt>
      <trkpt lat="25.0247208" lon="121.5434764"></trkpt>
      <trkpt lat="25.0247247" lon="121.5433637"></trkpt>
      <trkpt lat="25.0247276" lon="121.5432796"></trkpt>
      <trkpt lat="25.0247357" lon="121.5432196"></trkpt>
      <trkpt lat="25.0247820" lon="121.5428887"></trkpt>
      <trkpt lat="25.0249247" lon="121.5418355"></trkpt>
      <trkpt lat="25.0249283" lon="121.5418091"></trkpt>
      <trkpt lat="25.0249809" lon="121.5414209"></trkpt>
      <trkpt lat="25.0249883" lon="121.5413667"></trkpt>
      <trkpt lat="25.0250836" lon="121.5413809"></trkpt>
      <trkpt lat="25.0249883" lon="121.5413667"></trkpt>
      <trkpt lat="25.0249980" lon="121.5412961"></trkpt>
      <trkpt lat="25.0251306" lon="121.5403158"></trkpt>
      <trkpt lat="25.0251675" lon="121.5400437"></trkpt>
      <trkpt lat="25.0251982" lon="121.5398167"></trkpt>
      <trkpt lat="25.0252081" lon="121.5397436"></trkpt>
      <trkpt lat="25.0252152" lon="121.5396914"></trkpt>
      <trkpt lat="25.0252785" lon="121.5392238"></trkpt>
      <trkpt lat="25.0253264" lon="121.5388704"></trkpt>
      <trkpt lat="25.0253336" lon="121.5388168"></trkpt>
      <trkpt lat="25.0248995" lon="121.5387385"></trkpt>
      <trkpt lat="25.0249761" lon="121.5381832"></trkpt>
      <trkpt lat="25.0250051" lon="121.5379730"></trkpt>
      <trkpt lat="25.0250157" lon="121.5378962"></trkpt>
      <trkpt lat="25.0250201" lon="121.5375156"></trkpt>
      <trkpt lat="25.0249993" lon="121.5374389"></trkpt>
      <trkpt lat="25.0249634" lon="121.5373159"></trkpt>
      <trkpt lat="25.0249629" lon="121.5369338"></trkpt>
      <trkpt lat="25.0249834" lon="121.5366362"></trkpt>
      <trkpt lat="25.0249620" lon="121.5362367"></trkpt>
      <trkpt lat="25.0249616" lon="121.5359231"></trkpt>
      <trkpt lat="25.0249602" lon="121.5349195"></trkpt>
      <trkpt lat="25.0253919" lon="121.5349679"></trkpt>
      <trkpt lat="25.0256499" lon="121.5349969"></trkpt>
      <trkpt lat="25.0257177" lon="121.5350029"></trkpt>
      <trkpt lat="25.0257446" lon="121.5349896"></trkpt>
      <trkpt lat="25.0258002" lon="121.5349946"></trkpt>
      <trkpt lat="25.0258179" lon="121.5349882"></trkpt>
      <trkpt lat="25.0258388" lon="121.5350052"></trkpt>
      <trkpt lat="25.0258528" lon="121.5349094"></trkpt>
      <trkpt lat="25.0258730" lon="121.5347718"></trkpt>
      <trkpt lat="25.0254561" lon="121.5347265"></trkpt>
      <trkpt lat="25.0254612" lon="121.5346518"></trkpt>
      <trkpt lat="25.0254630" lon="121.5346269"></trkpt>
      <trkpt lat="25.0254783" lon="121.5344052"></trkpt>
      <trkpt lat="25.0254878" lon="121.5342676"></trkpt>
      <trkpt lat="25.0255203" lon="121.5337964"></trkpt>
      <trkpt lat="25.0255370" lon="121.5335521"></trkpt>
      <trkpt lat="25.0251888" lon="121.5335114"></trkpt>
      <trkpt lat="25.0252525" lon="121.5327803"></trkpt>
      <trkpt lat="25.0253552" lon="121.5317194"></trkpt>
      <trkpt lat="25.0253728" lon="121.5314991"></trkpt>
      <trkpt lat="25.0250932" lon="121.5314723"></trkpt>
      <trkpt lat="25.0248587" lon="121.5314425"></trkpt>
      <trkpt lat="25.0246856" lon="121.5314240"></trkpt>
      <trkpt lat="25.0247123" lon="121.5309424"></trkpt>
      <trkpt lat="25.0246961" lon="121.5307670"></trkpt>
      <trkpt lat="25.0245702" lon="121.5294004"></trkpt>
      <trkpt lat="25.0246405" lon="121.5290098"></trkpt>
      <trkpt lat="25.0246512" lon="121.5286602"></trkpt>
      <trkpt lat="25.0246540" lon="121.5285824"></trkpt>
      <trkpt lat="25.0249615" lon="121.5284853"></trkpt>
      <trkpt lat="25.0253080" lon="121.5283720"></trkpt>
      <trkpt lat="25.0250905" lon="121.5283226"></trkpt>
      <trkpt lat="25.0247594" lon="121.5282886"></trkpt>
      <trkpt lat="25.0247433" lon="121.5281606"></trkpt>
      <trkpt lat="25.0247442" lon="121.5280366"></trkpt>
      <trkpt lat="25.0248206" lon="121.5269506"></trkpt>
      <trkpt lat="25.0246636" lon="121.5269352"></trkpt>
      <trkpt lat="25.0245299" lon="121.5269222"></trkpt>
      <trkpt lat="25.0243333" lon="121.5269029"></trkpt>
      <trkpt lat="25.0243851" lon="121.5261972"></trkpt>
      <trkpt lat="25.0244252" lon="121.5255901"></trkpt>
      <trkpt lat="25.0243943" lon="121.5255562"></trkpt>
      <trkpt lat="25.0240115" lon="121.5251535"></trkpt>
      <trkpt lat="25.0238991" lon="121.5250288"></trkpt>
      <trkpt lat="25.0241600" lon="121.5248286"></trkpt>
      <trkpt lat="25.0242606" lon="121.5247528"></trkpt>
      <trkpt lat="25.0243967" lon="121.5246498"></trkpt>
      <trkpt lat="25.0246908" lon="121.5244269"></trkpt>
      <trkpt lat="25.0247114" lon="121.5244113"></trkpt>
      <trkpt lat="25.0247381" lon="121.5243911"></trkpt>
      <trkpt lat="25.0253311" lon="121.5239420"></trkpt>
      <trkpt lat="25.0255974" lon="121.5237403"></trkpt>
      <trkpt lat="25.0258322" lon="121.5235624"></trkpt>
      <trkpt lat="25.0258704" lon="121.5235335"></trkpt>
      <trkpt lat="25.0258312" lon="121.5234559"></trkpt>
      <trkpt lat="25.0262854" lon="121.5231107"></trkpt>
      <trkpt lat="25.0264011" lon="121.5230227"></trkpt>
      <trkpt lat="25.0268793" lon="121.5226611"></trkpt>
      <trkpt lat="25.0268922" lon="121.5225926"></trkpt>
      <trkpt lat="25.0269088" lon="121.5225273"></trkpt>
      <trkpt lat="25.0269266" lon="121.5224569"></trkpt>
      <trkpt lat="25.0265774" lon="121.5227153"></trkpt>
      <trkpt lat="25.0258080" lon="121.5232846"></trkpt>
      <trkpt lat="25.0257513" lon="121.5232022"></trkpt>
      <trkpt lat="25.0254843" lon="121.5228192"></trkpt>
      <trkpt lat="25.0254341" lon="121.5227544"></trkpt>
      <trkpt lat="25.0253851" lon="121.5227115"></trkpt>
      <trkpt lat="25.0252266" lon="121.5225300"></trkpt>
      <trkpt lat="25.0250808" lon="121.5224486"></trkpt>
      <trkpt lat="25.0249059" lon="121.5223959"></trkpt>
      <trkpt lat="25.0248586" lon="121.5223481"></trkpt>
      <trkpt lat="25.0247635" lon="121.5222519"></trkpt>
      <trkpt lat="25.0245280" lon="121.5220262"></trkpt>
      <trkpt lat="25.0245581" lon="121.5220024"></trkpt>
      <trkpt lat="25.0247117" lon="121.5218352"></trkpt>
      <trkpt lat="25.0248137" lon="121.5211088"></trkpt>
      <trkpt lat="25.0248960" lon="121.5208628"></trkpt>
      <trkpt lat="25.0246211" lon="121.5207078"></trkpt>
      <trkpt lat="25.0247060" lon="121.5204167"></trkpt>
      <trkpt lat="25.0247318" lon="121.5203091"></trkpt>
      <trkpt lat="25.0247517" lon="121.5202258"></trkpt>
      <trkpt lat="25.0247119" lon="121.5200487"></trkpt>
      <trkpt lat="25.0247513" lon="121.5192256"></trkpt>
      <trkpt lat="25.0247817" lon="121.5190269"></trkpt>
      <trkpt lat="25.0249038" lon="121.5174421"></trkpt>
      <trkpt lat="25.0246777" lon="121.5174400"></trkpt>
      <trkpt lat="25.0247325" lon="121.5171628"></trkpt>
      <trkpt lat="25.0247671" lon="121.5168221"></trkpt>
      <trkpt lat="25.0247804" lon="121.5167446"></trkpt>
      <trkpt lat="25.0247940" lon="121.5166651"></trkpt>
      <trkpt lat="25.0250209" lon="121.5166031"></trkpt>
      <trkpt lat="25.0252997" lon="121.5165290"></trkpt>
      <trkpt lat="25.0255625" lon="121.5164564"></trkpt>
      <trkpt lat="25.0255863" lon="121.5163404"></trkpt>
      <trkpt lat="25.0252620" lon="121.5164318"></trkpt>
      <trkpt lat="25.0252435" lon="121.5163664"></trkpt>
      <trkpt lat="25.0252049" lon="121.5162299"></trkpt>
      <trkpt lat="25.0251248" lon="121.5159728"></trkpt>
      <trkpt lat="25.0251023" lon="121.5158951"></trkpt>
      <trkpt lat="25.0249813" lon="121.5155173"></trkpt>
      <trkpt lat="25.0249381" lon="121.5153710"></trkpt>
      <trkpt lat="25.0247831" lon="121.5148911"></trkpt>
      <trkpt lat="25.0247416" lon="121.5148568"></trkpt>
      <trkpt lat="25.0249845" lon="121.5139185"></trkpt>
      <trkpt lat="25.0251661" lon="121.5132824"></trkpt>
      <trkpt lat="25.0252008" lon="121.5131465"></trkpt>
      <trkpt lat="25.0252794" lon="121.5132103"></trkpt>
      <trkpt lat="25.0260932" lon="121.5138408"></trkpt>
      <trkpt lat="25.0261487" lon="121.5138765"></trkpt>
      <trkpt lat="25.0262265" lon="121.5139210"></trkpt>
      <trkpt lat="25.0262915" lon="121.5139664"></trkpt>
      <trkpt lat="25.0265739" lon="121.5141197"></trkpt>
      <trkpt lat="25.0266386" lon="121.5141446"></trkpt>
      <trkpt lat="25.0267505" lon="121.5141959"></trkpt>
      <trkpt lat="25.0269481" lon="121.5142962"></trkpt>
      <trkpt lat="25.0273463" lon="121.5145355"></trkpt>
      <trkpt lat="25.0273917" lon="121.5145542"></trkpt>
      <trkpt lat="25.0274711" lon="121.5145856"></trkpt>
      <trkpt lat="25.0275394" lon="121.5146052"></trkpt>
      <trkpt lat="25.0276447" lon="121.5146202"></trkpt>
      <trkpt lat="25.0277429" lon="121.5146408"></trkpt>
      <trkpt lat="25.0278063" lon="121.5145121"></trkpt>
      <trkpt lat="25.0283473" lon="121.5134730"></trkpt>
      <trkpt lat="25.0286068" lon="121.5130018"></trkpt>
      <trkpt lat="25.0286505" lon="121.5130304"></trkpt>
      <trkpt lat="25.0287597" lon="121.5131020"></trkpt>
      <trkpt lat="25.0288462" lon="121.5131452"></trkpt>
      <trkpt lat="25.0289356" lon="121.5131406"></trkpt>
      <trkpt lat="25.0292274" lon="121.5130533"></trkpt>
      <trkpt lat="25.0292782" lon="121.5130394"></trkpt>
      <trkpt lat="25.0294153" lon="121.5136189"></trkpt>
      <trkpt lat="25.0295356" lon="121.5141273"></trkpt>
      <trkpt lat="25.0295566" lon="121.5142199"></trkpt>
      <trkpt lat="25.0295762" lon="121.5143121"></trkpt>
      <trkpt lat="25.0296022" lon="121.5144352"></trkpt>
      <trkpt lat="25.0297540" lon="121.5150961"></trkpt>
      <trkpt lat="25.0297790" lon="121.5152153"></trkpt>
      <trkpt lat="25.0297990" lon="121.5153154"></trkpt>
      <trkpt lat="25.0298599" lon="121.5152941"></trkpt>
      <trkpt lat="25.0301041" lon="121.5151987"></trkpt>
      <trkpt lat="25.0303471" lon="121.5151021"></trkpt>
      <trkpt lat="25.0306362" lon="121.5149898"></trkpt>
      <trkpt lat="25.0309550" lon="121.5148692"></trkpt>
      <trkpt lat="25.0313912" lon="121.5146909"></trkpt>
      <trkpt lat="25.0314328" lon="121.5146740"></trkpt>
      <trkpt lat="25.0319251" lon="121.5144699"></trkpt>
      <trkpt lat="25.0320148" lon="121.5143977"></trkpt>
      <trkpt lat="25.0323888" lon="121.5141686"></trkpt>
      <trkpt lat="25.0326785" lon="121.5139873"></trkpt>
      <trkpt lat="25.0332689" lon="121.5136312"></trkpt>
      <trkpt lat="25.0335158" lon="121.5134924"></trkpt>
      <trkpt lat="25.0337505" lon="121.5133571"></trkpt>
      <trkpt lat="25.0337598" lon="121.5133889"></trkpt>
      <trkpt lat="25.0343685" lon="121.5130506"></trkpt>
      <trkpt lat="25.0344846" lon="121.5129861"></trkpt>
      <trkpt lat="25.0345056" lon="121.5129744"></trkpt>
      <trkpt lat="25.0349413" lon="121.5126922"></trkpt>
      <trkpt lat="25.0349250" lon="121.5126340"></trkpt>
      <trkpt lat="25.0350606" lon="121.5125123"></trkpt>
      <trkpt lat="25.0352125" lon="121.5124965"></trkpt>
      <trkpt lat="25.0353118" lon="121.5124913"></trkpt>
      <trkpt lat="25.0355214" lon="121.5124981"></trkpt>
      <trkpt lat="25.0355923" lon="121.5125033"></trkpt>
      <trkpt lat="25.0362296" lon="121.5125407"></trkpt>
      <trkpt lat="25.0364400" lon="121.5125649"></trkpt>
      <trkpt lat="25.0368086" lon="121.5126074"></trkpt>
      <trkpt lat="25.0369235" lon="121.5126207"></trkpt>
      <trkpt lat="25.0371570" lon="121.5126476"></trkpt>
      <trkpt lat="25.0376084" lon="121.5126996"></trkpt>
      <trkpt lat="25.0377195" lon="121.5127158"></trkpt>
      <trkpt lat="25.0381015" lon="121.5127565"></trkpt>
      <trkpt lat="25.0386666" lon="121.5128219"></trkpt>
      <trkpt lat="25.0387354" lon="121.5128280"></trkpt>
      <trkpt lat="25.0387859" lon="121.5128354"></trkpt>
      <trkpt lat="25.0387777" lon="121.5129231"></trkpt>
      <trkpt lat="25.0387725" lon="121.5129759"></trkpt>
      <trkpt lat="25.0387113" lon="121.5137422"></trkpt>
      <trkpt lat="25.0388057" lon="121.5137521"></trkpt>
      <trkpt lat="25.0396041" lon="121.5138362"></trkpt>
      <trkpt lat="25.0396481" lon="121.5138408"></trkpt>
      <trkpt lat="25.0398353" lon="121.5138366"></trkpt>
      <trkpt lat="25.0399700" lon="121.5138400"></trkpt>
      <trkpt lat="25.0400242" lon="121.5138470"></trkpt>
      <trkpt lat="25.0404569" lon="121.5139177"></trkpt>
      <trkpt lat="25.0408359" lon="121.5139503"></trkpt>
      <trkpt lat="25.0409401" lon="121.5139639"></trkpt>
      <trkpt lat="25.0409477" lon="121.5139003"></trkpt>
      <trkpt lat="25.0410286" lon="121.5131954"></trkpt>
      <trkpt lat="25.0410453" lon="121.5130496"></trkpt>
      <trkpt lat="25.0411481" lon="121.5130614"></trkpt>
      <trkpt lat="25.0414560" lon="121.5130968"></trkpt>
      <trkpt lat="25.0418079" lon="121.5131364"></trkpt>
      <trkpt lat="25.0420160" lon="121.5131718"></trkpt>
      <trkpt lat="25.0422170" lon="121.5132024"></trkpt>
      <trkpt lat="25.0422867" lon="121.5132138"></trkpt>
      <trkpt lat="25.0423067" lon="121.5132171"></trkpt>
      <trkpt lat="25.0423213" lon="121.5132195"></trkpt>
      <trkpt lat="25.0423720" lon="121.5132202"></trkpt>
      <trkpt lat="25.0424965" lon="121.5132232"></trkpt>
      <trkpt lat="25.0428004" lon="121.5132265"></trkpt>
      <trkpt lat="25.0433246" lon="121.5132214"></trkpt>
      <trkpt lat="25.0434034" lon="121.5132207"></trkpt>
      <trkpt lat="25.0434059" lon="121.5132207"></trkpt>
      <trkpt lat="25.0434122" lon="121.5132206"></trkpt>
      <trkpt lat="25.0434121" lon="121.5132293"></trkpt>
      <trkpt lat="25.0434115" lon="121.5133113"></trkpt>
      <trkpt lat="25.0434051" lon="121.5141021"></trkpt>
      <trkpt lat="25.0433916" lon="121.5145934"></trkpt>
      <trkpt lat="25.0433799" lon="121.5150164"></trkpt>
      <trkpt lat="25.0434534" lon="121.5150168"></trkpt>
      <trkpt lat="25.0441095" lon="121.5150200"></trkpt>
      <trkpt lat="25.0446373" lon="121.5150226"></trkpt>
      <trkpt lat="25.0451619" lon="121.5150252"></trkpt>
      <trkpt lat="25.0454610" lon="121.5150267"></trkpt>
      <trkpt lat="25.0455141" lon="121.5150270"></trkpt>
      <trkpt lat="25.0459780" lon="121.5150238"></trkpt>
      <trkpt lat="25.0459778" lon="121.5149076"></trkpt>
      <trkpt lat="25.0459813" lon="121.5141958"></trkpt>
      <trkpt lat="25.0456881" lon="121.5141851"></trkpt>
      <trkpt lat="25.0456629" lon="121.5141842"></trkpt>
      <trkpt lat="25.0456622" lon="121.5138157"></trkpt>
      <trkpt lat="25.0456672" lon="121.5133207"></trkpt>
      <trkpt lat="25.0456679" lon="121.5132465"></trkpt>
      <trkpt lat="25.0456114" lon="121.5132461"></trkpt>
      <trkpt lat="25.0454986" lon="121.5132454"></trkpt>
      <trkpt lat="25.0454973" lon="121.5133166"></trkpt>
      <trkpt lat="25.0454882" lon="121.5138144"></trkpt>
      <trkpt lat="25.0451684" lon="121.5138245"></trkpt>
      <trkpt lat="25.0451679" lon="121.5139244"></trkpt>
      <trkpt lat="25.0451671" lon="121.5141662"></trkpt>
      <trkpt lat="25.0451619" lon="121.5150252"></trkpt>
      <trkpt lat="25.0454610" lon="121.5150267"></trkpt>
      <trkpt lat="25.0455141" lon="121.5150270"></trkpt>
      <trkpt lat="25.0459780" lon="121.5150238"></trkpt>
      <trkpt lat="25.0460539" lon="121.5150227"></trkpt>
      <trkpt lat="25.0466484" lon="121.5150217"></trkpt>
      <trkpt lat="25.0467587" lon="121.5150171"></trkpt>
      <trkpt lat="25.0468889" lon="121.5150209"></trkpt>
      <trkpt lat="25.0470014" lon="121.5150176"></trkpt>
      <trkpt lat="25.0471360" lon="121.5150024"></trkpt>
      <trkpt lat="25.0474264" lon="121.5150684"></trkpt>
      <trkpt lat="25.0475182" lon="121.5150796"></trkpt>
      <trkpt lat="25.0475678" lon="121.5150835"></trkpt>
      <trkpt lat="25.0475992" lon="121.5150633"></trkpt>
      <trkpt lat="25.0476290" lon="121.5150108"></trkpt>
      <trkpt lat="25.0476635" lon="121.5149311"></trkpt>
      <trkpt lat="25.0477699" lon="121.5143062"></trkpt>
      <trkpt lat="25.0478152" lon="121.5140583"></trkpt>
      <trkpt lat="25.0478559" lon="121.5138762"></trkpt>
      <trkpt lat="25.0480128" lon="121.5135527"></trkpt>
      <trkpt lat="25.0480304" lon="121.5135164"></trkpt>
      <trkpt lat="25.0480513" lon="121.5134734"></trkpt>
      <trkpt lat="25.0481217" lon="121.5134109"></trkpt>
      <trkpt lat="25.0482735" lon="121.5133787"></trkpt>
      <trkpt lat="25.0482658" lon="121.5132820"></trkpt>
      <trkpt lat="25.0481117" lon="121.5132836"></trkpt>
      <trkpt lat="25.0474669" lon="121.5132904"></trkpt>
      <trkpt lat="25.0474644" lon="121.5134404"></trkpt>
    </trkseg>
  </trk>
</gpx>
