<?xml version="1.0" encoding="UTF-8"?>
<gpx version="1.1" creator="shape-route-poc" xmlns="http://www.topografix.com/GPX/1/1" xmlns:xsi="http://www.w3.org/2001/XMLSchema-instance" xsi:schemaLocation="http://www.topografix.com/GPX/1/1 http://www.topografix.com/GPX/1/1/gpx.xsd">
  <metadata>
    <name>LIT (small)</name>
    <desc>LIT · 29.5 km · bike · shape distance 0.094 · 20 repeated segments</desc>
    <time>2026-09-11T16:21:21Z</time>
    <bounds minlat="25.0371726" minlon="121.5147663" maxlat="25.0615114" maxlon="121.5605910"/>
  </metadata>
  <rte>
    <name>LIT (small)</name>
    <type>cycling</type>
    <rtept lat="25.0596132" lon="121.5151917"></rtept>
    <rtept lat="25.0602038" lon="121.5176822"></rtept>
    <rtept lat="25.0602139" lon="121.5181645"></rtept>
    <rtept lat="25.0547785" lon="121.5181239"></rtept>
    <rtept lat="25.0548660" lon="121.5182601"></rtept>
    <rtept lat="25.0553168" lon="121.5182533"></rtept>
    <rtept lat="25.0553169" lon="121.5183600"></rtept>
    <rtept lat="25.0547251" lon="121.5183651"></rtept>
    <rtept lat="25.0531661" lon="121.5179088"></rtept>
    <rtept lat="25.0529392" lon="121.5188804"></rtept>
    <rtept lat="25.0506124" lon="121.5182579"></rtept>
    <rtept lat="25.0501035" lon="121.5204556"></rtept>
    <rtept lat="25.0491067" lon="121.5202126"></rtept>
    <rtept lat="25.0492965" lon="121.5194281"></rtept>
    <rtept lat="25.0484990" lon="121.5188149"></rtept>
    <rtept lat="25.0485685" lon="121.5177570"></rtept>
    <rtept lat="25.0484068" lon="121.5180689"></rtept>
    <rtept lat="25.0480266" lon="121.5205722"></rtept>
    <rtept lat="25.0444761" lon="121.5190207"></rtept>
    <rtept lat="25.0434609" lon="121.5187634"></rtept>
    <rtept lat="25.0433879" lon="121.5189336"></rtept>
    <rtept lat="25.0420933" lon="121.5185583"></rtept>
    <rtept lat="25.0420554" lon="121.5187249"></rtept>
    <rtept lat="25.0417748" lon="121.5187193"></rtept>
    <rtept lat="25.0417289" lon="121.5189418"></rtept>
    <rtept lat="25.0414558" lon="121.5188594"></rtept>
    <rtept lat="25.0417289" lon="121.5189418"></rtept>
    <rtept lat="25.0409243" lon="121.5221468"></rtept>
    <rtept lat="25.0408841" lon="121.5223328"></rtept>
    <rtept lat="25.0409805" lon="121.5223981"></rtept>
    <rtept lat="25.0400872" lon="121.5261765"></rtept>
    <rtept lat="25.0407494" lon="121.5263814"></rtept>
    <rtept lat="25.0403507" lon="121.5281226"></rtept>
    <rtept lat="25.0409774" lon="121.5283058"></rtept>
    <rtept lat="25.0402726" lon="121.5315949"></rtept>
    <rtept lat="25.0401919" lon="121.5326030"></rtept>
    <rtept lat="25.0402849" lon="121.5326222"></rtept>
    <rtept lat="25.0402812" lon="121.5330233"></rtept>
    <rtept lat="25.0420923" lon="121.5330482"></rtept>
    <rtept lat="25.0424123" lon="121.5331819"></rtept>
    <rtept lat="25.0424825" lon="121.5330569"></rtept>
    <rtept lat="25.0459553" lon="121.5329849"></rtept>
    <rtept lat="25.0457941" lon="121.5331673"></rtept>
    <rtept lat="25.0457947" lon="121.5335979"></rtept>
    <rtept lat="25.0458301" lon="121.5331032"></rtept>
    <rtept lat="25.0475632" lon="121.5331158"></rtept>
    <rtept lat="25.0475487" lon="121.5338736"></rtept>
    <rtept lat="25.0479295" lon="121.5338856"></rtept>
    <rtept lat="25.0479423" lon="121.5331243"></rtept>
    <rtept lat="25.0501979" lon="121.5331791"></rtept>
    <rtept lat="25.0501868" lon="121.5338006"></rtept>
    <rtept lat="25.0502725" lon="121.5331776"></rtept>
    <rtept lat="25.0521899" lon="121.5331993"></rtept>
    <rtept lat="25.0521881" lon="121.5336166"></rtept>
    <rtept lat="25.0521899" lon="121.5331993"></rtept>
    <rtept lat="25.0535714" lon="121.5332088"></rtept>
    <rtept lat="25.0535753" lon="121.5331183"></rtept>
    <rtept lat="25.0583677" lon="121.5332161"></rtept>
    <rtept lat="25.0583701" lon="121.5333104"></rtept>
    <rtept lat="25.0588531" lon="121.5333188"></rtept>
    <rtept lat="25.0588522" lon="121.5337302"></rtept>
    <rtept lat="25.0599265" lon="121.5337471"></rtept>
    <rtept lat="25.0599178" lon="121.5348743"></rtept>
    <rtept lat="25.0603120" lon="121.5348754"></rtept>
    <rtept lat="25.0602480" lon="121.5392198"></rtept>
    <rtept lat="25.0598621" lon="121.5392143"></rtept>
    <rtept lat="25.0598413" lon="121.5407374"></rtept>
    <rtept lat="25.0602268" lon="121.5407463"></rtept>
    <rtept lat="25.0601778" lon="121.5442739"></rtept>
    <rtept lat="25.0604697" lon="121.5442824"></rtept>
    <rtept lat="25.0604600" lon="121.5448939"></rtept>
    <rtept lat="25.0599652" lon="121.5448820"></rtept>
    <rtept lat="25.0599515" lon="121.5461818"></rtept>
    <rtept lat="25.0604306" lon="121.5466519"></rtept>
    <rtept lat="25.0609936" lon="121.5466541"></rtept>
    <rtept lat="25.0609324" lon="121.5479017"></rtept>
    <rtept lat="25.0606485" lon="121.5494158"></rtept>
    <rtept lat="25.0615114" lon="121.5498458"></rtept>
    <rtept lat="25.0614293" lon="121.5502846"></rtept>
    <rtept lat="25.0610983" lon="121.5509004"></rtept>
    <rtept lat="25.0604491" lon="121.5505711"></rtept>
    <rtept lat="25.0597773" lon="121.5522470"></rtept>
    <rtept lat="25.0599167" lon="121.5532256"></rtept>
    <rtept lat="25.0581432" lon="121.5543139"></rtept>
    <rtept lat="25.0582301" lon="121.5552433"></rtept>
    <rtept lat="25.0603216" lon="121.5548730"></rtept>
    <rtept lat="25.0605592" lon="121.5581758"></rtept>
    <rtept lat="25.0598914" lon="121.5582362"></rtept>
    <rtept lat="25.0600320" lon="121.5603886"></rtept>
    <rtept lat="25.0579470" lon="121.5605910"></rtept>
    <rtept lat="25.0577052" lon="121.5570801"></rtept>
    <rtept lat="25.0580328" lon="121.5570551"></rtept>
    <rtept lat="25.0574685" lon="121.5515889"></rtept>
    <rtept lat="25.0566447" lon="121.5516753"></rtept>
    <rtept lat="25.0565441" lon="121.5522961"></rtept>
    <rtept lat="25.0562351" lon="121.5529641"></rtept>
    <rtept lat="25.0554763" lon="121.5529379"></rtept>
    <rtept lat="25.0554343" lon="121.5521717"></rtept>
    <rtept lat="25.0533421" lon="121.5521838"></rtept>
    <rtept lat="25.0533352" lon="121.5526557"></rtept>
    <rtept lat="25.0518465" lon="121.5526100"></rtept>
    <rtept lat="25.0518133" lon="121.5524801"></rtept>
    <rtept lat="25.0515013" lon="121.5524723"></rtept>
    <rtept lat="25.0514765" lon="121.5527538"></rtept>
    <rtept lat="25.0476154" lon="121.5525555"></rtept>
    <rtept lat="25.0476229" lon="121.5520610"></rtept>
    <rtept lat="25.0446006" lon="121.5519827"></rtept>
    <rtept lat="25.0449924" lon="121.5486457"></rtept>
    <rtept lat="25.0414665" lon="121.5486159"></rtept>
    <rtept lat="25.0413908" lon="121.5518126"></rtept>
    <rtept lat="25.0380557" lon="121.5517690"></rtept>
    <rtept lat="25.0381024" lon="121.5498486"></rtept>
    <rtept lat="25.0387920" lon="121.5490987"></rtept>
    <rtept lat="25.0446432" lon="121.5491389"></rtept>
    <rtept lat="25.0447118" lon="121.5485867"></rtept>
    <rtept lat="25.0450516" lon="121.5485937"></rtept>
    <rtept lat="25.0449907" lon="121.5491483"></rtept>
    <rtept lat="25.0482029" lon="121.5491664"></rtept>
    <rtept lat="25.0482059" lon="121.5486680"></rtept>
    <rtept lat="25.0480422" lon="121.5486669"></rtept>
    <rtept lat="25.0480436" lon="121.5485386"></rtept>
    <rtept lat="25.0501042" lon="121.5486123"></rtept>
    <rtept lat="25.0501024" lon="121.5486919"></rtept>
    <rtept lat="25.0515716" lon="121.5485529"></rtept>
    <rtept lat="25.0519325" lon="121.5485616"></rtept>
    <rtept lat="25.0519246" lon="121.5491975"></rtept>
    <rtept lat="25.0543058" lon="121.5492183"></rtept>
    <rtept lat="25.0544409" lon="121.5486349"></rtept>
    <rtept lat="25.0550619" lon="121.5486455"></rtept>
    <rtept lat="25.0550602" lon="121.5487344"></rtept>
    <rtept lat="25.0545368" lon="121.5487296"></rtept>
    <rtept lat="25.0545345" lon="121.5492214"></rtept>
    <rtept lat="25.0577800" lon="121.5492853"></rtept>
    <rtept lat="25.0577845" lon="121.5486472"></rtept>
    <rtept lat="25.0576273" lon="121.5485759"></rtept>
    <rtept lat="25.0577845" lon="121.5486472"></rtept>
    <rtept lat="25.0579054" lon="121.5406929"></rtept>
    <rtept lat="25.0591111" lon="121.5407206"></rtept>
    <rtept lat="25.0591401" lon="121.5392041"></rtept>
    <rtept lat="25.0602480" lon="121.5392198"></rtept>
    <rtept lat="25.0602670" lon="121.5378558"></rtept>
    <rtept lat="25.0595220" lon="121.5378398"></rtept>
    <rtept lat="25.0596385" lon="121.5367175"></rtept>
    <rtept lat="25.0521950" lon="121.5365444"></rtept>
    <rtept lat="25.0521651" lon="121.5371969"></rtept>
    <rtept lat="25.0500731" lon="121.5370796"></rtept>
    <rtept lat="25.0518046" lon="121.5370223"></rtept>
    <rtept lat="25.0518205" lon="121.5365379"></rtept>
    <rtept lat="25.0446674" lon="121.5363596"></rtept>
    <rtept lat="25.0433875" lon="121.5363807"></rtept>
    <rtept lat="25.0422359" lon="121.5366250"></rtept>
    <rtept lat="25.0419482" lon="121.5367278"></rtept>
    <rtept lat="25.0418876" lon="121.5372961"></rtept>
    <rtept lat="25.0419482" lon="121.5367278"></rtept>
    <rtept lat="25.0401529" lon="121.5374424"></rtept>
    <rtept lat="25.0401542" lon="121.5373375"></rtept>
    <rtept lat="25.0384877" lon="121.5374240"></rtept>
    <rtept lat="25.0384981" lon="121.5348216"></rtept>
    <rtept lat="25.0401574" lon="121.5348458"></rtept>
    <rtept lat="25.0401872" lon="121.5330717"></rtept>
    <rtept lat="25.0402818" lon="121.5329602"></rtept>
    <rtept lat="25.0406593" lon="121.5329603"></rtept>
    <rtept lat="25.0402812" lon="121.5330233"></rtept>
    <rtept lat="25.0402834" lon="121.5327797"></rtept>
    <rtept lat="25.0401916" lon="121.5327321"></rtept>
    <rtept lat="25.0403853" lon="121.5311082"></rtept>
    <rtept lat="25.0398591" lon="121.5309504"></rtept>
    <rtept lat="25.0388635" lon="121.5311404"></rtept>
    <rtept lat="25.0388659" lon="121.5306567"></rtept>
    <rtept lat="25.0383172" lon="121.5306412"></rtept>
    <rtept lat="25.0383471" lon="121.5285306"></rtept>
    <rtept lat="25.0381425" lon="121.5284369"></rtept>
    <rtept lat="25.0380877" lon="121.5280977"></rtept>
    <rtept lat="25.0381198" lon="121.5252324"></rtept>
    <rtept lat="25.0383549" lon="121.5233103"></rtept>
    <rtept lat="25.0378169" lon="121.5231406"></rtept>
    <rtept lat="25.0379178" lon="121.5227192"></rtept>
    <rtept lat="25.0384431" lon="121.5228663"></rtept>
    <rtept lat="25.0385351" lon="121.5221021"></rtept>
    <rtept lat="25.0379014" lon="121.5218100"></rtept>
    <rtept lat="25.0379913" lon="121.5214904"></rtept>
    <rtept lat="25.0371726" lon="121.5212343"></rtept>
    <rtept lat="25.0386564" lon="121.5181915"></rtept>
    <rtept lat="25.0383526" lon="121.5180233"></rtept>
    <rtept lat="25.0384364" lon="121.5173078"></rtept>
    <rtept lat="25.0381670" lon="121.5172092"></rtept>
    <rtept lat="25.0386147" lon="121.5154060"></rtept>
    <rtept lat="25.0392925" lon="121.5156977"></rtept>
    <rtept lat="25.0393290" lon="121.5155208"></rtept>
    <rtept lat="25.0433722" lon="121.5165438"></rtept>
    <rtept lat="25.0433799" lon="121.5150164"></rtept>
    <rtept lat="25.0471360" lon="121.5150024"></rtept>
    <rtept lat="25.0475129" lon="121.5151478"></rtept>
    <rtept lat="25.0473608" lon="121.5161288"></rtept>
    <rtept lat="25.0488523" lon="121.5165498"></rtept>
    <rtept lat="25.0490369" lon="121.5156873"></rtept>
    <rtept lat="25.0495224" lon="121.5158251"></rtept>
    <rtept lat="25.0497094" lon="121.5150287"></rtept>
    <rtept lat="25.0518873" lon="121.5156196"></rtept>
    <rtept lat="25.0519961" lon="121.5152036"></rtept>
    <rtept lat="25.0528151" lon="121.5150508"></rtept>
    <rtept lat="25.0528511" lon="121.5153041"></rtept>
    <rtept lat="25.0537446" lon="121.5150663"></rtept>
    <rtept lat="25.0539686" lon="121.5151110"></rtept>
    <rtept lat="25.0538252" lon="121.5156857"></rtept>
    <rtept lat="25.0540515" lon="121.5157481"></rtept>
    <rtept lat="25.0553725" lon="121.5156654"></rtept>
    <rtept lat="25.0555214" lon="121.5151340"></rtept>
    <rtept lat="25.0570137" lon="121.5155743"></rtept>
    <rtept lat="25.0595047" lon="121.5147663"></rtept>
    <rtept lat="25.0596132" lon="121.5151917"></rtept>
  </rte>
  <trk>
    <name>LIT (small)</name>
    <type>cycling</type>
    <trkseg>
      <trkpt lat="25.0596132" lon="121.5151917"></trkpt>
      <trkpt lat="25.0597069" lon="121.5155307"></trkpt>
      <trkpt lat="25.0597564" lon="121.5157197"></trkpt>
      <trkpt lat="25.0597772" lon="121.5157930"></trkpt>
      <trkpt lat="25.0598077" lon="121.5158983"></trkpt>
      <trkpt lat="25.0598699" lon="121.5161815"></trkpt>
      <trkpt lat="25.0599510" lon="121.5165132"></trkpt>
      <trkpt lat="25.0599919" lon="121.5167125"></trkpt>
      <trkpt lat="25.0601131" lon="121.5173025"></trkpt>
      <trkpt lat="25.0602038" lon="121.5176822"></trkpt>
      <trkpt lat="25.0602185" lon="121.5180457"></trkpt>
      <trkpt lat="25.0602139" lon="121.5181645"></trkpt>
      <trkpt lat="25.0601056" lon="121.5181624"></trkpt>
      <trkpt lat="25.0592990" lon="121.5181472"></trkpt>
      <trkpt lat="25.0584944" lon="121.5181320"></trkpt>
      <trkpt lat="25.0584128" lon="121.5181278"></trkpt>
      <trkpt lat="25.0583684" lon="121.5181253"></trkpt>
      <trkpt lat="25.0574656" lon="121.5181047"></trkpt>
      <trkpt lat="25.0573274" lon="121.5180899"></trkpt>
      <trkpt lat="25.0572910" lon="121.5180870"></trkpt>
      <trkpt lat="25.0572159" lon="121.5180791"></trkpt>
      <trkpt lat="25.0564517" lon="121.5180893"></trkpt>
      <trkpt lat="25.0563109" lon="121.5181031"></trkpt>
      <trkpt lat="25.0557573" lon="121.5181095"></trkpt>
      <trkpt lat="25.0553129" lon="121.5181130"></trkpt>
      <trkpt lat="25.0549061" lon="121.5181216"></trkpt>
      <trkpt lat="25.0547785" lon="121.5181239"></trkpt>
      <trkpt lat="25.0548660" lon="121.5182601"></trkpt>
      <trkpt lat="25.0549406" lon="121.5182630"></trkpt>
      <trkpt lat="25.0553168" lon="121.5182533"></trkpt>
      <trkpt lat="25.0553169" lon="121.5183600"></trkpt>
      <trkpt lat="25.0549882" lon="121.5183629"></trkpt>
      <trkpt lat="25.0549367" lon="121.5183633"></trkpt>
      <trkpt lat="25.0548959" lon="121.5183637"></trkpt>
      <trkpt lat="25.0547251" lon="121.5183651"></trkpt>
      <trkpt lat="25.0545539" lon="121.5183090"></trkpt>
      <trkpt lat="25.0542148" lon="121.5181977"></trkpt>
      <trkpt lat="25.0539408" lon="121.5181079"></trkpt>
      <trkpt lat="25.0538411" lon="121.5180752"></trkpt>
      <trkpt lat="25.0537397" lon="121.5180419"></trkpt>
      <trkpt lat="25.0537034" lon="121.5180300"></trkpt>
      <trkpt lat="25.0535113" lon="121.5179759"></trkpt>
      <trkpt lat="25.0533373" lon="121.5179255"></trkpt>
      <trkpt lat="25.0533113" lon="121.5179503"></trkpt>
      <trkpt lat="25.0532500" lon="121.5179328"></trkpt>
      <trkpt lat="25.0531661" lon="121.5179088"></trkpt>
      <trkpt lat="25.0529392" lon="121.5188804"></trkpt>
      <trkpt lat="25.0528703" lon="121.5188620"></trkpt>
      <trkpt lat="25.0524599" lon="121.5187522"></trkpt>
      <trkpt lat="25.0524500" lon="121.5187495"></trkpt>
      <trkpt lat="25.0522938" lon="121.5187077"></trkpt>
      <trkpt lat="25.0520094" lon="121.5186317"></trkpt>
      <trkpt lat="25.0519189" lon="121.5186074"></trkpt>
      <trkpt lat="25.0515922" lon="121.5185200"></trkpt>
      <trkpt lat="25.0514491" lon="121.5184817"></trkpt>
      <trkpt lat="25.0511972" lon="121.5184143"></trkpt>
      <trkpt lat="25.0510470" lon="121.5183741"></trkpt>
      <trkpt lat="25.0506841" lon="121.5182770"></trkpt>
      <trkpt lat="25.0506124" lon="121.5182579"></trkpt>
      <trkpt lat="25.0506028" lon="121.5182995"></trkpt>
      <trkpt lat="25.0504660" lon="121.5188901"></trkpt>
      <trkpt lat="25.0503677" lon="121.5193148"></trkpt>
      <trkpt lat="25.0503237" lon="121.5195046"></trkpt>
      <trkpt lat="25.0503110" lon="121.5195595"></trkpt>
      <trkpt lat="25.0502981" lon="121.5196154"></trkpt>
      <trkpt lat="25.0502234" lon="121.5199378"></trkpt>
      <trkpt lat="25.0502116" lon="121.5199887"></trkpt>
      <trkpt lat="25.0501613" lon="121.5202061"></trkpt>
      <trkpt lat="25.0501480" lon="121.5202635"></trkpt>
      <trkpt lat="25.0501334" lon="121.5203310"></trkpt>
      <trkpt lat="25.0501035" lon="121.5204556"></trkpt>
      <trkpt lat="25.0500310" lon="121.5204361"></trkpt>
      <trkpt lat="25.0498656" lon="121.5203915"></trkpt>
      <trkpt lat="25.0497429" lon="121.5203584"></trkpt>
      <trkpt lat="25.0497071" lon="121.5203568"></trkpt>
      <trkpt lat="25.0495125" lon="121.5203066"></trkpt>
      <trkpt lat="25.0494460" lon="121.5202894"></trkpt>
      <trkpt lat="25.0493953" lon="121.5202817"></trkpt>
      <trkpt lat="25.0492815" lon="121.5202543"></trkpt>
      <trkpt lat="25.0491839" lon="121.5202270"></trkpt>
      <trkpt lat="25.0491067" lon="121.5202126"></trkpt>
      <trkpt lat="25.0491461" lon="121.5200562"></trkpt>
      <trkpt lat="25.0491588" lon="121.5200048"></trkpt>
      <trkpt lat="25.0491981" lon="121.5198458"></trkpt>
      <trkpt lat="25.0492471" lon="121.5196225"></trkpt>
      <trkpt lat="25.0492711" lon="121.5195245"></trkpt>
      <trkpt lat="25.0492965" lon="121.5194281"></trkpt>
      <trkpt lat="25.0490683" lon="121.5192318"></trkpt>
      <trkpt lat="25.0485693" lon="121.5188027"></trkpt>
      <trkpt lat="25.0484990" lon="121.5188149"></trkpt>
      <trkpt lat="25.0485227" lon="121.5186683"></trkpt>
      <trkpt lat="25.0486083" lon="121.5181210"></trkpt>
      <trkpt lat="25.0485685" lon="121.5177570"></trkpt>
      <trkpt lat="25.0484068" lon="121.5180689"></trkpt>
      <trkpt lat="25.0483347" lon="121.5186117"></trkpt>
      <trkpt lat="25.0482935" lon="121.5189013"></trkpt>
      <trkpt lat="25.0482806" lon="121.5189919"></trkpt>
      <trkpt lat="25.0482642" lon="121.5191074"></trkpt>
      <trkpt lat="25.0481671" lon="121.5197287"></trkpt>
      <trkpt lat="25.0480777" lon="121.5203006"></trkpt>
      <trkpt lat="25.0480451" lon="121.5204739"></trkpt>
      <trkpt lat="25.0480382" lon="121.5205103"></trkpt>
      <trkpt lat="25.0480266" lon="121.5205722"></trkpt>
      <trkpt lat="25.0479318" lon="121.5205277"></trkpt>
      <trkpt lat="25.0478616" lon="121.5204947"></trkpt>
      <trkpt lat="25.0474300" lon="121.5202920"></trkpt>
      <trkpt lat="25.0474062" lon="121.5202808"></trkpt>
      <trkpt lat="25.0472555" lon="121.5202103"></trkpt>
      <trkpt lat="25.0472238" lon="121.5201961"></trkpt>
      <trkpt lat="25.0471423" lon="121.5201595"></trkpt>
      <trkpt lat="25.0470252" lon="121.5201051"></trkpt>
      <trkpt lat="25.0468497" lon="121.5200231"></trkpt>
      <trkpt lat="25.0466973" lon="121.5199520"></trkpt>
      <trkpt lat="25.0463017" lon="121.5197656"></trkpt>
      <trkpt lat="25.0460696" lon="121.5196516"></trkpt>
      <trkpt lat="25.0458909" lon="121.5195751"></trkpt>
      <trkpt lat="25.0457875" lon="121.5195271"></trkpt>
      <trkpt lat="25.0456107" lon="121.5194481"></trkpt>
      <trkpt lat="25.0454780" lon="121.5194092"></trkpt>
      <trkpt lat="25.0452279" lon="121.5193357"></trkpt>
      <trkpt lat="25.0449595" lon="121.5192606"></trkpt>
      <trkpt lat="25.0446743" lon="121.5191822"></trkpt>
      <trkpt lat="25.0446426" lon="121.5191735"></trkpt>
      <trkpt lat="25.0446526" lon="121.5191330"></trkpt>
      <trkpt lat="25.0446258" lon="121.5190915"></trkpt>
      <trkpt lat="25.0446294" lon="121.5190750"></trkpt>
      <trkpt lat="25.0445678" lon="121.5190532"></trkpt>
      <trkpt lat="25.0444761" lon="121.5190207"></trkpt>
      <trkpt lat="25.0444662" lon="121.5190544"></trkpt>
      <trkpt lat="25.0442827" lon="121.5190013"></trkpt>
      <trkpt lat="25.0441897" lon="121.5189744"></trkpt>
      <trkpt lat="25.0438495" lon="121.5188759"></trkpt>
      <trkpt lat="25.0437724" lon="121.5188536"></trkpt>
      <trkpt lat="25.0434609" lon="121.5187634"></trkpt>
      <trkpt lat="25.0434498" lon="121.5188197"></trkpt>
      <trkpt lat="25.0434058" lon="121.5188967"></trkpt>
      <trkpt lat="25.0433879" lon="121.5189336"></trkpt>
      <trkpt lat="25.0433186" lon="121.5189135"></trkpt>
      <trkpt lat="25.0431962" lon="121.5188780"></trkpt>
      <trkpt lat="25.0431307" lon="121.5188590"></trkpt>
      <trkpt lat="25.0420933" lon="121.5185583"></trkpt>
      <trkpt lat="25.0420656" lon="121.5186800"></trkpt>
      <trkpt lat="25.0420554" lon="121.5187249"></trkpt>
      <trkpt lat="25.0419407" lon="121.5186941"></trkpt>
      <trkpt lat="25.0419042" lon="121.5187236"></trkpt>
      <trkpt lat="25.0418952" lon="121.5187612"></trkpt>
      <trkpt lat="25.0418526" lon="121.5187463"></trkpt>
      <trkpt lat="25.0417748" lon="121.5187193"></trkpt>
      <trkpt lat="25.0417289" lon="121.5189418"></trkpt>
      <trkpt lat="25.0414558" lon="121.5188594"></trkpt>
      <trkpt lat="25.0417289" lon="121.5189418"></trkpt>
      <trkpt lat="25.0417053" lon="121.5190333"></trkpt>
      <trkpt lat="25.0415150" lon="121.5198014"></trkpt>
      <trkpt lat="25.0415063" lon="121.5198250"></trkpt>
      <trkpt lat="25.0414036" lon="121.5202676"></trkpt>
      <trkpt lat="25.0413902" lon="121.5203507"></trkpt>
      <trkpt lat="25.0413781" lon="121.5204012"></trkpt>
      <trkpt lat="25.0413699" lon="121.5204358"></trkpt>
      <trkpt lat="25.0412002" lon="121.5211454"></trkpt>
      <trkpt lat="25.0411584" lon="121.5213295"></trkpt>
      <trkpt lat="25.0411162" lon="121.5215154"></trkpt>
      <trkpt lat="25.0410971" lon="121.5215991"></trkpt>
      <trkpt lat="25.0410323" lon="121.5218846"></trkpt>
      <trkpt lat="25.0410057" lon="121.5220015"></trkpt>
      <trkpt lat="25.0409932" lon="121.5220567"></trkpt>
      <trkpt lat="25.0409704" lon="121.5221263"></trkpt>
      <trkpt lat="25.0409243" lon="121.5221468"></trkpt>
      <trkpt lat="25.0409079" lon="121.5222229"></trkpt>
      <trkpt lat="25.0408841" lon="121.5223328"></trkpt>
      <trkpt lat="25.0409109" lon="121.5223744"></trkpt>
      <trkpt lat="25.0409805" lon="121.5223981"></trkpt>
      <trkpt lat="25.0408658" lon="121.5229075"></trkpt>
      <trkpt lat="25.0407551" lon="121.5233413"></trkpt>
      <trkpt lat="25.0406879" lon="121.5236405"></trkpt>
      <trkpt lat="25.0406210" lon="121.5239232"></trkpt>
      <trkpt lat="25.0405979" lon="121.5240140"></trkpt>
      <trkpt lat="25.0405763" lon="121.5240948"></trkpt>
      <trkpt lat="25.0403652" lon="121.5249724"></trkpt>
      <trkpt lat="25.0402199" lon="121.5256575"></trkpt>
      <trkpt lat="25.0402106" lon="121.5256966"></trkpt>
      <trkpt lat="25.0401911" lon="121.5257785"></trkpt>
      <trkpt lat="25.0401662" lon="121.5258780"></trkpt>
      <trkpt lat="25.0400872" lon="121.5261765"></trkpt>
      <trkpt lat="25.0401232" lon="121.5261877"></trkpt>
      <trkpt lat="25.0407494" lon="121.5263814"></trkpt>
      <trkpt lat="25.0406607" lon="121.5267752"></trkpt>
      <trkpt lat="25.0406363" lon="121.5269483"></trkpt>
      <trkpt lat="25.0403507" lon="121.5281226"></trkpt>
      <trkpt lat="25.0405255" lon="121.5281756"></trkpt>
      <trkpt lat="25.0409774" lon="121.5283058"></trkpt>
      <trkpt lat="25.0409560" lon="121.5283813"></trkpt>
      <trkpt lat="25.0409773" lon="121.5284371"></trkpt>
      <trkpt lat="25.0408282" lon="121.5290181"></trkpt>
      <trkpt lat="25.0408854" lon="121.5290353"></trkpt>
      <trkpt lat="25.0408580" lon="121.5291321"></trkpt>
      <trkpt lat="25.0408271" lon="121.5292564"></trkpt>
      <trkpt lat="25.0408068" lon="121.5293421"></trkpt>
      <trkpt lat="25.0406767" lon="121.5298862"></trkpt>
      <trkpt lat="25.0406469" lon="121.5300109"></trkpt>
      <trkpt lat="25.0406453" lon="121.5300182"></trkpt>
      <trkpt lat="25.0406327" lon="121.5300762"></trkpt>
      <trkpt lat="25.0406157" lon="121.5301470"></trkpt>
      <trkpt lat="25.0403934" lon="121.5310746"></trkpt>
      <trkpt lat="25.0403853" lon="121.5311082"></trkpt>
      <trkpt lat="25.0402901" lon="121.5315193"></trkpt>
      <trkpt lat="25.0402726" lon="121.5315949"></trkpt>
      <trkpt lat="25.0402645" lon="121.5316679"></trkpt>
      <trkpt lat="25.0402503" lon="121.5317954"></trkpt>
      <trkpt lat="25.0402251" lon="121.5320218"></trkpt>
      <trkpt lat="25.0402040" lon="121.5322112"></trkpt>
      <trkpt lat="25.0402007" lon="121.5322404"></trkpt>
      <trkpt lat="25.0401925" lon="121.5325787"></trkpt>
      <trkpt lat="25.0401919" lon="121.5326030"></trkpt>
      <trkpt lat="25.0402722" lon="121.5326065"></trkpt>
      <trkpt lat="25.0402849" lon="121.5326222"></trkpt>
      <trkpt lat="25.0402844" lon="121.5326809"></trkpt>
      <trkpt lat="25.0402840" lon="121.5327190"></trkpt>
      <trkpt lat="25.0402834" lon="121.5327797"></trkpt>
      <trkpt lat="25.0402825" lon="121.5328809"></trkpt>
      <trkpt lat="25.0402822" lon="121.5329181"></trkpt>
      <trkpt lat="25.0402818" lon="121.5329602"></trkpt>
      <trkpt lat="25.0402812" lon="121.5330233"></trkpt>
      <trkpt lat="25.0406592" lon="121.5330291"></trkpt>
      <trkpt lat="25.0411427" lon="121.5330322"></trkpt>
      <trkpt lat="25.0416370" lon="121.5330432"></trkpt>
      <trkpt lat="25.0418605" lon="121.5330464"></trkpt>
      <trkpt lat="25.0420923" lon="121.5330482"></trkpt>
      <trkpt lat="25.0421061" lon="121.5331198"></trkpt>
      <trkpt lat="25.0422061" lon="121.5331400"></trkpt>
      <trkpt lat="25.0423463" lon="121.5331684"></trkpt>
      <trkpt lat="25.0424123" lon="121.5331819"></trkpt>
      <trkpt lat="25.0424258" lon="121.5331134"></trkpt>
      <trkpt lat="25.0424825" lon="121.5330569"></trkpt>
      <trkpt lat="25.0427714" lon="121.5330597"></trkpt>
      <trkpt lat="25.0431913" lon="121.5330638"></trkpt>
      <trkpt lat="25.0435104" lon="121.5330687"></trkpt>
      <trkpt lat="25.0436125" lon="121.5330703"></trkpt>
      <trkpt lat="25.0436664" lon="121.5330705"></trkpt>
      <trkpt lat="25.0437090" lon="121.5330707"></trkpt>
      <trkpt lat="25.0440027" lon="121.5330719"></trkpt>
      <trkpt lat="25.0441900" lon="121.5330727"></trkpt>
      <trkpt lat="25.0442803" lon="121.5330731"></trkpt>
      <trkpt lat="25.0442713" lon="121.5329958"></trkpt>
      <trkpt lat="25.0443975" lon="121.5330006"></trkpt>
      <trkpt lat="25.0445155" lon="121.5330020"></trkpt>
      <trkpt lat="25.0449599" lon="121.5330073"></trkpt>
      <trkpt lat="25.0451891" lon="121.5330087"></trkpt>
      <trkpt lat="25.0453065" lon="121.5329883"></trkpt>
      <trkpt lat="25.0454234" lon="121.5329923"></trkpt>
      <trkpt lat="25.0455158" lon="121.5329955"></trkpt>
      <trkpt lat="25.0455740" lon="121.5329956"></trkpt>
      <trkpt lat="25.0457560" lon="121.5329999"></trkpt>
      <trkpt lat="25.0458460" lon="121.5329813"></trkpt>
      <trkpt lat="25.0459553" lon="121.5329849"></trkpt>
      <trkpt lat="25.0458463" lon="121.5331005"></trkpt>
      <trkpt lat="25.0458301" lon="121.5331032"></trkpt>
      <trkpt lat="25.0458154" lon="121.5331157"></trkpt>
      <trkpt lat="25.0457941" lon="121.5331673"></trkpt>
      <trkpt lat="25.0457947" lon="121.5335979"></trkpt>
      <trkpt lat="25.0457941" lon="121.5331673"></trkpt>
      <trkpt lat="25.0458154" lon="121.5331157"></trkpt>
      <trkpt lat="25.0458301" lon="121.5331032"></trkpt>
      <trkpt lat="25.0458463" lon="121.5331005"></trkpt>
      <trkpt lat="25.0470240" lon="121.5331268"></trkpt>
      <trkpt lat="25.0470540" lon="121.5331066"></trkpt>
      <trkpt lat="25.0470985" lon="121.5331054"></trkpt>
      <trkpt lat="25.0471906" lon="121.5331075"></trkpt>
      <trkpt lat="25.0475632" lon="121.5331158"></trkpt>
      <trkpt lat="25.0475578" lon="121.5333986"></trkpt>
      <trkpt lat="25.0475487" lon="121.5338736"></trkpt>
      <trkpt lat="25.0479295" lon="121.5338856"></trkpt>
      <trkpt lat="25.0479379" lon="121.5333850"></trkpt>
      <trkpt lat="25.0479423" lon="121.5331243"></trkpt>
      <trkpt lat="25.0483322" lon="121.5331308"></trkpt>
      <trkpt lat="25.0483492" lon="121.5331335"></trkpt>
      <trkpt lat="25.0483720" lon="121.5331492"></trkpt>
      <trkpt lat="25.0484566" lon="121.5331502"></trkpt>
      <trkpt lat="25.0485481" lon="121.5331513"></trkpt>
      <trkpt lat="25.0485730" lon="121.5331257"></trkpt>
      <trkpt lat="25.0489724" lon="121.5331325"></trkpt>
      <trkpt lat="25.0493672" lon="121.5331458"></trkpt>
      <trkpt lat="25.0497640" lon="121.5331563"></trkpt>
      <trkpt lat="25.0498059" lon="121.5331592"></trkpt>
      <trkpt lat="25.0501237" lon="121.5331808"></trkpt>
      <trkpt lat="25.0501979" lon="121.5331791"></trkpt>
      <trkpt lat="25.0501887" lon="121.5336571"></trkpt>
      <trkpt lat="25.0501868" lon="121.5338006"></trkpt>
      <trkpt lat="25.0501887" lon="121.5336571"></trkpt>
      <trkpt lat="25.0502296" lon="121.5336546"></trkpt>
      <trkpt lat="25.0502573" lon="121.5332133"></trkpt>
      <trkpt lat="25.0502725" lon="121.5331776"></trkpt>
      <trkpt lat="25.0506380" lon="121.5331677"></trkpt>
      <trkpt lat="25.0509941" lon="121.5331603"></trkpt>
      <trkpt lat="25.0518434" lon="121.5331670"></trkpt>
      <trkpt lat="25.0518714" lon="121.5331964"></trkpt>
      <trkpt lat="25.0519463" lon="121.5331964"></trkpt>
      <trkpt lat="25.0520323" lon="121.5331965"></trkpt>
      <trkpt lat="25.0520584" lon="121.5331965"></trkpt>
      <trkpt lat="25.0521140" lon="121.5331965"></trkpt>
      <trkpt lat="25.0521899" lon="121.5331993"></trkpt>
      <trkpt lat="25.0521881" lon="121.5336166"></trkpt>
      <trkpt lat="25.0521899" lon="121.5331993"></trkpt>
      <trkpt lat="25.0522227" lon="121.5331914"></trkpt>
      <trkpt lat="25.0523985" lon="121.5331946"></trkpt>
      <trkpt lat="25.0528434" lon="121.5332045"></trkpt>
      <trkpt lat="25.0528865" lon="121.5332055"></trkpt>
      <trkpt lat="25.0529201" lon="121.5332056"></trkpt>
      <trkpt lat="25.0529449" lon="121.5332057"></trkpt>
      <trkpt lat="25.0535714" lon="121.5332088"></trkpt>
      <trkpt lat="25.0535753" lon="121.5331183"></trkpt>
      <trkpt lat="25.0536415" lon="121.5331201"></trkpt>
      <trkpt lat="25.0538624" lon="121.5331228"></trkpt>
      <trkpt lat="25.0540148" lon="121.5331384"></trkpt>
      <trkpt lat="25.0543553" lon="121.5331490"></trkpt>
      <trkpt lat="25.0545551" lon="121.5331539"></trkpt>
      <trkpt lat="25.0546107" lon="121.5331552"></trkpt>
      <trkpt lat="25.0546919" lon="121.5331572"></trkpt>
      <trkpt lat="25.0548238" lon="121.5331419"></trkpt>
      <trkpt lat="25.0549308" lon="121.5331476"></trkpt>
      <trkpt lat="25.0560164" lon="121.5331726"></trkpt>
      <trkpt lat="25.0570995" lon="121.5331924"></trkpt>
      <trkpt lat="25.0571477" lon="121.5332106"></trkpt>
      <trkpt lat="25.0576459" lon="121.5332194"></trkpt>
      <trkpt lat="25.0576962" lon="121.5332203"></trkpt>
      <trkpt lat="25.0577732" lon="121.5332217"></trkpt>
      <trkpt lat="25.0578685" lon="121.5332075"></trkpt>
      <trkpt lat="25.0580062" lon="121.5332099"></trkpt>
      <trkpt lat="25.0581076" lon="121.5332117"></trkpt>
      <trkpt lat="25.0583677" lon="121.5332161"></trkpt>
      <trkpt lat="25.0583701" lon="121.5333104"></trkpt>
      <trkpt lat="25.0584004" lon="121.5333109"></trkpt>
      <trkpt lat="25.0587368" lon="121.5333169"></trkpt>
      <trkpt lat="25.0588078" lon="121.5333182"></trkpt>
      <trkpt lat="25.0588531" lon="121.5333188"></trkpt>
      <trkpt lat="25.0588522" lon="121.5337302"></trkpt>
      <trkpt lat="25.0592237" lon="121.5337363"></trkpt>
      <trkpt lat="25.0595868" lon="121.5337369"></trkpt>
      <trkpt lat="25.0599265" lon="121.5337471"></trkpt>
      <trkpt lat="25.0599178" lon="121.5348743"></trkpt>
      <trkpt lat="25.0602387" lon="121.5348742"></trkpt>
      <trkpt lat="25.0603120" lon="121.5348754"></trkpt>
      <trkpt lat="25.0603073" lon="121.5349549"></trkpt>
      <trkpt lat="25.0602872" lon="121.5360936"></trkpt>
      <trkpt lat="25.0602832" lon="121.5366725"></trkpt>
      <trkpt lat="25.0602828" lon="121.5367334"></trkpt>
      <trkpt lat="25.0602760" lon="121.5372132"></trkpt>
      <trkpt lat="25.0602747" lon="121.5373081"></trkpt>
      <trkpt lat="25.0602676" lon="121.5378135"></trkpt>
      <trkpt lat="25.0602670" lon="121.5378558"></trkpt>
      <trkpt lat="25.0602664" lon="121.5378978"></trkpt>
      <trkpt lat="25.0602488" lon="121.5391513"></trkpt>
      <trkpt lat="25.0602480" lon="121.5392198"></trkpt>
      <trkpt lat="25.0601912" lon="121.5392192"></trkpt>
      <trkpt lat="25.0598621" lon="121.5392143"></trkpt>
      <trkpt lat="25.0598425" lon="121.5406470"></trkpt>
      <trkpt lat="25.0598422" lon="121.5406697"></trkpt>
      <trkpt lat="25.0598413" lon="121.5407374"></trkpt>
      <trkpt lat="25.0598670" lon="121.5407380"></trkpt>
      <trkpt lat="25.0601689" lon="121.5407450"></trkpt>
      <trkpt lat="25.0602268" lon="121.5407463"></trkpt>
      <trkpt lat="25.0602258" lon="121.5408179"></trkpt>
      <trkpt lat="25.0602107" lon="121.5419107"></trkpt>
      <trkpt lat="25.0602092" lon="121.5420128"></trkpt>
      <trkpt lat="25.0602048" lon="121.5423303"></trkpt>
      <trkpt lat="25.0602040" lon="121.5423866"></trkpt>
      <trkpt lat="25.0602032" lon="121.5424480"></trkpt>
      <trkpt lat="25.0602013" lon="121.5425880"></trkpt>
      <trkpt lat="25.0601873" lon="121.5435854"></trkpt>
      <trkpt lat="25.0601867" lon="121.5436311"></trkpt>
      <trkpt lat="25.0601861" lon="121.5436762"></trkpt>
      <trkpt lat="25.0601820" lon="121.5440020"></trkpt>
      <trkpt lat="25.0601815" lon="121.5440448"></trkpt>
      <trkpt lat="25.0601806" lon="121.5440711"></trkpt>
      <trkpt lat="25.0601799" lon="121.5441230"></trkpt>
      <trkpt lat="25.0601778" lon="121.5442739"></trkpt>
      <trkpt lat="25.0602440" lon="121.5442758"></trkpt>
      <trkpt lat="25.0604697" lon="121.5442824"></trkpt>
      <trkpt lat="25.0604680" lon="121.5443879"></trkpt>
      <trkpt lat="25.0604668" lon="121.5444621"></trkpt>
      <trkpt lat="25.0604607" lon="121.5448488"></trkpt>
      <trkpt lat="25.0604600" lon="121.5448939"></trkpt>
      <trkpt lat="25.0604000" lon="121.5448925"></trkpt>
      <trkpt lat="25.0599652" lon="121.5448820"></trkpt>
      <trkpt lat="25.0599515" lon="121.5461818"></trkpt>
      <trkpt lat="25.0603359" lon="121.5465589"></trkpt>
      <trkpt lat="25.0603639" lon="121.5465864"></trkpt>
      <trkpt lat="25.0604179" lon="121.5466394"></trkpt>
      <trkpt lat="25.0604306" lon="121.5466519"></trkpt>
      <trkpt lat="25.0604762" lon="121.5466521"></trkpt>
      <trkpt lat="25.0606874" lon="121.5466529"></trkpt>
      <trkpt lat="25.0608380" lon="121.5466535"></trkpt>
      <trkpt lat="25.0609503" lon="121.5466539"></trkpt>
      <trkpt lat="25.0609936" lon="121.5466541"></trkpt>
      <trkpt lat="25.0609911" lon="121.5467052"></trkpt>
      <trkpt lat="25.0609399" lon="121.5477717"></trkpt>
      <trkpt lat="25.0609388" lon="121.5477936"></trkpt>
      <trkpt lat="25.0609324" lon="121.5479017"></trkpt>
      <trkpt lat="25.0606563" lon="121.5493743"></trkpt>
      <trkpt lat="25.0606485" lon="121.5494158"></trkpt>
      <trkpt lat="25.0610891" lon="121.5496366"></trkpt>
      <trkpt lat="25.0614681" lon="121.5498244"></trkpt>
      <trkpt lat="25.0615114" lon="121.5498458"></trkpt>
      <trkpt lat="25.0614293" lon="121.5502846"></trkpt>
      <trkpt lat="25.0613816" lon="121.5503391"></trkpt>
      <trkpt lat="25.0613235" lon="121.5504084"></trkpt>
      <trkpt lat="25.0612882" lon="121.5504661"></trkpt>
      <trkpt lat="25.0612742" lon="121.5504934"></trkpt>
      <trkpt lat="25.0612570" lon="121.5505300"></trkpt>
      <trkpt lat="25.0612008" lon="121.5506281"></trkpt>
      <trkpt lat="25.0611711" lon="121.5506985"></trkpt>
      <trkpt lat="25.0611531" lon="121.5507531"></trkpt>
      <trkpt lat="25.0611357" lon="121.5507924"></trkpt>
      <trkpt lat="25.0611182" lon="121.5508540"></trkpt>
      <trkpt lat="25.0610983" lon="121.5509004"></trkpt>
      <trkpt lat="25.0604923" lon="121.5505930"></trkpt>
      <trkpt lat="25.0604491" lon="121.5505711"></trkpt>
      <trkpt lat="25.0604316" lon="121.5506142"></trkpt>
      <trkpt lat="25.0602306" lon="121.5511082"></trkpt>
      <trkpt lat="25.0602203" lon="121.5511334"></trkpt>
      <trkpt lat="25.0601833" lon="121.5512108"></trkpt>
      <trkpt lat="25.0601549" lon="121.5512941"></trkpt>
      <trkpt lat="25.0601216" lon="121.5513760"></trkpt>
      <trkpt lat="25.0599450" lon="121.5518106"></trkpt>
      <trkpt lat="25.0599315" lon="121.5518440"></trkpt>
      <trkpt lat="25.0599225" lon="121.5518661"></trkpt>
      <trkpt lat="25.0598672" lon="121.5520021"></trkpt>
      <trkpt lat="25.0598501" lon="121.5520442"></trkpt>
      <trkpt lat="25.0598070" lon="121.5521502"></trkpt>
      <trkpt lat="25.0597773" lon="121.5522470"></trkpt>
      <trkpt lat="25.0597622" lon="121.5523663"></trkpt>
      <trkpt lat="25.0597598" lon="121.5524944"></trkpt>
      <trkpt lat="25.0597769" lon="121.5526404"></trkpt>
      <trkpt lat="25.0598829" lon="121.5530840"></trkpt>
      <trkpt lat="25.0599007" lon="121.5531585"></trkpt>
      <trkpt lat="25.0599167" lon="121.5532256"></trkpt>
      <trkpt lat="25.0596156" lon="121.5534076"></trkpt>
      <trkpt lat="25.0593953" lon="121.5535419"></trkpt>
      <trkpt lat="25.0590645" lon="121.5537450"></trkpt>
      <trkpt lat="25.0590167" lon="121.5537743"></trkpt>
      <trkpt lat="25.0586135" lon="121.5540245"></trkpt>
      <trkpt lat="25.0583215" lon="121.5542066"></trkpt>
      <trkpt lat="25.0582793" lon="121.5542311"></trkpt>
      <trkpt lat="25.0582320" lon="121.5542599"></trkpt>
      <trkpt lat="25.0581432" lon="121.5543139"></trkpt>
      <trkpt lat="25.0581539" lon="121.5544169"></trkpt>
      <trkpt lat="25.0582218" lon="121.5551409"></trkpt>
      <trkpt lat="25.0582301" lon="121.5552433"></trkpt>
      <trkpt lat="25.0583182" lon="121.5552262"></trkpt>
      <trkpt lat="25.0583742" lon="121.5552169"></trkpt>
      <trkpt lat="25.0598812" lon="121.5549531"></trkpt>
      <trkpt lat="25.0602453" lon="121.5548869"></trkpt>
      <trkpt lat="25.0603216" lon="121.5548730"></trkpt>
      <trkpt lat="25.0603276" lon="121.5549595"></trkpt>
      <trkpt lat="25.0604122" lon="121.5561695"></trkpt>
      <trkpt lat="25.0604618" lon="121.5568801"></trkpt>
      <trkpt lat="25.0604688" lon="121.5569806"></trkpt>
      <trkpt lat="25.0604748" lon="121.5570597"></trkpt>
      <trkpt lat="25.0605482" lon="121.5580306"></trkpt>
      <trkpt lat="25.0605592" lon="121.5581758"></trkpt>
      <trkpt lat="25.0604823" lon="121.5581828"></trkpt>
      <trkpt lat="25.0602147" lon="121.5582070"></trkpt>
      <trkpt lat="25.0600932" lon="121.5582180"></trkpt>
      <trkpt lat="25.0598914" lon="121.5582362"></trkpt>
      <trkpt lat="25.0599275" lon="121.5587886"></trkpt>
      <trkpt lat="25.0599490" lon="121.5591187"></trkpt>
      <trkpt lat="25.0599693" lon="121.5594522"></trkpt>
      <trkpt lat="25.0599812" lon="121.5596113"></trkpt>
      <trkpt lat="25.0599930" lon="121.5597976"></trkpt>
      <trkpt lat="25.0600259" lon="121.5603510"></trkpt>
      <trkpt lat="25.0600320" lon="121.5603886"></trkpt>
      <trkpt lat="25.0597057" lon="121.5604229"></trkpt>
      <trkpt lat="25.0593511" lon="121.5604568"></trkpt>
      <trkpt lat="25.0590131" lon="121.5604961"></trkpt>
      <trkpt lat="25.0587538" lon="121.5605188"></trkpt>
      <trkpt lat="25.0587064" lon="121.5605234"></trkpt>
      <trkpt lat="25.0586139" lon="121.5605273"></trkpt>
      <trkpt lat="25.0585637" lon="121.5605321"></trkpt>
      <trkpt lat="25.0582908" lon="121.5605581"></trkpt>
      <trkpt lat="25.0580211" lon="121.5605839"></trkpt>
      <trkpt lat="25.0579683" lon="121.5605890"></trkpt>
      <trkpt lat="25.0579470" lon="121.5605910"></trkpt>
      <trkpt lat="25.0579410" lon="121.5605039"></trkpt>
      <trkpt lat="25.0578920" lon="121.5597954"></trkpt>
      <trkpt lat="25.0578894" lon="121.5597565"></trkpt>
      <trkpt lat="25.0578633" lon="121.5593793"></trkpt>
      <trkpt lat="25.0578413" lon="121.5590607"></trkpt>
      <trkpt lat="25.0577730" lon="121.5580724"></trkpt>
      <trkpt lat="25.0577082" lon="121.5571354"></trkpt>
      <trkpt lat="25.0577052" lon="121.5570801"></trkpt>
      <trkpt lat="25.0580328" lon="121.5570551"></trkpt>
      <trkpt lat="25.0580262" lon="121.5569781"></trkpt>
      <trkpt lat="25.0579121" lon="121.5554462"></trkpt>
      <trkpt lat="25.0579094" lon="121.5554108"></trkpt>
      <trkpt lat="25.0578982" lon="121.5553051"></trkpt>
      <trkpt lat="25.0578148" lon="121.5553207"></trkpt>
      <trkpt lat="25.0578064" lon="121.5552159"></trkpt>
      <trkpt lat="25.0577939" lon="121.5550948"></trkpt>
      <trkpt lat="25.0577372" lon="121.5544735"></trkpt>
      <trkpt lat="25.0577340" lon="121.5544388"></trkpt>
      <trkpt lat="25.0577300" lon="121.5544057"></trkpt>
      <trkpt lat="25.0577264" lon="121.5543509"></trkpt>
      <trkpt lat="25.0576156" lon="121.5530779"></trkpt>
      <trkpt lat="25.0576136" lon="121.5530532"></trkpt>
      <trkpt lat="25.0576077" lon="121.5529782"></trkpt>
      <trkpt lat="25.0576008" lon="121.5529093"></trkpt>
      <trkpt lat="25.0574759" lon="121.5516634"></trkpt>
      <trkpt lat="25.0574729" lon="121.5516331"></trkpt>
      <trkpt lat="25.0574685" lon="121.5515889"></trkpt>
      <trkpt lat="25.0572901" lon="121.5516076"></trkpt>
      <trkpt lat="25.0570885" lon="121.5516287"></trkpt>
      <trkpt lat="25.0567196" lon="121.5516674"></trkpt>
      <trkpt lat="25.0566858" lon="121.5516709"></trkpt>
      <trkpt lat="25.0566447" lon="121.5516753"></trkpt>
      <trkpt lat="25.0566160" lon="121.5519595"></trkpt>
      <trkpt lat="25.0566093" lon="121.5520473"></trkpt>
      <trkpt lat="25.0565984" lon="121.5520891"></trkpt>
      <trkpt lat="25.0565441" lon="121.5522961"></trkpt>
      <trkpt lat="25.0564938" lon="121.5524525"></trkpt>
      <trkpt lat="25.0564309" lon="121.5526123"></trkpt>
      <trkpt lat="25.0563087" lon="121.5528398"></trkpt>
      <trkpt lat="25.0562891" lon="121.5528762"></trkpt>
      <trkpt lat="25.0562351" lon="121.5529641"></trkpt>
      <trkpt lat="25.0561493" lon="121.5529590"></trkpt>
      <trkpt lat="25.0561062" lon="121.5529576"></trkpt>
      <trkpt lat="25.0554763" lon="121.5529379"></trkpt>
      <trkpt lat="25.0554760" lon="121.5528781"></trkpt>
      <trkpt lat="25.0554736" lon="121.5528150"></trkpt>
      <trkpt lat="25.0554343" lon="121.5521717"></trkpt>
      <trkpt lat="25.0547317" lon="121.5521824"></trkpt>
      <trkpt lat="25.0547013" lon="121.5521829"></trkpt>
      <trkpt lat="25.0546590" lon="121.5521832"></trkpt>
      <trkpt lat="25.0543052" lon="121.5521852"></trkpt>
      <trkpt lat="25.0542826" lon="121.5521853"></trkpt>
      <trkpt lat="25.0542297" lon="121.5521866"></trkpt>
      <trkpt lat="25.0541694" lon="121.5521879"></trkpt>
      <trkpt lat="25.0541319" lon="121.5521873"></trkpt>
      <trkpt lat="25.0537979" lon="121.5521826"></trkpt>
      <trkpt lat="25.0537599" lon="121.5521830"></trkpt>
      <trkpt lat="25.0537147" lon="121.5521838"></trkpt>
      <trkpt lat="25.0533982" lon="121.5521842"></trkpt>
      <trkpt lat="25.0533421" lon="121.5521838"></trkpt>
      <trkpt lat="25.0533380" lon="121.5525354"></trkpt>
      <trkpt lat="25.0533377" lon="121.5525592"></trkpt>
      <trkpt lat="25.0533352" lon="121.5526557"></trkpt>
      <trkpt lat="25.0532635" lon="121.5526505"></trkpt>
      <trkpt lat="25.0531919" lon="121.5526494"></trkpt>
      <trkpt lat="25.0527964" lon="121.5526425"></trkpt>
      <trkpt lat="25.0524332" lon="121.5526342"></trkpt>
      <trkpt lat="25.0522890" lon="121.5526296"></trkpt>
      <trkpt lat="25.0522605" lon="121.5526287"></trkpt>
      <trkpt lat="25.0522127" lon="121.5526245"></trkpt>
      <trkpt lat="25.0519243" lon="121.5526117"></trkpt>
      <trkpt lat="25.0518865" lon="121.5526109"></trkpt>
      <trkpt lat="25.0518465" lon="121.5526100"></trkpt>
      <trkpt lat="25.0518525" lon="121.5525158"></trkpt>
      <trkpt lat="25.0518133" lon="121.5524801"></trkpt>
      <trkpt lat="25.0517246" lon="121.5524779"></trkpt>
      <trkpt lat="25.0516057" lon="121.5524729"></trkpt>
      <trkpt lat="25.0515013" lon="121.5524723"></trkpt>
      <trkpt lat="25.0514778" lon="121.5526546"></trkpt>
      <trkpt lat="25.0514765" lon="121.5527538"></trkpt>
      <trkpt lat="25.0514435" lon="121.5527526"></trkpt>
      <trkpt lat="25.0514149" lon="121.5527515"></trkpt>
      <trkpt lat="25.0508242" lon="121.5527296"></trkpt>
      <trkpt lat="25.0508023" lon="121.5527284"></trkpt>
      <trkpt lat="25.0505497" lon="121.5527194"></trkpt>
      <trkpt lat="25.0505000" lon="121.5527175"></trkpt>
      <trkpt lat="25.0503549" lon="121.5527124"></trkpt>
      <trkpt lat="25.0499820" lon="121.5526984"></trkpt>
      <trkpt lat="25.0499373" lon="121.5526967"></trkpt>
      <trkpt lat="25.0498927" lon="121.5526951"></trkpt>
      <trkpt lat="25.0498533" lon="121.5526936"></trkpt>
      <trkpt lat="25.0497869" lon="121.5526911"></trkpt>
      <trkpt lat="25.0497357" lon="121.5526892"></trkpt>
      <trkpt lat="25.0496854" lon="121.5526874"></trkpt>
      <trkpt lat="25.0493011" lon="121.5526731"></trkpt>
      <trkpt lat="25.0492698" lon="121.5526719"></trkpt>
      <trkpt lat="25.0491179" lon="121.5526663"></trkpt>
      <trkpt lat="25.0488647" lon="121.5526569"></trkpt>
      <trkpt lat="25.0488165" lon="121.5526551"></trkpt>
      <trkpt lat="25.0487016" lon="121.5526509"></trkpt>
      <trkpt lat="25.0486747" lon="121.5526499"></trkpt>
      <trkpt lat="25.0486373" lon="121.5526485"></trkpt>
      <trkpt lat="25.0485527" lon="121.5526454"></trkpt>
      <trkpt lat="25.0485321" lon="121.5526446"></trkpt>
      <trkpt lat="25.0484012" lon="121.5526398"></trkpt>
      <trkpt lat="25.0483528" lon="121.5526380"></trkpt>
      <trkpt lat="25.0482890" lon="121.5526356"></trkpt>
      <trkpt lat="25.0481817" lon="121.5525652"></trkpt>
      <trkpt lat="25.0480908" lon="121.5525621"></trkpt>
      <trkpt lat="25.0480468" lon="121.5525615"></trkpt>
      <trkpt lat="25.0476154" lon="121.5525555"></trkpt>
      <trkpt lat="25.0476229" lon="121.5520610"></trkpt>
      <trkpt lat="25.0472925" lon="121.5520499"></trkpt>
      <trkpt lat="25.0471312" lon="121.5520448"></trkpt>
      <trkpt lat="25.0466224" lon="121.5520332"></trkpt>
      <trkpt lat="25.0461635" lon="121.5520180"></trkpt>
      <trkpt lat="25.0457589" lon="121.5520124"></trkpt>
      <trkpt lat="25.0453133" lon="121.5520071"></trkpt>
      <trkpt lat="25.0449788" lon="121.5520002"></trkpt>
      <trkpt lat="25.0446283" lon="121.5519900"></trkpt>
      <trkpt lat="25.0446006" lon="121.5519827"></trkpt>
      <trkpt lat="25.0447250" lon="121.5510059"></trkpt>
      <trkpt lat="25.0447359" lon="121.5509178"></trkpt>
      <trkpt lat="25.0447571" lon="121.5507087"></trkpt>
      <trkpt lat="25.0447751" lon="121.5505799"></trkpt>
      <trkpt lat="25.0448362" lon="121.5500679"></trkpt>
      <trkpt lat="25.0448581" lon="121.5498726"></trkpt>
      <trkpt lat="25.0448759" lon="121.5496721"></trkpt>
      <trkpt lat="25.0449118" lon="121.5493403"></trkpt>
      <trkpt lat="25.0449183" lon="121.5492802"></trkpt>
      <trkpt lat="25.0449241" lon="121.5492263"></trkpt>
      <trkpt lat="25.0449370" lon="121.5491411"></trkpt>
      <trkpt lat="25.0449620" lon="121.5489311"></trkpt>
      <trkpt lat="25.0449681" lon="121.5488856"></trkpt>
      <trkpt lat="25.0449924" lon="121.5486457"></trkpt>
      <trkpt lat="25.0447762" lon="121.5486443"></trkpt>
      <trkpt lat="25.0446937" lon="121.5486437"></trkpt>
      <trkpt lat="25.0446428" lon="121.5486434"></trkpt>
      <trkpt lat="25.0436751" lon="121.5486345"></trkpt>
      <trkpt lat="25.0436369" lon="121.5486342"></trkpt>
      <trkpt lat="25.0435393" lon="121.5486333"></trkpt>
      <trkpt lat="25.0427822" lon="121.5486305"></trkpt>
      <trkpt lat="25.0427342" lon="121.5486303"></trkpt>
      <trkpt lat="25.0427041" lon="121.5486302"></trkpt>
      <trkpt lat="25.0426119" lon="121.5486299"></trkpt>
      <trkpt lat="25.0425104" lon="121.5486285"></trkpt>
      <trkpt lat="25.0418010" lon="121.5486187"></trkpt>
      <trkpt lat="25.0417638" lon="121.5486182"></trkpt>
      <trkpt lat="25.0417441" lon="121.5486181"></trkpt>
      <trkpt lat="25.0417258" lon="121.5486180"></trkpt>
      <trkpt lat="25.0416027" lon="121.5486169"></trkpt>
      <trkpt lat="25.0414665" lon="121.5486159"></trkpt>
      <trkpt lat="25.0414575" lon="121.5488759"></trkpt>
      <trkpt lat="25.0414462" lon="121.5491111"></trkpt>
      <trkpt lat="25.0414374" lon="121.5492304"></trkpt>
      <trkpt lat="25.0414311" lon="121.5496454"></trkpt>
      <trkpt lat="25.0414053" lon="121.5507018"></trkpt>
      <trkpt lat="25.0414101" lon="121.5507736"></trkpt>
      <trkpt lat="25.0413908" lon="121.5518126"></trkpt>
      <trkpt lat="25.0412903" lon="121.5518113"></trkpt>
      <trkpt lat="25.0408396" lon="121.5518129"></trkpt>
      <trkpt lat="25.0403689" lon="121.5517993"></trkpt>
      <trkpt lat="25.0399026" lon="121.5517929"></trkpt>
      <trkpt lat="25.0394483" lon="121.5517870"></trkpt>
      <trkpt lat="25.0389908" lon="121.5517809"></trkpt>
      <trkpt lat="25.0385211" lon="121.5517746"></trkpt>
      <trkpt lat="25.0380557" lon="121.5517690"></trkpt>
      <trkpt lat="25.0380587" lon="121.5515580"></trkpt>
      <trkpt lat="25.0380687" lon="121.5515322"></trkpt>
      <trkpt lat="25.0380986" lon="121.5514965"></trkpt>
      <trkpt lat="25.0381013" lon="121.5513494"></trkpt>
      <trkpt lat="25.0381047" lon="121.5511673"></trkpt>
      <trkpt lat="25.0381088" lon="121.5510511"></trkpt>
      <trkpt lat="25.0380942" lon="121.5510443"></trkpt>
      <trkpt lat="25.0380803" lon="121.5510229"></trkpt>
      <trkpt lat="25.0380761" lon="121.5509836"></trkpt>
      <trkpt lat="25.0380956" lon="121.5498839"></trkpt>
      <trkpt lat="25.0381024" lon="121.5498486"></trkpt>
      <trkpt lat="25.0381290" lon="121.5497920"></trkpt>
      <trkpt lat="25.0381533" lon="121.5497652"></trkpt>
      <trkpt lat="25.0381770" lon="121.5497457"></trkpt>
      <trkpt lat="25.0382201" lon="121.5497236"></trkpt>
      <trkpt lat="25.0383270" lon="121.5496630"></trkpt>
      <trkpt lat="25.0384036" lon="121.5496069"></trkpt>
      <trkpt lat="25.0384699" lon="121.5495386"></trkpt>
      <trkpt lat="25.0385282" lon="121.5494825"></trkpt>
      <trkpt lat="25.0385859" lon="121.5494031"></trkpt>
      <trkpt lat="25.0386351" lon="121.5493193"></trkpt>
      <trkpt lat="25.0386704" lon="121.5492465"></trkpt>
      <trkpt lat="25.0386934" lon="121.5492053"></trkpt>
      <trkpt lat="25.0387199" lon="121.5491852"></trkpt>
      <trkpt lat="25.0387911" lon="121.5491696"></trkpt>
      <trkpt lat="25.0387920" lon="121.5490987"></trkpt>
      <trkpt lat="25.0389364" lon="121.5490977"></trkpt>
      <trkpt lat="25.0393447" lon="121.5490998"></trkpt>
      <trkpt lat="25.0397126" lon="121.5491017"></trkpt>
      <trkpt lat="25.0397722" lon="121.5491020"></trkpt>
      <trkpt lat="25.0400478" lon="121.5491024"></trkpt>
      <trkpt lat="25.0401724" lon="121.5491026"></trkpt>
      <trkpt lat="25.0404246" lon="121.5491029"></trkpt>
      <trkpt lat="25.0412013" lon="121.5491097"></trkpt>
      <trkpt lat="25.0412687" lon="121.5491103"></trkpt>
      <trkpt lat="25.0413212" lon="121.5491102"></trkpt>
      <trkpt lat="25.0414462" lon="121.5491111"></trkpt>
      <trkpt lat="25.0415884" lon="121.5491130"></trkpt>
      <trkpt lat="25.0417191" lon="121.5491143"></trkpt>
      <trkpt lat="25.0417663" lon="121.5491147"></trkpt>
      <trkpt lat="25.0420936" lon="121.5491293"></trkpt>
      <trkpt lat="25.0423843" lon="121.5491228"></trkpt>
      <trkpt lat="25.0424382" lon="121.5491236"></trkpt>
      <trkpt lat="25.0425092" lon="121.5491245"></trkpt>
      <trkpt lat="25.0426043" lon="121.5491257"></trkpt>
      <trkpt lat="25.0427091" lon="121.5491258"></trkpt>
      <trkpt lat="25.0433826" lon="121.5491289"></trkpt>
      <trkpt lat="25.0434572" lon="121.5491296"></trkpt>
      <trkpt lat="25.0435316" lon="121.5491302"></trkpt>
      <trkpt lat="25.0438543" lon="121.5491330"></trkpt>
      <trkpt lat="25.0440231" lon="121.5491343"></trkpt>
      <trkpt lat="25.0445483" lon="121.5491381"></trkpt>
      <trkpt lat="25.0445953" lon="121.5491375"></trkpt>
      <trkpt lat="25.0446432" lon="121.5491389"></trkpt>
      <trkpt lat="25.0446510" lon="121.5490585"></trkpt>
      <trkpt lat="25.0446587" lon="121.5489802"></trkpt>
      <trkpt lat="25.0446669" lon="121.5488810"></trkpt>
      <trkpt lat="25.0446762" lon="121.5487985"></trkpt>
      <trkpt lat="25.0446850" lon="121.5487211"></trkpt>
      <trkpt lat="25.0446937" lon="121.5486437"></trkpt>
      <trkpt lat="25.0447118" lon="121.5485867"></trkpt>
      <trkpt lat="25.0447831" lon="121.5485879"></trkpt>
      <trkpt lat="25.0449983" lon="121.5485914"></trkpt>
      <trkpt lat="25.0450516" lon="121.5485937"></trkpt>
      <trkpt lat="25.0450430" lon="121.5486474"></trkpt>
      <trkpt lat="25.0450316" lon="121.5486990"></trkpt>
      <trkpt lat="25.0450207" lon="121.5488228"></trkpt>
      <trkpt lat="25.0450151" lon="121.5488863"></trkpt>
      <trkpt lat="25.0449907" lon="121.5491483"></trkpt>
      <trkpt lat="25.0459481" lon="121.5491510"></trkpt>
      <trkpt lat="25.0460166" lon="121.5491512"></trkpt>
      <trkpt lat="25.0461058" lon="121.5491515"></trkpt>
      <trkpt lat="25.0461719" lon="121.5491541"></trkpt>
      <trkpt lat="25.0471591" lon="121.5491572"></trkpt>
      <trkpt lat="25.0479114" lon="121.5491617"></trkpt>
      <trkpt lat="25.0479730" lon="121.5491620"></trkpt>
      <trkpt lat="25.0480368" lon="121.5491624"></trkpt>
      <trkpt lat="25.0482029" lon="121.5491664"></trkpt>
      <trkpt lat="25.0482042" lon="121.5489337"></trkpt>
      <trkpt lat="25.0482059" lon="121.5486680"></trkpt>
      <trkpt lat="25.0480422" lon="121.5486669"></trkpt>
      <trkpt lat="25.0480436" lon="121.5485386"></trkpt>
      <trkpt lat="25.0482067" lon="121.5485455"></trkpt>
      <trkpt lat="25.0483219" lon="121.5485471"></trkpt>
      <trkpt lat="25.0483571" lon="121.5485827"></trkpt>
      <trkpt lat="25.0500502" lon="121.5486101"></trkpt>
      <trkpt lat="25.0500714" lon="121.5486105"></trkpt>
      <trkpt lat="25.0501042" lon="121.5486123"></trkpt>
      <trkpt lat="25.0501024" lon="121.5486919"></trkpt>
      <trkpt lat="25.0501042" lon="121.5486123"></trkpt>
      <trkpt lat="25.0501419" lon="121.5486145"></trkpt>
      <trkpt lat="25.0505835" lon="121.5486232"></trkpt>
      <trkpt lat="25.0506227" lon="121.5486232"></trkpt>
      <trkpt lat="25.0506576" lon="121.5486232"></trkpt>
      <trkpt lat="25.0509273" lon="121.5486272"></trkpt>
      <trkpt lat="25.0509635" lon="121.5486264"></trkpt>
      <trkpt lat="25.0510191" lon="121.5486252"></trkpt>
      <trkpt lat="25.0514662" lon="121.5486152"></trkpt>
      <trkpt lat="25.0514776" lon="121.5486092"></trkpt>
      <trkpt lat="25.0515254" lon="121.5485841"></trkpt>
      <trkpt lat="25.0515598" lon="121.5485660"></trkpt>
      <trkpt lat="25.0515716" lon="121.5485529"></trkpt>
      <trkpt lat="25.0516600" lon="121.5485550"></trkpt>
      <trkpt lat="25.0517197" lon="121.5485564"></trkpt>
      <trkpt lat="25.0517471" lon="121.5485580"></trkpt>
      <trkpt lat="25.0518221" lon="121.5485589"></trkpt>
      <trkpt lat="25.0519325" lon="121.5485616"></trkpt>
      <trkpt lat="25.0519404" lon="121.5485815"></trkpt>
      <trkpt lat="25.0519371" lon="121.5487083"></trkpt>
      <trkpt lat="25.0519336" lon="121.5488470"></trkpt>
      <trkpt lat="25.0519305" lon="121.5489669"></trkpt>
      <trkpt lat="25.0519280" lon="121.5490655"></trkpt>
      <trkpt lat="25.0519246" lon="121.5491975"></trkpt>
      <trkpt lat="25.0538233" lon="121.5492141"></trkpt>
      <trkpt lat="25.0541316" lon="121.5492168"></trkpt>
      <trkpt lat="25.0541912" lon="121.5492173"></trkpt>
      <trkpt lat="25.0542307" lon="121.5492176"></trkpt>
      <trkpt lat="25.0543058" lon="121.5492183"></trkpt>
      <trkpt lat="25.0543686" lon="121.5489859"></trkpt>
      <trkpt lat="25.0544382" lon="121.5487288"></trkpt>
      <trkpt lat="25.0544409" lon="121.5486349"></trkpt>
      <trkpt lat="25.0545308" lon="121.5486369"></trkpt>
      <trkpt lat="25.0550364" lon="121.5486450"></trkpt>
      <trkpt lat="25.0550619" lon="121.5486455"></trkpt>
      <trkpt lat="25.0550602" lon="121.5487344"></trkpt>
      <trkpt lat="25.0546573" lon="121.5487306"></trkpt>
      <trkpt lat="25.0545994" lon="121.5487301"></trkpt>
      <trkpt lat="25.0545368" lon="121.5487296"></trkpt>
      <trkpt lat="25.0545360" lon="121.5487839"></trkpt>
      <trkpt lat="25.0545352" lon="121.5488439"></trkpt>
      <trkpt lat="25.0545354" lon="121.5489097"></trkpt>
      <trkpt lat="25.0545356" lon="121.5489872"></trkpt>
      <trkpt lat="25.0545354" lon="121.5490520"></trkpt>
      <trkpt lat="25.0545353" lon="121.5491065"></trkpt>
      <trkpt lat="25.0545349" lon="121.5491669"></trkpt>
      <trkpt lat="25.0545345" lon="121.5492214"></trkpt>
      <trkpt lat="25.0555910" lon="121.5492386"></trkpt>
      <trkpt lat="25.0556647" lon="121.5492398"></trkpt>
      <trkpt lat="25.0557573" lon="121.5492384"></trkpt>
      <trkpt lat="25.0572111" lon="121.5492602"></trkpt>
      <trkpt lat="25.0573562" lon="121.5492605"></trkpt>
      <trkpt lat="25.0575005" lon="121.5492629"></trkpt>
      <trkpt lat="25.0575505" lon="121.5492634"></trkpt>
      <trkpt lat="25.0575838" lon="121.5492638"></trkpt>
      <trkpt lat="25.0576739" lon="121.5492647"></trkpt>
      <trkpt lat="25.0577800" lon="121.5492853"></trkpt>
      <trkpt lat="25.0577816" lon="121.5490498"></trkpt>
      <trkpt lat="25.0577836" lon="121.5487977"></trkpt>
      <trkpt lat="25.0577845" lon="121.5486472"></trkpt>
      <trkpt lat="25.0577230" lon="121.5486464"></trkpt>
      <trkpt lat="25.0576273" lon="121.5485759"></trkpt>
      <trkpt lat="25.0577230" lon="121.5486464"></trkpt>
      <trkpt lat="25.0577845" lon="121.5486472"></trkpt>
      <trkpt lat="25.0578020" lon="121.5474532"></trkpt>
      <trkpt lat="25.0578167" lon="121.5464442"></trkpt>
      <trkpt lat="25.0578173" lon="121.5464061"></trkpt>
      <trkpt lat="25.0578190" lon="121.5462874"></trkpt>
      <trkpt lat="25.0578205" lon="121.5461970"></trkpt>
      <trkpt lat="25.0578219" lon="121.5460887"></trkpt>
      <trkpt lat="25.0578398" lon="121.5448609"></trkpt>
      <trkpt lat="25.0578451" lon="121.5443874"></trkpt>
      <trkpt lat="25.0578490" lon="121.5442343"></trkpt>
      <trkpt lat="25.0578549" lon="121.5440851"></trkpt>
      <trkpt lat="25.0578556" lon="121.5440107"></trkpt>
      <trkpt lat="25.0578547" lon="121.5439776"></trkpt>
      <trkpt lat="25.0578624" lon="121.5435861"></trkpt>
      <trkpt lat="25.0578706" lon="121.5430393"></trkpt>
      <trkpt lat="25.0578815" lon="121.5423154"></trkpt>
      <trkpt lat="25.0578837" lon="121.5421667"></trkpt>
      <trkpt lat="25.0578848" lon="121.5421127"></trkpt>
      <trkpt lat="25.0578893" lon="121.5418828"></trkpt>
      <trkpt lat="25.0578926" lon="121.5416388"></trkpt>
      <trkpt lat="25.0579040" lon="121.5407968"></trkpt>
      <trkpt lat="25.0579054" lon="121.5406929"></trkpt>
      <trkpt lat="25.0579894" lon="121.5406948"></trkpt>
      <trkpt lat="25.0584117" lon="121.5407052"></trkpt>
      <trkpt lat="25.0584430" lon="121.5407060"></trkpt>
      <trkpt lat="25.0584837" lon="121.5407069"></trkpt>
      <trkpt lat="25.0587002" lon="121.5407115"></trkpt>
      <trkpt lat="25.0587473" lon="121.5407123"></trkpt>
      <trkpt lat="25.0587908" lon="121.5407133"></trkpt>
      <trkpt lat="25.0590762" lon="121.5407205"></trkpt>
      <trkpt lat="25.0591111" lon="121.5407206"></trkpt>
      <trkpt lat="25.0591113" lon="121.5406625"></trkpt>
      <trkpt lat="25.0591401" lon="121.5392041"></trkpt>
      <trkpt lat="25.0595002" lon="121.5392092"></trkpt>
      <trkpt lat="25.0598621" lon="121.5392143"></trkpt>
      <trkpt lat="25.0601912" lon="121.5392192"></trkpt>
      <trkpt lat="25.0602480" lon="121.5392198"></trkpt>
      <trkpt lat="25.0602488" lon="121.5391513"></trkpt>
      <trkpt lat="25.0602664" lon="121.5378978"></trkpt>
      <trkpt lat="25.0602670" lon="121.5378558"></trkpt>
      <trkpt lat="25.0602165" lon="121.5378547"></trkpt>
      <trkpt lat="25.0598826" lon="121.5378475"></trkpt>
      <trkpt lat="25.0595220" lon="121.5378398"></trkpt>
      <trkpt lat="25.0595303" lon="121.5373231"></trkpt>
      <trkpt lat="25.0595304" lon="121.5373169"></trkpt>
      <trkpt lat="25.0595308" lon="121.5372934"></trkpt>
      <trkpt lat="25.0595322" lon="121.5372033"></trkpt>
      <trkpt lat="25.0595542" lon="121.5372032"></trkpt>
      <trkpt lat="25.0596360" lon="121.5372030"></trkpt>
      <trkpt lat="25.0596364" lon="121.5371197"></trkpt>
      <trkpt lat="25.0596383" lon="121.5367656"></trkpt>
      <trkpt lat="25.0596385" lon="121.5367175"></trkpt>
      <trkpt lat="25.0595603" lon="121.5367150"></trkpt>
      <trkpt lat="25.0595346" lon="121.5367142"></trkpt>
      <trkpt lat="25.0588000" lon="121.5367072"></trkpt>
      <trkpt lat="25.0580666" lon="121.5367258"></trkpt>
      <trkpt lat="25.0579718" lon="121.5367182"></trkpt>
      <trkpt lat="25.0578163" lon="121.5367112"></trkpt>
      <trkpt lat="25.0576783" lon="121.5367058"></trkpt>
      <trkpt lat="25.0574649" lon="121.5367024"></trkpt>
      <trkpt lat="25.0569406" lon="121.5366900"></trkpt>
      <trkpt lat="25.0564156" lon="121.5366814"></trkpt>
      <trkpt lat="25.0563532" lon="121.5366798"></trkpt>
      <trkpt lat="25.0563256" lon="121.5366791"></trkpt>
      <trkpt lat="25.0562891" lon="121.5366782"></trkpt>
      <trkpt lat="25.0561979" lon="121.5366745"></trkpt>
      <trkpt lat="25.0560925" lon="121.5366702"></trkpt>
      <trkpt lat="25.0558703" lon="121.5366612"></trkpt>
      <trkpt lat="25.0554480" lon="121.5366522"></trkpt>
      <trkpt lat="25.0553460" lon="121.5366509"></trkpt>
      <trkpt lat="25.0548538" lon="121.5366275"></trkpt>
      <trkpt lat="25.0547615" lon="121.5366257"></trkpt>
      <trkpt lat="25.0546342" lon="121.5366183"></trkpt>
      <trkpt lat="25.0542969" lon="121.5366080"></trkpt>
      <trkpt lat="25.0535941" lon="121.5365847"></trkpt>
      <trkpt lat="25.0531580" lon="121.5365753"></trkpt>
      <trkpt lat="25.0525177" lon="121.5365615"></trkpt>
      <trkpt lat="25.0521950" lon="121.5365444"></trkpt>
      <trkpt lat="25.0521932" lon="121.5366559"></trkpt>
      <trkpt lat="25.0521818" lon="121.5366941"></trkpt>
      <trkpt lat="25.0521745" lon="121.5368557"></trkpt>
      <trkpt lat="25.0521673" lon="121.5368932"></trkpt>
      <trkpt lat="25.0521672" lon="121.5370274"></trkpt>
      <trkpt lat="25.0521670" lon="121.5371223"></trkpt>
      <trkpt lat="25.0521651" lon="121.5371969"></trkpt>
      <trkpt lat="25.0520843" lon="121.5371943"></trkpt>
      <trkpt lat="25.0520317" lon="121.5371926"></trkpt>
      <trkpt lat="25.0520014" lon="121.5371916"></trkpt>
      <trkpt lat="25.0519224" lon="121.5371890"></trkpt>
      <trkpt lat="25.0518261" lon="121.5371860"></trkpt>
      <trkpt lat="25.0518038" lon="121.5371225"></trkpt>
      <trkpt lat="25.0509194" lon="121.5370941"></trkpt>
      <trkpt lat="25.0505037" lon="121.5370874"></trkpt>
      <trkpt lat="25.0500731" lon="121.5370796"></trkpt>
      <trkpt lat="25.0500747" lon="121.5370075"></trkpt>
      <trkpt lat="25.0505055" lon="121.5370123"></trkpt>
      <trkpt lat="25.0509200" lon="121.5370172"></trkpt>
      <trkpt lat="25.0514945" lon="121.5370293"></trkpt>
      <trkpt lat="25.0518046" lon="121.5370223"></trkpt>
      <trkpt lat="25.0518053" lon="121.5369261"></trkpt>
      <trkpt lat="25.0518179" lon="121.5366673"></trkpt>
      <trkpt lat="25.0518205" lon="121.5365379"></trkpt>
      <trkpt lat="25.0509770" lon="121.5365287"></trkpt>
      <trkpt lat="25.0506090" lon="121.5365267"></trkpt>
      <trkpt lat="25.0503047" lon="121.5365214"></trkpt>
      <trkpt lat="25.0501486" lon="121.5365187"></trkpt>
      <trkpt lat="25.0496775" lon="121.5365001"></trkpt>
      <trkpt lat="25.0496188" lon="121.5364980"></trkpt>
      <trkpt lat="25.0495377" lon="121.5364952"></trkpt>
      <trkpt lat="25.0494336" lon="121.5364893"></trkpt>
      <trkpt lat="25.0492957" lon="121.5364810"></trkpt>
      <trkpt lat="25.0485127" lon="121.5364744"></trkpt>
      <trkpt lat="25.0483945" lon="121.5364678"></trkpt>
      <trkpt lat="25.0482770" lon="121.5364680"></trkpt>
      <trkpt lat="25.0479273" lon="121.5364582"></trkpt>
      <trkpt lat="25.0475362" lon="121.5364444"></trkpt>
      <trkpt lat="25.0471800" lon="121.5364406"></trkpt>
      <trkpt lat="25.0468535" lon="121.5364368"></trkpt>
      <trkpt lat="25.0465841" lon="121.5364323"></trkpt>
      <trkpt lat="25.0463093" lon="121.5364182"></trkpt>
      <trkpt lat="25.0462557" lon="121.5364154"></trkpt>
      <trkpt lat="25.0462298" lon="121.5364141"></trkpt>
      <trkpt lat="25.0460224" lon="121.5364065"></trkpt>
      <trkpt lat="25.0459331" lon="121.5364045"></trkpt>
      <trkpt lat="25.0449380" lon="121.5363665"></trkpt>
      <trkpt lat="25.0448736" lon="121.5363640"></trkpt>
      <trkpt lat="25.0447845" lon="121.5363623"></trkpt>
      <trkpt lat="25.0446674" lon="121.5363596"></trkpt>
      <trkpt lat="25.0446180" lon="121.5363597"></trkpt>
      <trkpt lat="25.0441818" lon="121.5363539"></trkpt>
      <trkpt lat="25.0440466" lon="121.5363478"></trkpt>
      <trkpt lat="25.0439112" lon="121.5363486"></trkpt>
      <trkpt lat="25.0437653" lon="121.5363529"></trkpt>
      <trkpt lat="25.0436963" lon="121.5363549"></trkpt>
      <trkpt lat="25.0436008" lon="121.5363629"></trkpt>
      <trkpt lat="25.0433875" lon="121.5363807"></trkpt>
      <trkpt lat="25.0433178" lon="121.5363907"></trkpt>
      <trkpt lat="25.0432821" lon="121.5363958"></trkpt>
      <trkpt lat="25.0431037" lon="121.5364213"></trkpt>
      <trkpt lat="25.0428626" lon="121.5364558"></trkpt>
      <trkpt lat="25.0425180" lon="121.5365403"></trkpt>
      <trkpt lat="25.0422359" lon="121.5366250"></trkpt>
      <trkpt lat="25.0419482" lon="121.5367278"></trkpt>
      <trkpt lat="25.0419347" lon="121.5368542"></trkpt>
      <trkpt lat="25.0418981" lon="121.5371971"></trkpt>
      <trkpt lat="25.0418876" lon="121.5372961"></trkpt>
      <trkpt lat="25.0418981" lon="121.5371971"></trkpt>
      <trkpt lat="25.0419347" lon="121.5368542"></trkpt>
      <trkpt lat="25.0419482" lon="121.5367278"></trkpt>
      <trkpt lat="25.0418254" lon="121.5367723"></trkpt>
      <trkpt lat="25.0416674" lon="121.5368542"></trkpt>
      <trkpt lat="25.0415591" lon="121.5369225"></trkpt>
      <trkpt lat="25.0412699" lon="121.5370386"></trkpt>
      <trkpt lat="25.0407652" lon="121.5372369"></trkpt>
      <trkpt lat="25.0406761" lon="121.5372719"></trkpt>
      <trkpt lat="25.0405686" lon="121.5373141"></trkpt>
      <trkpt lat="25.0405548" lon="121.5373185"></trkpt>
      <trkpt lat="25.0401993" lon="121.5374321"></trkpt>
      <trkpt lat="25.0401529" lon="121.5374424"></trkpt>
      <trkpt lat="25.0401542" lon="121.5373375"></trkpt>
      <trkpt lat="25.0396636" lon="121.5374162"></trkpt>
      <trkpt lat="25.0385543" lon="121.5374109"></trkpt>
      <trkpt lat="25.0385263" lon="121.5373928"></trkpt>
      <trkpt lat="25.0384877" lon="121.5374240"></trkpt>
      <trkpt lat="25.0384641" lon="121.5373041"></trkpt>
      <trkpt lat="25.0384703" lon="121.5370432"></trkpt>
      <trkpt lat="25.0384665" lon="121.5368601"></trkpt>
      <trkpt lat="25.0384737" lon="121.5358799"></trkpt>
      <trkpt lat="25.0384824" lon="121.5355344"></trkpt>
      <trkpt lat="25.0384981" lon="121.5348216"></trkpt>
      <trkpt lat="25.0385628" lon="121.5348226"></trkpt>
      <trkpt lat="25.0389716" lon="121.5348316"></trkpt>
      <trkpt lat="25.0392834" lon="121.5348333"></trkpt>
      <trkpt lat="25.0393564" lon="121.5348367"></trkpt>
      <trkpt lat="25.0396358" lon="121.5348495"></trkpt>
      <trkpt lat="25.0397225" lon="121.5348485"></trkpt>
      <trkpt lat="25.0398296" lon="121.5348473"></trkpt>
      <trkpt lat="25.0401574" lon="121.5348458"></trkpt>
      <trkpt lat="25.0401614" lon="121.5345115"></trkpt>
      <trkpt lat="25.0401742" lon="121.5334455"></trkpt>
      <trkpt lat="25.0401851" lon="121.5331298"></trkpt>
      <trkpt lat="25.0401872" lon="121.5330717"></trkpt>
      <trkpt lat="25.0402162" lon="121.5330717"></trkpt>
      <trkpt lat="25.0402812" lon="121.5330233"></trkpt>
      <trkpt lat="25.0402818" lon="121.5329602"></trkpt>
      <trkpt lat="25.0406593" lon="121.5329603"></trkpt>
      <trkpt lat="25.0406592" lon="121.5330291"></trkpt>
      <trkpt lat="25.0402812" lon="121.5330233"></trkpt>
      <trkpt lat="25.0402818" lon="121.5329602"></trkpt>
      <trkpt lat="25.0402822" lon="121.5329181"></trkpt>
      <trkpt lat="25.0402825" lon="121.5328809"></trkpt>
      <trkpt lat="25.0402834" lon="121.5327797"></trkpt>
      <trkpt lat="25.0401916" lon="121.5327321"></trkpt>
      <trkpt lat="25.0401919" lon="121.5326030"></trkpt>
      <trkpt lat="25.0401925" lon="121.5325787"></trkpt>
      <trkpt lat="25.0402007" lon="121.5322404"></trkpt>
      <trkpt lat="25.0402040" lon="121.5322112"></trkpt>
      <trkpt lat="25.0402251" lon="121.5320218"></trkpt>
      <trkpt lat="25.0402503" lon="121.5317954"></trkpt>
      <trkpt lat="25.0402645" lon="121.5316679"></trkpt>
      <trkpt lat="25.0402726" lon="121.5315949"></trkpt>
      <trkpt lat="25.0402901" lon="121.5315193"></trkpt>
      <trkpt lat="25.0403853" lon="121.5311082"></trkpt>
      <trkpt lat="25.0402740" lon="121.5310733"></trkpt>
      <trkpt lat="25.0401496" lon="121.5310342"></trkpt>
      <trkpt lat="25.0399376" lon="121.5309730"></trkpt>
      <trkpt lat="25.0398591" lon="121.5309504"></trkpt>
      <trkpt lat="25.0396668" lon="121.5309945"></trkpt>
      <trkpt lat="25.0393385" lon="121.5310726"></trkpt>
      <trkpt lat="25.0391050" lon="121.5311423"></trkpt>
      <trkpt lat="25.0388837" lon="121.5311413"></trkpt>
      <trkpt lat="25.0388635" lon="121.5311404"></trkpt>
      <trkpt lat="25.0388662" lon="121.5307159"></trkpt>
      <trkpt lat="25.0388659" lon="121.5306567"></trkpt>
      <trkpt lat="25.0383817" lon="121.5306416"></trkpt>
      <trkpt lat="25.0383172" lon="121.5306412"></trkpt>
      <trkpt lat="25.0383384" lon="121.5294813"></trkpt>
      <trkpt lat="25.0383387" lon="121.5294144"></trkpt>
      <trkpt lat="25.0383407" lon="121.5293416"></trkpt>
      <trkpt lat="25.0383474" lon="121.5286988"></trkpt>
      <trkpt lat="25.0383471" lon="121.5285306"></trkpt>
      <trkpt lat="25.0382881" lon="121.5284933"></trkpt>
      <trkpt lat="25.0382477" lon="121.5284678"></trkpt>
      <trkpt lat="25.0382090" lon="121.5284564"></trkpt>
      <trkpt lat="25.0381425" lon="121.5284369"></trkpt>
      <trkpt lat="25.0381416" lon="121.5283333"></trkpt>
      <trkpt lat="25.0381416" lon="121.5282166"></trkpt>
      <trkpt lat="25.0381439" lon="121.5281137"></trkpt>
      <trkpt lat="25.0380877" lon="121.5280977"></trkpt>
      <trkpt lat="25.0380898" lon="121.5279716"></trkpt>
      <trkpt lat="25.0380931" lon="121.5277806"></trkpt>
      <trkpt lat="25.0380994" lon="121.5274066"></trkpt>
      <trkpt lat="25.0381008" lon="121.5273254"></trkpt>
      <trkpt lat="25.0381095" lon="121.5268104"></trkpt>
      <trkpt lat="25.0381159" lon="121.5265728"></trkpt>
      <trkpt lat="25.0381302" lon="121.5261510"></trkpt>
      <trkpt lat="25.0381436" lon="121.5257011"></trkpt>
      <trkpt lat="25.0381590" lon="121.5252766"></trkpt>
      <trkpt lat="25.0381198" lon="121.5252324"></trkpt>
      <trkpt lat="25.0381250" lon="121.5251512"></trkpt>
      <trkpt lat="25.0381322" lon="121.5250401"></trkpt>
      <trkpt lat="25.0382456" lon="121.5242372"></trkpt>
      <trkpt lat="25.0383460" lon="121.5234678"></trkpt>
      <trkpt lat="25.0383440" lon="121.5233673"></trkpt>
      <trkpt lat="25.0383549" lon="121.5233103"></trkpt>
      <trkpt lat="25.0378169" lon="121.5231406"></trkpt>
      <trkpt lat="25.0379178" lon="121.5227192"></trkpt>
      <trkpt lat="25.0384431" lon="121.5228663"></trkpt>
      <trkpt lat="25.0384948" lon="121.5224555"></trkpt>
      <trkpt lat="25.0385351" lon="121.5221021"></trkpt>
      <trkpt lat="25.0381341" lon="121.5219186"></trkpt>
      <trkpt lat="25.0379014" lon="121.5218100"></trkpt>
      <trkpt lat="25.0379913" lon="121.5214904"></trkpt>
      <trkpt lat="25.0372165" lon="121.5212352"></trkpt>
      <trkpt lat="25.0371726" lon="121.5212343"></trkpt>
      <trkpt lat="25.0371904" lon="121.5211974"></trkpt>
      <trkpt lat="25.0372486" lon="121.5210805"></trkpt>
      <trkpt lat="25.0372708" lon="121.5210305"></trkpt>
      <trkpt lat="25.0372768" lon="121.5210204"></trkpt>
      <trkpt lat="25.0375569" lon="121.5204782"></trkpt>
      <trkpt lat="25.0379830" lon="121.5196065"></trkpt>
      <trkpt lat="25.0380585" lon="121.5194498"></trkpt>
      <trkpt lat="25.0379982" lon="121.5194222"></trkpt>
      <trkpt lat="25.0380585" lon="121.5194498"></trkpt>
      <trkpt lat="25.0381605" lon="121.5192439"></trkpt>
      <trkpt lat="25.0385759" lon="121.5183670"></trkpt>
      <trkpt lat="25.0386564" lon="121.5181915"></trkpt>
      <trkpt lat="25.0386112" lon="121.5181665"></trkpt>
      <trkpt lat="25.0385088" lon="121.5181098"></trkpt>
      <trkpt lat="25.0384092" lon="121.5180546"></trkpt>
      <trkpt lat="25.0383526" lon="121.5180233"></trkpt>
      <trkpt lat="25.0384293" lon="121.5178628"></trkpt>
      <trkpt lat="25.0384232" lon="121.5177742"></trkpt>
      <trkpt lat="25.0383791" lon="121.5177185"></trkpt>
      <trkpt lat="25.0383338" lon="121.5176903"></trkpt>
      <trkpt lat="25.0383508" lon="121.5176566"></trkpt>
      <trkpt lat="25.0383614" lon="121.5176054"></trkpt>
      <trkpt lat="25.0383918" lon="121.5174848"></trkpt>
      <trkpt lat="25.0384230" lon="121.5173611"></trkpt>
      <trkpt lat="25.0384364" lon="121.5173078"></trkpt>
      <trkpt lat="25.0381788" lon="121.5172300"></trkpt>
      <trkpt lat="25.0381670" lon="121.5172092"></trkpt>
      <trkpt lat="25.0382732" lon="121.5167793"></trkpt>
      <trkpt lat="25.0386039" lon="121.5154534"></trkpt>
      <trkpt lat="25.0386147" lon="121.5154060"></trkpt>
      <trkpt lat="25.0386299" lon="121.5154106"></trkpt>
      <trkpt lat="25.0392069" lon="121.5155803"></trkpt>
      <trkpt lat="25.0392925" lon="121.5156977"></trkpt>
      <trkpt lat="25.0393290" lon="121.5155208"></trkpt>
      <trkpt lat="25.0395764" lon="121.5155861"></trkpt>
      <trkpt lat="25.0397091" lon="121.5156183"></trkpt>
      <trkpt lat="25.0397882" lon="121.5156406"></trkpt>
      <trkpt lat="25.0408902" lon="121.5159638"></trkpt>
      <trkpt lat="25.0411589" lon="121.5160430"></trkpt>
      <trkpt lat="25.0411823" lon="121.5159532"></trkpt>
      <trkpt lat="25.0412247" lon="121.5159646"></trkpt>
      <trkpt lat="25.0412332" lon="121.5159671"></trkpt>
      <trkpt lat="25.0414570" lon="121.5160323"></trkpt>
      <trkpt lat="25.0426447" lon="121.5163644"></trkpt>
      <trkpt lat="25.0431515" lon="121.5165292"></trkpt>
      <trkpt lat="25.0432294" lon="121.5164940"></trkpt>
      <trkpt lat="25.0433722" lon="121.5165438"></trkpt>
      <trkpt lat="25.0433806" lon="121.5161582"></trkpt>
      <trkpt lat="25.0433801" lon="121.5160888"></trkpt>
      <trkpt lat="25.0433797" lon="121.5160459"></trkpt>
      <trkpt lat="25.0433756" lon="121.5155509"></trkpt>
      <trkpt lat="25.0433752" lon="121.5154916"></trkpt>
      <trkpt lat="25.0433799" lon="121.5150164"></trkpt>
      <trkpt lat="25.0434534" lon="121.5150168"></trkpt>
      <trkpt lat="25.0441095" lon="121.5150200"></trkpt>
      <trkpt lat="25.0446373" lon="121.5150226"></trkpt>
      <trkpt lat="25.0451619" lon="121.5150252"></trkpt>
      <trkpt lat="25.0454610" lon="121.5150267"></trkpt>
      <trkpt lat="25.0455141" lon="121.5150270"></trkpt>
      <trkpt lat="25.0459780" lon="121.5150238"></trkpt>
      <trkpt lat="25.0460539" lon="121.5150227"></trkpt>
      <trkpt lat="25.0466484" lon="121.5150217"></trkpt>
      <trkpt lat="25.0467587" lon="121.5150171"></trkpt>
      <trkpt lat="25.0468889" lon="121.5150209"></trkpt>
      <trkpt lat="25.0470014" lon="121.5150176"></trkpt>
      <trkpt lat="25.0471360" lon="121.5150024"></trkpt>
      <trkpt lat="25.0474264" lon="121.5150684"></trkpt>
      <trkpt lat="25.0475020" lon="121.5151205"></trkpt>
      <trkpt lat="25.0475129" lon="121.5151478"></trkpt>
      <trkpt lat="25.0475141" lon="121.5152151"></trkpt>
      <trkpt lat="25.0475085" lon="121.5152694"></trkpt>
      <trkpt lat="25.0473990" lon="121.5158944"></trkpt>
      <trkpt lat="25.0473608" lon="121.5161288"></trkpt>
      <trkpt lat="25.0474479" lon="121.5161498"></trkpt>
      <trkpt lat="25.0483758" lon="121.5163736"></trkpt>
      <trkpt lat="25.0485775" lon="121.5164250"></trkpt>
      <trkpt lat="25.0486678" lon="121.5164607"></trkpt>
      <trkpt lat="25.0488523" lon="121.5165498"></trkpt>
      <trkpt lat="25.0488760" lon="121.5163898"></trkpt>
      <trkpt lat="25.0489053" lon="121.5163300"></trkpt>
      <trkpt lat="25.0489579" lon="121.5162225"></trkpt>
      <trkpt lat="25.0489897" lon="121.5159654"></trkpt>
      <trkpt lat="25.0490369" lon="121.5156873"></trkpt>
      <trkpt lat="25.0495224" lon="121.5158251"></trkpt>
      <trkpt lat="25.0497094" lon="121.5150287"></trkpt>
      <trkpt lat="25.0498372" lon="121.5150623"></trkpt>
      <trkpt lat="25.0500336" lon="121.5151133"></trkpt>
      <trkpt lat="25.0502151" lon="121.5151659"></trkpt>
      <trkpt lat="25.0502853" lon="121.5151862"></trkpt>
      <trkpt lat="25.0503519" lon="121.5152062"></trkpt>
      <trkpt lat="25.0504705" lon="121.5152389"></trkpt>
      <trkpt lat="25.0507422" lon="121.5153107"></trkpt>
      <trkpt lat="25.0509616" lon="121.5153696"></trkpt>
      <trkpt lat="25.0511680" lon="121.5154188"></trkpt>
      <trkpt lat="25.0512603" lon="121.5154408"></trkpt>
      <trkpt lat="25.0513490" lon="121.5154666"></trkpt>
      <trkpt lat="25.0518873" lon="121.5156196"></trkpt>
      <trkpt lat="25.0519961" lon="121.5152036"></trkpt>
      <trkpt lat="25.0524041" lon="121.5151455"></trkpt>
      <trkpt lat="25.0528151" lon="121.5150508"></trkpt>
      <trkpt lat="25.0528511" lon="121.5153041"></trkpt>
      <trkpt lat="25.0532013" lon="121.5152353"></trkpt>
      <trkpt lat="25.0537152" lon="121.5151437"></trkpt>
      <trkpt lat="25.0537446" lon="121.5150663"></trkpt>
      <trkpt lat="25.0538236" lon="121.5150948"></trkpt>
      <trkpt lat="25.0539085" lon="121.5151242"></trkpt>
      <trkpt lat="25.0539686" lon="121.5151110"></trkpt>
      <trkpt lat="25.0539461" lon="121.5151979"></trkpt>
      <trkpt lat="25.0538252" lon="121.5156857"></trkpt>
      <trkpt lat="25.0540515" lon="121.5157481"></trkpt>
      <trkpt lat="25.0545310" lon="121.5156830"></trkpt>
      <trkpt lat="25.0549169" lon="121.5156660"></trkpt>
      <trkpt lat="25.0553725" lon="121.5156654"></trkpt>
      <trkpt lat="25.0555214" lon="121.5151340"></trkpt>
      <trkpt lat="25.0557830" lon="121.5152032"></trkpt>
      <trkpt lat="25.0561321" lon="121.5153360"></trkpt>
      <trkpt lat="25.0569022" lon="121.5155431"></trkpt>
      <trkpt lat="25.0570137" lon="121.5155743"></trkpt>
      <trkpt lat="25.0572536" lon="121.5155147"></trkpt>
      <trkpt lat="25.0575026" lon="121.5154096"></trkpt>
      <trkpt lat="25.0578736" lon="121.5152961"></trkpt>
      <trkpt lat="25.0584193" lon="121.5151259"></trkpt>
      <trkpt lat="25.0588495" lon="121.5149693"></trkpt>
      <trkpt lat="25.0593203" lon="121.5148239"></trkpt>
      <trkpt lat="25.0593719" lon="121.5148081"></trkpt>
      <trkpt lat="25.0595047" lon="121.5147663"></trkpt>
      <trkpt lat="25.0595247" lon="121.5148449"></trkpt>
      <trkpt lat="25.0596132" lon="121.5151917"></trkpt>
    </trkseg>
  </trk>
</gpx>
