<?xml version="1.0" encoding="UTF-8"?>
<gpx version="1.1" creator="shape-route-poc" xmlns="http://www.topografix.com/GPX/1/1" xmlns:xsi="http://www.w3.org/2001/XMLSchema-instance" xsi:schemaLocation="http://www.topografix.com/GPX/1/1 http://www.topografix.com/GPX/1/1/gpx.xsd">
  <metadata>
    <name>LIT (outline)</name>
    <desc>LIT · 29.9 km · bike · shape distance 0.114 · 16 repeated segments</desc>
    <time>2026-09-11T14:28:25Z</time>
    <bounds minlat="25.0364364" minlon="121.5097214" maxlat="25.0601833" maxlon="121.5555364"/>
  </metadata>
  <rte>
    <name>LIT (outline)</name>
    <type>cycling</type>
    <rtept lat="25.0582553" lon="121.5105463"></rtept>
    <rtept lat="25.0582708" lon="121.5111892"></rtept>
    <rtept lat="25.0589379" lon="121.5111492"></rtept>
    <rtept lat="25.0592299" lon="121.5135683"></rtept>
    <rtept lat="25.0570910" lon="121.5136751"></rtept>
    <rtept lat="25.0553788" lon="121.5140009"></rtept>
    <rtept lat="25.0552087" lon="121.5133219"></rtept>
    <rtept lat="25.0532098" lon="121.5136153"></rtept>
    <rtept lat="25.0529533" lon="121.5132213"></rtept>
    <rtept lat="25.0517461" lon="121.5132669"></rtept>
    <rtept lat="25.0515788" lon="121.5138510"></rtept>
    <rtept lat="25.0494613" lon="121.5132513"></rtept>
    <rtept lat="25.0471860" lon="121.5132706"></rtept>
    <rtept lat="25.0469546" lon="121.5142198"></rtept>
    <rtept lat="25.0459813" lon="121.5141958"></rtept>
    <rtept lat="25.0459873" lon="121.5138297"></rtept>
    <rtept lat="25.0451684" lon="121.5138245"></rtept>
    <rtept lat="25.0451671" lon="121.5141662"></rtept>
    <rtept lat="25.0416896" lon="121.5140463"></rtept>
    <rtept lat="25.0398353" lon="121.5138366"></rtept>
    <rtept lat="25.0395764" lon="121.5155861"></rtept>
    <rtept lat="25.0391447" lon="121.5172051"></rtept>
    <rtept lat="25.0393431" lon="121.5172670"></rtept>
    <rtept lat="25.0395306" lon="121.5176142"></rtept>
    <rtept lat="25.0389395" lon="121.5216567"></rtept>
    <rtept lat="25.0397804" lon="121.5219155"></rtept>
    <rtept lat="25.0390235" lon="121.5254063"></rtept>
    <rtept lat="25.0401911" lon="121.5257785"></rtept>
    <rtept lat="25.0395156" lon="121.5286205"></rtept>
    <rtept lat="25.0423759" lon="121.5294969"></rtept>
    <rtept lat="25.0428178" lon="121.5291398"></rtept>
    <rtept lat="25.0429335" lon="121.5284994"></rtept>
    <rtept lat="25.0433860" lon="121.5286587"></rtept>
    <rtept lat="25.0433029" lon="121.5289660"></rtept>
    <rtept lat="25.0434305" lon="121.5290033"></rtept>
    <rtept lat="25.0437086" lon="121.5301650"></rtept>
    <rtept lat="25.0438275" lon="121.5302275"></rtept>
    <rtept lat="25.0461013" lon="121.5308345"></rtept>
    <rtept lat="25.0470240" lon="121.5277459"></rtept>
    <rtept lat="25.0478647" lon="121.5279862"></rtept>
    <rtept lat="25.0477348" lon="121.5285986"></rtept>
    <rtept lat="25.0481168" lon="121.5290662"></rtept>
    <rtept lat="25.0481199" lon="121.5294082"></rtept>
    <rtept lat="25.0483436" lon="121.5297572"></rtept>
    <rtept lat="25.0489484" lon="121.5292435"></rtept>
    <rtept lat="25.0501000" lon="121.5285597"></rtept>
    <rtept lat="25.0519078" lon="121.5279060"></rtept>
    <rtept lat="25.0519121" lon="121.5288543"></rtept>
    <rtept lat="25.0521489" lon="121.5288551"></rtept>
    <rtept lat="25.0521590" lon="121.5278565"></rtept>
    <rtept lat="25.0532185" lon="121.5277184"></rtept>
    <rtept lat="25.0549023" lon="121.5277119"></rtept>
    <rtept lat="25.0548829" lon="121.5288687"></rtept>
    <rtept lat="25.0589611" lon="121.5289342"></rtept>
    <rtept lat="25.0589140" lon="121.5316642"></rtept>
    <rtept lat="25.0584856" lon="121.5316434"></rtept>
    <rtept lat="25.0584663" lon="121.5330783"></rtept>
    <rtept lat="25.0579378" lon="121.5330675"></rtept>
    <rtept lat="25.0578685" lon="121.5332075"></rtept>
    <rtept lat="25.0588531" lon="121.5333188"></rtept>
    <rtept lat="25.0588301" lon="121.5348059"></rtept>
    <rtept lat="25.0591888" lon="121.5348232"></rtept>
    <rtept lat="25.0588301" lon="121.5348059"></rtept>
    <rtept lat="25.0588000" lon="121.5367072"></rtept>
    <rtept lat="25.0578163" lon="121.5367112"></rtept>
    <rtept lat="25.0578339" lon="121.5371308"></rtept>
    <rtept lat="25.0587999" lon="121.5371905"></rtept>
    <rtept lat="25.0587473" lon="121.5407123"></rtept>
    <rtept lat="25.0598413" lon="121.5407374"></rtept>
    <rtept lat="25.0598245" lon="121.5420123"></rtept>
    <rtept lat="25.0594519" lon="121.5420083"></rtept>
    <rtept lat="25.0594411" lon="121.5431201"></rtept>
    <rtept lat="25.0587174" lon="121.5430696"></rtept>
    <rtept lat="25.0586960" lon="121.5440988"></rtept>
    <rtept lat="25.0579600" lon="121.5440872"></rtept>
    <rtept lat="25.0579499" lon="121.5442405"></rtept>
    <rtept lat="25.0589866" lon="121.5442556"></rtept>
    <rtept lat="25.0589570" lon="121.5474646"></rtept>
    <rtept lat="25.0584712" lon="121.5480907"></rtept>
    <rtept lat="25.0589443" lon="121.5485396"></rtept>
    <rtept lat="25.0585487" lon="121.5490361"></rtept>
    <rtept lat="25.0579364" lon="121.5488286"></rtept>
    <rtept lat="25.0578283" lon="121.5494185"></rtept>
    <rtept lat="25.0579327" lon="121.5504736"></rtept>
    <rtept lat="25.0588586" lon="121.5505594"></rtept>
    <rtept lat="25.0601833" lon="121.5512108"></rtept>
    <rtept lat="25.0599225" lon="121.5518661"></rtept>
    <rtept lat="25.0592183" lon="121.5519535"></rtept>
    <rtept lat="25.0593953" lon="121.5535419"></rtept>
    <rtept lat="25.0581432" lon="121.5543139"></rtept>
    <rtept lat="25.0582301" lon="121.5552433"></rtept>
    <rtept lat="25.0566547" lon="121.5555364"></rtept>
    <rtept lat="25.0566482" lon="121.5529825"></rtept>
    <rtept lat="25.0562351" lon="121.5529641"></rtept>
    <rtept lat="25.0566093" lon="121.5520473"></rtept>
    <rtept lat="25.0566028" lon="121.5513012"></rtept>
    <rtept lat="25.0573746" lon="121.5506674"></rtept>
    <rtept lat="25.0577468" lon="121.5505271"></rtept>
    <rtept lat="25.0575274" lon="121.5485816"></rtept>
    <rtept lat="25.0532820" lon="121.5451930"></rtept>
    <rtept lat="25.0529001" lon="121.5457980"></rtept>
    <rtept lat="25.0528650" lon="121.5467371"></rtept>
    <rtept lat="25.0517224" lon="121.5467004"></rtept>
    <rtept lat="25.0516856" lon="121.5475510"></rtept>
    <rtept lat="25.0482051" lon="121.5474292"></rtept>
    <rtept lat="25.0482040" lon="121.5468407"></rtept>
    <rtept lat="25.0451987" lon="121.5467442"></rtept>
    <rtept lat="25.0450825" lon="121.5452036"></rtept>
    <rtept lat="25.0449151" lon="121.5452967"></rtept>
    <rtept lat="25.0450034" lon="121.5463078"></rtept>
    <rtept lat="25.0449387" lon="121.5472821"></rtept>
    <rtept lat="25.0380835" lon="121.5471050"></rtept>
    <rtept lat="25.0381091" lon="121.5459192"></rtept>
    <rtept lat="25.0377437" lon="121.5459096"></rtept>
    <rtept lat="25.0377811" lon="121.5438744"></rtept>
    <rtept lat="25.0431365" lon="121.5438857"></rtept>
    <rtept lat="25.0431399" lon="121.5436663"></rtept>
    <rtept lat="25.0446690" lon="121.5436698"></rtept>
    <rtept lat="25.0475296" lon="121.5437531"></rtept>
    <rtept lat="25.0475992" lon="121.5440063"></rtept>
    <rtept lat="25.0482545" lon="121.5440173"></rtept>
    <rtept lat="25.0482600" lon="121.5437342"></rtept>
    <rtept lat="25.0516813" lon="121.5438885"></rtept>
    <rtept lat="25.0516912" lon="121.5437797"></rtept>
    <rtept lat="25.0519298" lon="121.5437826"></rtept>
    <rtept lat="25.0519398" lon="121.5434613"></rtept>
    <rtept lat="25.0520225" lon="121.5434608"></rtept>
    <rtept lat="25.0545792" lon="121.5434988"></rtept>
    <rtept lat="25.0545763" lon="121.5439802"></rtept>
    <rtept lat="25.0560306" lon="121.5440010"></rtept>
    <rtept lat="25.0560715" lon="121.5421636"></rtept>
    <rtept lat="25.0568450" lon="121.5421768"></rtept>
    <rtept lat="25.0569413" lon="121.5366061"></rtept>
    <rtept lat="25.0564165" lon="121.5365623"></rtept>
    <rtept lat="25.0564179" lon="121.5363881"></rtept>
    <rtept lat="25.0564165" lon="121.5365623"></rtept>
    <rtept lat="25.0569413" lon="121.5366061"></rtept>
    <rtept lat="25.0569632" lon="121.5370882"></rtept>
    <rtept lat="25.0579593" lon="121.5371765"></rtept>
    <rtept lat="25.0579825" lon="121.5348263"></rtept>
    <rtept lat="25.0588301" lon="121.5348059"></rtept>
    <rtept lat="25.0579825" lon="121.5348263"></rtept>
    <rtept lat="25.0579505" lon="121.5322405"></rtept>
    <rtept lat="25.0591812" lon="121.5322397"></rtept>
    <rtept lat="25.0591659" lon="121.5330755"></rtept>
    <rtept lat="25.0560245" lon="121.5329335"></rtept>
    <rtept lat="25.0560380" lon="121.5315507"></rtept>
    <rtept lat="25.0543745" lon="121.5315453"></rtept>
    <rtept lat="25.0543729" lon="121.5318348"></rtept>
    <rtept lat="25.0540210" lon="121.5318294"></rtept>
    <rtept lat="25.0540249" lon="121.5315415"></rtept>
    <rtept lat="25.0505131" lon="121.5314792"></rtept>
    <rtept lat="25.0505573" lon="121.5320657"></rtept>
    <rtept lat="25.0497887" lon="121.5320325"></rtept>
    <rtept lat="25.0497839" lon="121.5328112"></rtept>
    <rtept lat="25.0461829" lon="121.5327432"></rtept>
    <rtept lat="25.0460750" lon="121.5328578"></rtept>
    <rtept lat="25.0444290" lon="121.5326694"></rtept>
    <rtept lat="25.0443188" lon="121.5326481"></rtept>
    <rtept lat="25.0441019" lon="121.5318149"></rtept>
    <rtept lat="25.0436164" lon="121.5319543"></rtept>
    <rtept lat="25.0436624" lon="121.5322427"></rtept>
    <rtept lat="25.0431762" lon="121.5322651"></rtept>
    <rtept lat="25.0431322" lon="121.5326594"></rtept>
    <rtept lat="25.0422502" lon="121.5325294"></rtept>
    <rtept lat="25.0420986" lon="121.5326467"></rtept>
    <rtept lat="25.0380587" lon="121.5325432"></rtept>
    <rtept lat="25.0380639" lon="121.5323139"></rtept>
    <rtept lat="25.0375766" lon="121.5322150"></rtept>
    <rtept lat="25.0376640" lon="121.5312319"></rtept>
    <rtept lat="25.0374984" lon="121.5312220"></rtept>
    <rtept lat="25.0372383" lon="121.5316465"></rtept>
    <rtept lat="25.0370148" lon="121.5314319"></rtept>
    <rtept lat="25.0373334" lon="121.5309196"></rtept>
    <rtept lat="25.0367730" lon="121.5304475"></rtept>
    <rtept lat="25.0372748" lon="121.5295463"></rtept>
    <rtept lat="25.0373754" lon="121.5290905"></rtept>
    <rtept lat="25.0371845" lon="121.5290041"></rtept>
    <rtept lat="25.0373967" lon="121.5281133"></rtept>
    <rtept lat="25.0384486" lon="121.5284483"></rtept>
    <rtept lat="25.0384523" lon="121.5282377"></rtept>
    <rtept lat="25.0390899" lon="121.5284559"></rtept>
    <rtept lat="25.0392403" lon="121.5277995"></rtept>
    <rtept lat="25.0396873" lon="121.5279283"></rtept>
    <rtept lat="25.0392403" lon="121.5277995"></rtept>
    <rtept lat="25.0397456" lon="121.5257487"></rtept>
    <rtept lat="25.0381590" lon="121.5252766"></rtept>
    <rtept lat="25.0381436" lon="121.5257011"></rtept>
    <rtept lat="25.0374211" lon="121.5254950"></rtept>
    <rtept lat="25.0375383" lon="121.5249783"></rtept>
    <rtept lat="25.0381250" lon="121.5251512"></rtept>
    <rtept lat="25.0383440" lon="121.5233673"></rtept>
    <rtept lat="25.0364364" lon="121.5227231"></rtept>
    <rtept lat="25.0372768" lon="121.5210204"></rtept>
    <rtept lat="25.0369412" lon="121.5208086"></rtept>
    <rtept lat="25.0380722" lon="121.5183833"></rtept>
    <rtept lat="25.0384293" lon="121.5178628"></rtept>
    <rtept lat="25.0383791" lon="121.5177185"></rtept>
    <rtept lat="25.0379928" lon="121.5175732"></rtept>
    <rtept lat="25.0385562" lon="121.5152939"></rtept>
    <rtept lat="25.0380212" lon="121.5151151"></rtept>
    <rtept lat="25.0372755" lon="121.5150764"></rtept>
    <rtept lat="25.0372648" lon="121.5149107"></rtept>
    <rtept lat="25.0372755" lon="121.5150764"></rtept>
    <rtept lat="25.0380212" lon="121.5151151"></rtept>
    <rtept lat="25.0385562" lon="121.5152939"></rtept>
    <rtept lat="25.0389287" lon="121.5111713"></rtept>
    <rtept lat="25.0376459" lon="121.5110335"></rtept>
    <rtept lat="25.0376566" lon="121.5109394"></rtept>
    <rtept lat="25.0388606" lon="121.5110443"></rtept>
    <rtept lat="25.0389611" lon="121.5101752"></rtept>
    <rtept lat="25.0413953" lon="121.5105108"></rtept>
    <rtept lat="25.0413077" lon="121.5113665"></rtept>
    <rtept lat="25.0441243" lon="121.5114874"></rtept>
    <rtept lat="25.0459931" lon="121.5112401"></rtept>
    <rtept lat="25.0459314" lon="121.5097214"></rtept>
    <rtept lat="25.0468834" lon="121.5100015"></rtept>
    <rtept lat="25.0469032" lon="121.5098563"></rtept>
    <rtept lat="25.0478370" lon="121.5100552"></rtept>
    <rtept lat="25.0482293" lon="121.5100062"></rtept>
    <rtept lat="25.0503608" lon="121.5105518"></rtept>
    <rtept lat="25.0519055" lon="121.5104935"></rtept>
    <rtept lat="25.0554707" lon="121.5100283"></rtept>
    <rtept lat="25.0555168" lon="121.5106359"></rtept>
    <rtept lat="25.0582553" lon="121.5105463"></rtept>
  </rte>
  <trk>
    <name>LIT (outline)</name>
    <type>cycling</type>
    <trkseg>
      <trkpt lat="25.0582553" lon="121.5105463"></trkpt>
      <trkpt lat="25.0582359" lon="121.5106369"></trkpt>
      <trkpt lat="25.0582320" lon="121.5106706"></trkpt>
      <trkpt lat="25.0582708" lon="121.5111892"></trkpt>
      <trkpt lat="25.0589038" lon="121.5111401"></trkpt>
      <trkpt lat="25.0589379" lon="121.5111492"></trkpt>
      <trkpt lat="25.0589504" lon="121.5113030"></trkpt>
      <trkpt lat="25.0589975" lon="121.5114554"></trkpt>
      <trkpt lat="25.0590057" lon="121.5115411"></trkpt>
      <trkpt lat="25.0590504" lon="121.5120054"></trkpt>
      <trkpt lat="25.0590703" lon="121.5121587"></trkpt>
      <trkpt lat="25.0591446" lon="121.5127326"></trkpt>
      <trkpt lat="25.0591584" lon="121.5128391"></trkpt>
      <trkpt lat="25.0591635" lon="121.5128781"></trkpt>
      <trkpt lat="25.0592299" lon="121.5135683"></trkpt>
      <trkpt lat="25.0591855" lon="121.5135709"></trkpt>
      <trkpt lat="25.0591551" lon="121.5135737"></trkpt>
      <trkpt lat="25.0582844" lon="121.5135823"></trkpt>
      <trkpt lat="25.0582160" lon="121.5135878"></trkpt>
      <trkpt lat="25.0581275" lon="121.5135947"></trkpt>
      <trkpt lat="25.0579815" lon="121.5136066"></trkpt>
      <trkpt lat="25.0579335" lon="121.5135976"></trkpt>
      <trkpt lat="25.0575977" lon="121.5136266"></trkpt>
      <trkpt lat="25.0570910" lon="121.5136751"></trkpt>
      <trkpt lat="25.0569905" lon="121.5136941"></trkpt>
      <trkpt lat="25.0568892" lon="121.5137133"></trkpt>
      <trkpt lat="25.0565096" lon="121.5137442"></trkpt>
      <trkpt lat="25.0563945" lon="121.5137666"></trkpt>
      <trkpt lat="25.0562229" lon="121.5138008"></trkpt>
      <trkpt lat="25.0561400" lon="121.5138088"></trkpt>
      <trkpt lat="25.0560044" lon="121.5138432"></trkpt>
      <trkpt lat="25.0559812" lon="121.5138491"></trkpt>
      <trkpt lat="25.0559372" lon="121.5138624"></trkpt>
      <trkpt lat="25.0558877" lon="121.5138768"></trkpt>
      <trkpt lat="25.0553788" lon="121.5140009"></trkpt>
      <trkpt lat="25.0552282" lon="121.5134164"></trkpt>
      <trkpt lat="25.0552087" lon="121.5133219"></trkpt>
      <trkpt lat="25.0548985" lon="121.5134233"></trkpt>
      <trkpt lat="25.0540534" lon="121.5135038"></trkpt>
      <trkpt lat="25.0540085" lon="121.5135085"></trkpt>
      <trkpt lat="25.0540123" lon="121.5135452"></trkpt>
      <trkpt lat="25.0539412" lon="121.5135514"></trkpt>
      <trkpt lat="25.0536523" lon="121.5135767"></trkpt>
      <trkpt lat="25.0532672" lon="121.5136103"></trkpt>
      <trkpt lat="25.0532098" lon="121.5136153"></trkpt>
      <trkpt lat="25.0529533" lon="121.5132213"></trkpt>
      <trkpt lat="25.0522803" lon="121.5132341"></trkpt>
      <trkpt lat="25.0520132" lon="121.5132749"></trkpt>
      <trkpt lat="25.0517461" lon="121.5132669"></trkpt>
      <trkpt lat="25.0516479" lon="121.5135996"></trkpt>
      <trkpt lat="25.0515943" lon="121.5137937"></trkpt>
      <trkpt lat="25.0515788" lon="121.5138510"></trkpt>
      <trkpt lat="25.0515182" lon="121.5138330"></trkpt>
      <trkpt lat="25.0512410" lon="121.5137505"></trkpt>
      <trkpt lat="25.0506192" lon="121.5135594"></trkpt>
      <trkpt lat="25.0502835" lon="121.5134602"></trkpt>
      <trkpt lat="25.0495560" lon="121.5132735"></trkpt>
      <trkpt lat="25.0494613" lon="121.5132513"></trkpt>
      <trkpt lat="25.0493427" lon="121.5132521"></trkpt>
      <trkpt lat="25.0491793" lon="121.5132626"></trkpt>
      <trkpt lat="25.0483683" lon="121.5132803"></trkpt>
      <trkpt lat="25.0483461" lon="121.5132808"></trkpt>
      <trkpt lat="25.0482658" lon="121.5132820"></trkpt>
      <trkpt lat="25.0481117" lon="121.5132836"></trkpt>
      <trkpt lat="25.0474669" lon="121.5132904"></trkpt>
      <trkpt lat="25.0473215" lon="121.5132751"></trkpt>
      <trkpt lat="25.0471860" lon="121.5132706"></trkpt>
      <trkpt lat="25.0471453" lon="121.5134455"></trkpt>
      <trkpt lat="25.0470950" lon="121.5136487"></trkpt>
      <trkpt lat="25.0469546" lon="121.5142198"></trkpt>
      <trkpt lat="25.0468431" lon="121.5142170"></trkpt>
      <trkpt lat="25.0461528" lon="121.5141998"></trkpt>
      <trkpt lat="25.0459813" lon="121.5141958"></trkpt>
      <trkpt lat="25.0459863" lon="121.5138921"></trkpt>
      <trkpt lat="25.0459873" lon="121.5138297"></trkpt>
      <trkpt lat="25.0456622" lon="121.5138157"></trkpt>
      <trkpt lat="25.0454882" lon="121.5138144"></trkpt>
      <trkpt lat="25.0451684" lon="121.5138245"></trkpt>
      <trkpt lat="25.0451679" lon="121.5139244"></trkpt>
      <trkpt lat="25.0451671" lon="121.5141662"></trkpt>
      <trkpt lat="25.0446265" lon="121.5141465"></trkpt>
      <trkpt lat="25.0445670" lon="121.5141444"></trkpt>
      <trkpt lat="25.0444164" lon="121.5141389"></trkpt>
      <trkpt lat="25.0443818" lon="121.5141376"></trkpt>
      <trkpt lat="25.0440506" lon="121.5141256"></trkpt>
      <trkpt lat="25.0438659" lon="121.5141189"></trkpt>
      <trkpt lat="25.0434790" lon="121.5141048"></trkpt>
      <trkpt lat="25.0434051" lon="121.5141021"></trkpt>
      <trkpt lat="25.0432676" lon="121.5141007"></trkpt>
      <trkpt lat="25.0423248" lon="121.5140752"></trkpt>
      <trkpt lat="25.0418272" lon="121.5140544"></trkpt>
      <trkpt lat="25.0416896" lon="121.5140463"></trkpt>
      <trkpt lat="25.0414073" lon="121.5140134"></trkpt>
      <trkpt lat="25.0410928" lon="121.5139768"></trkpt>
      <trkpt lat="25.0410475" lon="121.5139736"></trkpt>
      <trkpt lat="25.0409401" lon="121.5139639"></trkpt>
      <trkpt lat="25.0408359" lon="121.5139503"></trkpt>
      <trkpt lat="25.0404569" lon="121.5139177"></trkpt>
      <trkpt lat="25.0400242" lon="121.5138470"></trkpt>
      <trkpt lat="25.0399700" lon="121.5138400"></trkpt>
      <trkpt lat="25.0398353" lon="121.5138366"></trkpt>
      <trkpt lat="25.0397163" lon="121.5146498"></trkpt>
      <trkpt lat="25.0396510" lon="121.5150978"></trkpt>
      <trkpt lat="25.0396142" lon="121.5153453"></trkpt>
      <trkpt lat="25.0395764" lon="121.5155861"></trkpt>
      <trkpt lat="25.0395309" lon="121.5157607"></trkpt>
      <trkpt lat="25.0395250" lon="121.5157833"></trkpt>
      <trkpt lat="25.0394009" lon="121.5162634"></trkpt>
      <trkpt lat="25.0392987" lon="121.5166458"></trkpt>
      <trkpt lat="25.0391571" lon="121.5171619"></trkpt>
      <trkpt lat="25.0391447" lon="121.5172051"></trkpt>
      <trkpt lat="25.0393431" lon="121.5172670"></trkpt>
      <trkpt lat="25.0395306" lon="121.5176142"></trkpt>
      <trkpt lat="25.0395163" lon="121.5176789"></trkpt>
      <trkpt lat="25.0394887" lon="121.5178032"></trkpt>
      <trkpt lat="25.0394639" lon="121.5179147"></trkpt>
      <trkpt lat="25.0394484" lon="121.5179846"></trkpt>
      <trkpt lat="25.0394157" lon="121.5180534"></trkpt>
      <trkpt lat="25.0393745" lon="121.5183600"></trkpt>
      <trkpt lat="25.0393477" lon="121.5185591"></trkpt>
      <trkpt lat="25.0392773" lon="121.5190676"></trkpt>
      <trkpt lat="25.0392719" lon="121.5190985"></trkpt>
      <trkpt lat="25.0391851" lon="121.5198178"></trkpt>
      <trkpt lat="25.0391772" lon="121.5198807"></trkpt>
      <trkpt lat="25.0390894" lon="121.5205185"></trkpt>
      <trkpt lat="25.0390848" lon="121.5205791"></trkpt>
      <trkpt lat="25.0389508" lon="121.5215691"></trkpt>
      <trkpt lat="25.0389395" lon="121.5216567"></trkpt>
      <trkpt lat="25.0394620" lon="121.5218171"></trkpt>
      <trkpt lat="25.0396119" lon="121.5218612"></trkpt>
      <trkpt lat="25.0397804" lon="121.5219155"></trkpt>
      <trkpt lat="25.0397633" lon="121.5220018"></trkpt>
      <trkpt lat="25.0397532" lon="121.5220528"></trkpt>
      <trkpt lat="25.0395144" lon="121.5231824"></trkpt>
      <trkpt lat="25.0395107" lon="121.5231991"></trkpt>
      <trkpt lat="25.0395073" lon="121.5232116"></trkpt>
      <trkpt lat="25.0395022" lon="121.5232301"></trkpt>
      <trkpt lat="25.0395448" lon="121.5232589"></trkpt>
      <trkpt lat="25.0395331" lon="121.5233131"></trkpt>
      <trkpt lat="25.0394429" lon="121.5236754"></trkpt>
      <trkpt lat="25.0392273" lon="121.5245660"></trkpt>
      <trkpt lat="25.0391915" lon="121.5247103"></trkpt>
      <trkpt lat="25.0390376" lon="121.5253479"></trkpt>
      <trkpt lat="25.0390235" lon="121.5254063"></trkpt>
      <trkpt lat="25.0390985" lon="121.5254291"></trkpt>
      <trkpt lat="25.0392957" lon="121.5254891"></trkpt>
      <trkpt lat="25.0395490" lon="121.5255862"></trkpt>
      <trkpt lat="25.0395997" lon="121.5256004"></trkpt>
      <trkpt lat="25.0397664" lon="121.5256483"></trkpt>
      <trkpt lat="25.0400474" lon="121.5257366"></trkpt>
      <trkpt lat="25.0400761" lon="121.5257450"></trkpt>
      <trkpt lat="25.0401911" lon="121.5257785"></trkpt>
      <trkpt lat="25.0401662" lon="121.5258780"></trkpt>
      <trkpt lat="25.0400872" lon="121.5261765"></trkpt>
      <trkpt lat="25.0399774" lon="121.5267407"></trkpt>
      <trkpt lat="25.0399727" lon="121.5267538"></trkpt>
      <trkpt lat="25.0396873" lon="121.5279283"></trkpt>
      <trkpt lat="25.0395156" lon="121.5286205"></trkpt>
      <trkpt lat="25.0395476" lon="121.5286307"></trkpt>
      <trkpt lat="25.0395863" lon="121.5286440"></trkpt>
      <trkpt lat="25.0398803" lon="121.5287453"></trkpt>
      <trkpt lat="25.0399129" lon="121.5287565"></trkpt>
      <trkpt lat="25.0399385" lon="121.5287658"></trkpt>
      <trkpt lat="25.0403222" lon="121.5289043"></trkpt>
      <trkpt lat="25.0403537" lon="121.5289135"></trkpt>
      <trkpt lat="25.0403848" lon="121.5289231"></trkpt>
      <trkpt lat="25.0407876" lon="121.5290451"></trkpt>
      <trkpt lat="25.0408282" lon="121.5290181"></trkpt>
      <trkpt lat="25.0408854" lon="121.5290353"></trkpt>
      <trkpt lat="25.0409415" lon="121.5290521"></trkpt>
      <trkpt lat="25.0409783" lon="121.5291075"></trkpt>
      <trkpt lat="25.0414026" lon="121.5292091"></trkpt>
      <trkpt lat="25.0418402" lon="121.5293458"></trkpt>
      <trkpt lat="25.0423759" lon="121.5294969"></trkpt>
      <trkpt lat="25.0425384" lon="121.5293469"></trkpt>
      <trkpt lat="25.0425845" lon="121.5293275"></trkpt>
      <trkpt lat="25.0428178" lon="121.5291398"></trkpt>
      <trkpt lat="25.0427841" lon="121.5290570"></trkpt>
      <trkpt lat="25.0429335" lon="121.5284994"></trkpt>
      <trkpt lat="25.0431002" lon="121.5285742"></trkpt>
      <trkpt lat="25.0432894" lon="121.5286345"></trkpt>
      <trkpt lat="25.0433082" lon="121.5286467"></trkpt>
      <trkpt lat="25.0433860" lon="121.5286587"></trkpt>
      <trkpt lat="25.0433029" lon="121.5289660"></trkpt>
      <trkpt lat="25.0434305" lon="121.5290033"></trkpt>
      <trkpt lat="25.0434921" lon="121.5292607"></trkpt>
      <trkpt lat="25.0435977" lon="121.5297025"></trkpt>
      <trkpt lat="25.0436113" lon="121.5297595"></trkpt>
      <trkpt lat="25.0436187" lon="121.5297872"></trkpt>
      <trkpt lat="25.0436437" lon="121.5298938"></trkpt>
      <trkpt lat="25.0437086" lon="121.5301650"></trkpt>
      <trkpt lat="25.0438275" lon="121.5302275"></trkpt>
      <trkpt lat="25.0445838" lon="121.5304605"></trkpt>
      <trkpt lat="25.0449579" lon="121.5305732"></trkpt>
      <trkpt lat="25.0456033" lon="121.5307677"></trkpt>
      <trkpt lat="25.0456505" lon="121.5307810"></trkpt>
      <trkpt lat="25.0458042" lon="121.5308241"></trkpt>
      <trkpt lat="25.0458238" lon="121.5308296"></trkpt>
      <trkpt lat="25.0459219" lon="121.5308292"></trkpt>
      <trkpt lat="25.0460268" lon="121.5308268"></trkpt>
      <trkpt lat="25.0461013" lon="121.5308345"></trkpt>
      <trkpt lat="25.0461496" lon="121.5306685"></trkpt>
      <trkpt lat="25.0461740" lon="121.5305835"></trkpt>
      <trkpt lat="25.0462316" lon="121.5303824"></trkpt>
      <trkpt lat="25.0464142" lon="121.5297299"></trkpt>
      <trkpt lat="25.0464655" lon="121.5295472"></trkpt>
      <trkpt lat="25.0464949" lon="121.5294577"></trkpt>
      <trkpt lat="25.0465490" lon="121.5292782"></trkpt>
      <trkpt lat="25.0466028" lon="121.5290995"></trkpt>
      <trkpt lat="25.0467947" lon="121.5284830"></trkpt>
      <trkpt lat="25.0470037" lon="121.5278110"></trkpt>
      <trkpt lat="25.0470240" lon="121.5277459"></trkpt>
      <trkpt lat="25.0472614" lon="121.5278148"></trkpt>
      <trkpt lat="25.0474203" lon="121.5278597"></trkpt>
      <trkpt lat="25.0474882" lon="121.5278795"></trkpt>
      <trkpt lat="25.0478647" lon="121.5279862"></trkpt>
      <trkpt lat="25.0477677" lon="121.5284373"></trkpt>
      <trkpt lat="25.0477348" lon="121.5285986"></trkpt>
      <trkpt lat="25.0477563" lon="121.5286548"></trkpt>
      <trkpt lat="25.0478064" lon="121.5287261"></trkpt>
      <trkpt lat="25.0479233" lon="121.5288625"></trkpt>
      <trkpt lat="25.0480372" lon="121.5289860"></trkpt>
      <trkpt lat="25.0481168" lon="121.5290662"></trkpt>
      <trkpt lat="25.0481026" lon="121.5291274"></trkpt>
      <trkpt lat="25.0480952" lon="121.5291781"></trkpt>
      <trkpt lat="25.0480932" lon="121.5292366"></trkpt>
      <trkpt lat="25.0480965" lon="121.5292939"></trkpt>
      <trkpt lat="25.0481020" lon="121.5293331"></trkpt>
      <trkpt lat="25.0481104" lon="121.5293734"></trkpt>
      <trkpt lat="25.0481199" lon="121.5294082"></trkpt>
      <trkpt lat="25.0481698" lon="121.5294904"></trkpt>
      <trkpt lat="25.0483436" lon="121.5297572"></trkpt>
      <trkpt lat="25.0484481" lon="121.5296614"></trkpt>
      <trkpt lat="25.0485497" lon="121.5295686"></trkpt>
      <trkpt lat="25.0486791" lon="121.5294492"></trkpt>
      <trkpt lat="25.0488199" lon="121.5293409"></trkpt>
      <trkpt lat="25.0489484" lon="121.5292435"></trkpt>
      <trkpt lat="25.0490000" lon="121.5292286"></trkpt>
      <trkpt lat="25.0491936" lon="121.5290967"></trkpt>
      <trkpt lat="25.0494000" lon="121.5289612"></trkpt>
      <trkpt lat="25.0495977" lon="121.5288401"></trkpt>
      <trkpt lat="25.0497431" lon="121.5287560"></trkpt>
      <trkpt lat="25.0499195" lon="121.5286602"></trkpt>
      <trkpt lat="25.0501000" lon="121.5285597"></trkpt>
      <trkpt lat="25.0503152" lon="121.5284526"></trkpt>
      <trkpt lat="25.0505423" lon="121.5283522"></trkpt>
      <trkpt lat="25.0509109" lon="121.5282110"></trkpt>
      <trkpt lat="25.0510404" lon="121.5281632"></trkpt>
      <trkpt lat="25.0511788" lon="121.5281130"></trkpt>
      <trkpt lat="25.0514656" lon="121.5280321"></trkpt>
      <trkpt lat="25.0516905" lon="121.5279657"></trkpt>
      <trkpt lat="25.0519078" lon="121.5279060"></trkpt>
      <trkpt lat="25.0519075" lon="121.5279501"></trkpt>
      <trkpt lat="25.0519124" lon="121.5280226"></trkpt>
      <trkpt lat="25.0519121" lon="121.5288543"></trkpt>
      <trkpt lat="25.0519978" lon="121.5288546"></trkpt>
      <trkpt lat="25.0521489" lon="121.5288551"></trkpt>
      <trkpt lat="25.0521497" lon="121.5287752"></trkpt>
      <trkpt lat="25.0521576" lon="121.5279933"></trkpt>
      <trkpt lat="25.0521590" lon="121.5278565"></trkpt>
      <trkpt lat="25.0522565" lon="121.5278431"></trkpt>
      <trkpt lat="25.0524476" lon="121.5278147"></trkpt>
      <trkpt lat="25.0526287" lon="121.5277876"></trkpt>
      <trkpt lat="25.0530685" lon="121.5277333"></trkpt>
      <trkpt lat="25.0532185" lon="121.5277184"></trkpt>
      <trkpt lat="25.0534007" lon="121.5277083"></trkpt>
      <trkpt lat="25.0537201" lon="121.5277054"></trkpt>
      <trkpt lat="25.0540384" lon="121.5277079"></trkpt>
      <trkpt lat="25.0542261" lon="121.5277034"></trkpt>
      <trkpt lat="25.0543914" lon="121.5276995"></trkpt>
      <trkpt lat="25.0549023" lon="121.5277119"></trkpt>
      <trkpt lat="25.0549003" lon="121.5278292"></trkpt>
      <trkpt lat="25.0548883" lon="121.5285476"></trkpt>
      <trkpt lat="25.0548842" lon="121.5287917"></trkpt>
      <trkpt lat="25.0548829" lon="121.5288687"></trkpt>
      <trkpt lat="25.0549750" lon="121.5288669"></trkpt>
      <trkpt lat="25.0553202" lon="121.5288772"></trkpt>
      <trkpt lat="25.0556804" lon="121.5288842"></trkpt>
      <trkpt lat="25.0560576" lon="121.5288916"></trkpt>
      <trkpt lat="25.0564774" lon="121.5288998"></trkpt>
      <trkpt lat="25.0568139" lon="121.5288923"></trkpt>
      <trkpt lat="25.0571662" lon="121.5289067"></trkpt>
      <trkpt lat="25.0574066" lon="121.5289143"></trkpt>
      <trkpt lat="25.0580019" lon="121.5288959"></trkpt>
      <trkpt lat="25.0585197" lon="121.5289340"></trkpt>
      <trkpt lat="25.0589611" lon="121.5289342"></trkpt>
      <trkpt lat="25.0589611" lon="121.5289744"></trkpt>
      <trkpt lat="25.0589612" lon="121.5302287"></trkpt>
      <trkpt lat="25.0589240" lon="121.5308384"></trkpt>
      <trkpt lat="25.0589139" lon="121.5310446"></trkpt>
      <trkpt lat="25.0589140" lon="121.5316642"></trkpt>
      <trkpt lat="25.0584856" lon="121.5316434"></trkpt>
      <trkpt lat="25.0584658" lon="121.5322452"></trkpt>
      <trkpt lat="25.0584694" lon="121.5325115"></trkpt>
      <trkpt lat="25.0584670" lon="121.5329417"></trkpt>
      <trkpt lat="25.0584668" lon="121.5329706"></trkpt>
      <trkpt lat="25.0584663" lon="121.5330783"></trkpt>
      <trkpt lat="25.0582001" lon="121.5330775"></trkpt>
      <trkpt lat="25.0581434" lon="121.5330774"></trkpt>
      <trkpt lat="25.0580907" lon="121.5330772"></trkpt>
      <trkpt lat="25.0579378" lon="121.5330675"></trkpt>
      <trkpt lat="25.0578685" lon="121.5332075"></trkpt>
      <trkpt lat="25.0580062" lon="121.5332099"></trkpt>
      <trkpt lat="25.0581076" lon="121.5332117"></trkpt>
      <trkpt lat="25.0583677" lon="121.5332161"></trkpt>
      <trkpt lat="25.0583701" lon="121.5333104"></trkpt>
      <trkpt lat="25.0584004" lon="121.5333109"></trkpt>
      <trkpt lat="25.0587368" lon="121.5333169"></trkpt>
      <trkpt lat="25.0588078" lon="121.5333182"></trkpt>
      <trkpt lat="25.0588531" lon="121.5333188"></trkpt>
      <trkpt lat="25.0588522" lon="121.5337302"></trkpt>
      <trkpt lat="25.0588301" lon="121.5348059"></trkpt>
      <trkpt lat="25.0591888" lon="121.5348232"></trkpt>
      <trkpt lat="25.0588301" lon="121.5348059"></trkpt>
      <trkpt lat="25.0588082" lon="121.5360761"></trkpt>
      <trkpt lat="25.0588009" lon="121.5366359"></trkpt>
      <trkpt lat="25.0588000" lon="121.5367072"></trkpt>
      <trkpt lat="25.0580666" lon="121.5367258"></trkpt>
      <trkpt lat="25.0579718" lon="121.5367182"></trkpt>
      <trkpt lat="25.0578163" lon="121.5367112"></trkpt>
      <trkpt lat="25.0578258" lon="121.5369383"></trkpt>
      <trkpt lat="25.0578339" lon="121.5371308"></trkpt>
      <trkpt lat="25.0579593" lon="121.5371765"></trkpt>
      <trkpt lat="25.0580576" lon="121.5371781"></trkpt>
      <trkpt lat="25.0587999" lon="121.5371905"></trkpt>
      <trkpt lat="25.0587986" lon="121.5372789"></trkpt>
      <trkpt lat="25.0587905" lon="121.5378241"></trkpt>
      <trkpt lat="25.0587699" lon="121.5391988"></trkpt>
      <trkpt lat="25.0587496" lon="121.5406182"></trkpt>
      <trkpt lat="25.0587493" lon="121.5406485"></trkpt>
      <trkpt lat="25.0587473" lon="121.5407123"></trkpt>
      <trkpt lat="25.0587908" lon="121.5407133"></trkpt>
      <trkpt lat="25.0590762" lon="121.5407205"></trkpt>
      <trkpt lat="25.0591111" lon="121.5407206"></trkpt>
      <trkpt lat="25.0591533" lon="121.5407216"></trkpt>
      <trkpt lat="25.0594517" lon="121.5407285"></trkpt>
      <trkpt lat="25.0594825" lon="121.5407292"></trkpt>
      <trkpt lat="25.0595110" lon="121.5407299"></trkpt>
      <trkpt lat="25.0598120" lon="121.5407367"></trkpt>
      <trkpt lat="25.0598413" lon="121.5407374"></trkpt>
      <trkpt lat="25.0598401" lon="121.5408055"></trkpt>
      <trkpt lat="25.0598264" lon="121.5415775"></trkpt>
      <trkpt lat="25.0598256" lon="121.5417507"></trkpt>
      <trkpt lat="25.0598245" lon="121.5420123"></trkpt>
      <trkpt lat="25.0594821" lon="121.5420086"></trkpt>
      <trkpt lat="25.0594519" lon="121.5420083"></trkpt>
      <trkpt lat="25.0594504" lon="121.5421941"></trkpt>
      <trkpt lat="25.0594491" lon="121.5423666"></trkpt>
      <trkpt lat="25.0594487" lon="121.5424065"></trkpt>
      <trkpt lat="25.0594474" lon="121.5425253"></trkpt>
      <trkpt lat="25.0594411" lon="121.5431201"></trkpt>
      <trkpt lat="25.0590745" lon="121.5430857"></trkpt>
      <trkpt lat="25.0589622" lon="121.5430806"></trkpt>
      <trkpt lat="25.0587174" lon="121.5430696"></trkpt>
      <trkpt lat="25.0587063" lon="121.5436025"></trkpt>
      <trkpt lat="25.0586982" lon="121.5440155"></trkpt>
      <trkpt lat="25.0586976" lon="121.5440504"></trkpt>
      <trkpt lat="25.0586960" lon="121.5440988"></trkpt>
      <trkpt lat="25.0580211" lon="121.5440884"></trkpt>
      <trkpt lat="25.0579600" lon="121.5440872"></trkpt>
      <trkpt lat="25.0579577" lon="121.5441597"></trkpt>
      <trkpt lat="25.0579499" lon="121.5442405"></trkpt>
      <trkpt lat="25.0580031" lon="121.5442437"></trkpt>
      <trkpt lat="25.0580964" lon="121.5442410"></trkpt>
      <trkpt lat="25.0589866" lon="121.5442556"></trkpt>
      <trkpt lat="25.0589852" lon="121.5443489"></trkpt>
      <trkpt lat="25.0589841" lon="121.5444187"></trkpt>
      <trkpt lat="25.0589774" lon="121.5448625"></trkpt>
      <trkpt lat="25.0589622" lon="121.5461539"></trkpt>
      <trkpt lat="25.0589620" lon="121.5461685"></trkpt>
      <trkpt lat="25.0589461" lon="121.5472385"></trkpt>
      <trkpt lat="25.0589439" lon="121.5473874"></trkpt>
      <trkpt lat="25.0589570" lon="121.5474646"></trkpt>
      <trkpt lat="25.0584712" lon="121.5480907"></trkpt>
      <trkpt lat="25.0589168" lon="121.5485136"></trkpt>
      <trkpt lat="25.0589329" lon="121.5485288"></trkpt>
      <trkpt lat="25.0589443" lon="121.5485396"></trkpt>
      <trkpt lat="25.0589088" lon="121.5485842"></trkpt>
      <trkpt lat="25.0585966" lon="121.5489760"></trkpt>
      <trkpt lat="25.0585487" lon="121.5490361"></trkpt>
      <trkpt lat="25.0585192" lon="121.5490228"></trkpt>
      <trkpt lat="25.0584898" lon="121.5490096"></trkpt>
      <trkpt lat="25.0583574" lon="121.5489499"></trkpt>
      <trkpt lat="25.0582041" lon="121.5488961"></trkpt>
      <trkpt lat="25.0580244" lon="121.5488474"></trkpt>
      <trkpt lat="25.0579788" lon="121.5488372"></trkpt>
      <trkpt lat="25.0579364" lon="121.5488286"></trkpt>
      <trkpt lat="25.0579060" lon="121.5488944"></trkpt>
      <trkpt lat="25.0578991" lon="121.5489408"></trkpt>
      <trkpt lat="25.0578861" lon="121.5490327"></trkpt>
      <trkpt lat="25.0578832" lon="121.5490737"></trkpt>
      <trkpt lat="25.0578753" lon="121.5491727"></trkpt>
      <trkpt lat="25.0578729" lon="121.5492025"></trkpt>
      <trkpt lat="25.0578693" lon="121.5492474"></trkpt>
      <trkpt lat="25.0578644" lon="121.5493083"></trkpt>
      <trkpt lat="25.0578554" lon="121.5493795"></trkpt>
      <trkpt lat="25.0578283" lon="121.5494185"></trkpt>
      <trkpt lat="25.0578841" lon="121.5500536"></trkpt>
      <trkpt lat="25.0579256" lon="121.5504128"></trkpt>
      <trkpt lat="25.0579292" lon="121.5504432"></trkpt>
      <trkpt lat="25.0579327" lon="121.5504736"></trkpt>
      <trkpt lat="25.0579722" lon="121.5504775"></trkpt>
      <trkpt lat="25.0581705" lon="121.5504970"></trkpt>
      <trkpt lat="25.0582541" lon="121.5505072"></trkpt>
      <trkpt lat="25.0582923" lon="121.5505123"></trkpt>
      <trkpt lat="25.0583296" lon="121.5505153"></trkpt>
      <trkpt lat="25.0588098" lon="121.5505544"></trkpt>
      <trkpt lat="25.0588586" lon="121.5505594"></trkpt>
      <trkpt lat="25.0589588" lon="121.5506020"></trkpt>
      <trkpt lat="25.0591844" lon="121.5507138"></trkpt>
      <trkpt lat="25.0592535" lon="121.5507481"></trkpt>
      <trkpt lat="25.0595566" lon="121.5508982"></trkpt>
      <trkpt lat="25.0596521" lon="121.5509453"></trkpt>
      <trkpt lat="25.0598982" lon="121.5510682"></trkpt>
      <trkpt lat="25.0600812" lon="121.5511609"></trkpt>
      <trkpt lat="25.0601220" lon="121.5511811"></trkpt>
      <trkpt lat="25.0601833" lon="121.5512108"></trkpt>
      <trkpt lat="25.0601549" lon="121.5512941"></trkpt>
      <trkpt lat="25.0601216" lon="121.5513760"></trkpt>
      <trkpt lat="25.0599450" lon="121.5518106"></trkpt>
      <trkpt lat="25.0599315" lon="121.5518440"></trkpt>
      <trkpt lat="25.0599225" lon="121.5518661"></trkpt>
      <trkpt lat="25.0598074" lon="121.5518806"></trkpt>
      <trkpt lat="25.0594538" lon="121.5519250"></trkpt>
      <trkpt lat="25.0594265" lon="121.5519284"></trkpt>
      <trkpt lat="25.0594009" lon="121.5519316"></trkpt>
      <trkpt lat="25.0592183" lon="121.5519535"></trkpt>
      <trkpt lat="25.0592260" lon="121.5520184"></trkpt>
      <trkpt lat="25.0593826" lon="121.5534228"></trkpt>
      <trkpt lat="25.0593895" lon="121.5534790"></trkpt>
      <trkpt lat="25.0593953" lon="121.5535419"></trkpt>
      <trkpt lat="25.0590645" lon="121.5537450"></trkpt>
      <trkpt lat="25.0590167" lon="121.5537743"></trkpt>
      <trkpt lat="25.0586135" lon="121.5540245"></trkpt>
      <trkpt lat="25.0583215" lon="121.5542066"></trkpt>
      <trkpt lat="25.0582793" lon="121.5542311"></trkpt>
      <trkpt lat="25.0582320" lon="121.5542599"></trkpt>
      <trkpt lat="25.0581432" lon="121.5543139"></trkpt>
      <trkpt lat="25.0581539" lon="121.5544169"></trkpt>
      <trkpt lat="25.0582218" lon="121.5551409"></trkpt>
      <trkpt lat="25.0582301" lon="121.5552433"></trkpt>
      <trkpt lat="25.0581919" lon="121.5552504"></trkpt>
      <trkpt lat="25.0578982" lon="121.5553051"></trkpt>
      <trkpt lat="25.0578148" lon="121.5553207"></trkpt>
      <trkpt lat="25.0574194" lon="121.5553941"></trkpt>
      <trkpt lat="25.0573812" lon="121.5554011"></trkpt>
      <trkpt lat="25.0573517" lon="121.5554063"></trkpt>
      <trkpt lat="25.0573061" lon="121.5554149"></trkpt>
      <trkpt lat="25.0572446" lon="121.5554266"></trkpt>
      <trkpt lat="25.0571936" lon="121.5554361"></trkpt>
      <trkpt lat="25.0571034" lon="121.5554529"></trkpt>
      <trkpt lat="25.0570807" lon="121.5554571"></trkpt>
      <trkpt lat="25.0570296" lon="121.5554666"></trkpt>
      <trkpt lat="25.0566547" lon="121.5555364"></trkpt>
      <trkpt lat="25.0566530" lon="121.5554289"></trkpt>
      <trkpt lat="25.0566437" lon="121.5545499"></trkpt>
      <trkpt lat="25.0566431" lon="121.5544995"></trkpt>
      <trkpt lat="25.0566427" lon="121.5544597"></trkpt>
      <trkpt lat="25.0566427" lon="121.5544283"></trkpt>
      <trkpt lat="25.0566440" lon="121.5530875"></trkpt>
      <trkpt lat="25.0566440" lon="121.5530573"></trkpt>
      <trkpt lat="25.0566482" lon="121.5529825"></trkpt>
      <trkpt lat="25.0566041" lon="121.5529796"></trkpt>
      <trkpt lat="25.0563686" lon="121.5529649"></trkpt>
      <trkpt lat="25.0563369" lon="121.5529661"></trkpt>
      <trkpt lat="25.0562351" lon="121.5529641"></trkpt>
      <trkpt lat="25.0562891" lon="121.5528762"></trkpt>
      <trkpt lat="25.0563087" lon="121.5528398"></trkpt>
      <trkpt lat="25.0564309" lon="121.5526123"></trkpt>
      <trkpt lat="25.0564938" lon="121.5524525"></trkpt>
      <trkpt lat="25.0565441" lon="121.5522961"></trkpt>
      <trkpt lat="25.0565984" lon="121.5520891"></trkpt>
      <trkpt lat="25.0566093" lon="121.5520473"></trkpt>
      <trkpt lat="25.0566160" lon="121.5519595"></trkpt>
      <trkpt lat="25.0566447" lon="121.5516753"></trkpt>
      <trkpt lat="25.0566208" lon="121.5514658"></trkpt>
      <trkpt lat="25.0566028" lon="121.5513012"></trkpt>
      <trkpt lat="25.0566411" lon="121.5512782"></trkpt>
      <trkpt lat="25.0568157" lon="121.5511887"></trkpt>
      <trkpt lat="25.0569992" lon="121.5510632"></trkpt>
      <trkpt lat="25.0571883" lon="121.5508638"></trkpt>
      <trkpt lat="25.0573746" lon="121.5506674"></trkpt>
      <trkpt lat="25.0575602" lon="121.5505744"></trkpt>
      <trkpt lat="25.0576739" lon="121.5505456"></trkpt>
      <trkpt lat="25.0577468" lon="121.5505271"></trkpt>
      <trkpt lat="25.0577379" lon="121.5504396"></trkpt>
      <trkpt lat="25.0577062" lon="121.5501015"></trkpt>
      <trkpt lat="25.0576373" lon="121.5493746"></trkpt>
      <trkpt lat="25.0576021" lon="121.5493367"></trkpt>
      <trkpt lat="25.0575784" lon="121.5493369"></trkpt>
      <trkpt lat="25.0575838" lon="121.5492638"></trkpt>
      <trkpt lat="25.0575889" lon="121.5491949"></trkpt>
      <trkpt lat="25.0575924" lon="121.5491469"></trkpt>
      <trkpt lat="25.0575815" lon="121.5491025"></trkpt>
      <trkpt lat="25.0575597" lon="121.5490132"></trkpt>
      <trkpt lat="25.0575421" lon="121.5489412"></trkpt>
      <trkpt lat="25.0575225" lon="121.5488613"></trkpt>
      <trkpt lat="25.0575234" lon="121.5488083"></trkpt>
      <trkpt lat="25.0575242" lon="121.5487629"></trkpt>
      <trkpt lat="25.0575274" lon="121.5485816"></trkpt>
      <trkpt lat="25.0575168" lon="121.5485494"></trkpt>
      <trkpt lat="25.0574748" lon="121.5485137"></trkpt>
      <trkpt lat="25.0569135" lon="121.5480745"></trkpt>
      <trkpt lat="25.0566782" lon="121.5478780"></trkpt>
      <trkpt lat="25.0566554" lon="121.5478590"></trkpt>
      <trkpt lat="25.0566089" lon="121.5479303"></trkpt>
      <trkpt lat="25.0566554" lon="121.5478590"></trkpt>
      <trkpt lat="25.0558271" lon="121.5471883"></trkpt>
      <trkpt lat="25.0557864" lon="121.5471554"></trkpt>
      <trkpt lat="25.0557262" lon="121.5471096"></trkpt>
      <trkpt lat="25.0556915" lon="121.5471804"></trkpt>
      <trkpt lat="25.0557262" lon="121.5471096"></trkpt>
      <trkpt lat="25.0556471" lon="121.5470542"></trkpt>
      <trkpt lat="25.0547053" lon="121.5462963"></trkpt>
      <trkpt lat="25.0546625" lon="121.5462631"></trkpt>
      <trkpt lat="25.0546187" lon="121.5462341"></trkpt>
      <trkpt lat="25.0545102" lon="121.5461893"></trkpt>
      <trkpt lat="25.0543845" lon="121.5460827"></trkpt>
      <trkpt lat="25.0542900" lon="121.5460027"></trkpt>
      <trkpt lat="25.0540217" lon="121.5457872"></trkpt>
      <trkpt lat="25.0532820" lon="121.5451930"></trkpt>
      <trkpt lat="25.0532295" lon="121.5452724"></trkpt>
      <trkpt lat="25.0529438" lon="121.5457041"></trkpt>
      <trkpt lat="25.0529001" lon="121.5457980"></trkpt>
      <trkpt lat="25.0528737" lon="121.5461151"></trkpt>
      <trkpt lat="25.0528705" lon="121.5463438"></trkpt>
      <trkpt lat="25.0528657" lon="121.5466877"></trkpt>
      <trkpt lat="25.0528650" lon="121.5467371"></trkpt>
      <trkpt lat="25.0524264" lon="121.5467304"></trkpt>
      <trkpt lat="25.0519617" lon="121.5467107"></trkpt>
      <trkpt lat="25.0519384" lon="121.5467097"></trkpt>
      <trkpt lat="25.0518639" lon="121.5467076"></trkpt>
      <trkpt lat="25.0517224" lon="121.5467004"></trkpt>
      <trkpt lat="25.0517125" lon="121.5471238"></trkpt>
      <trkpt lat="25.0516999" lon="121.5472055"></trkpt>
      <trkpt lat="25.0516905" lon="121.5474317"></trkpt>
      <trkpt lat="25.0516892" lon="121.5474651"></trkpt>
      <trkpt lat="25.0516856" lon="121.5475510"></trkpt>
      <trkpt lat="25.0516067" lon="121.5475508"></trkpt>
      <trkpt lat="25.0515813" lon="121.5475499"></trkpt>
      <trkpt lat="25.0510239" lon="121.5475292"></trkpt>
      <trkpt lat="25.0506392" lon="121.5475143"></trkpt>
      <trkpt lat="25.0501282" lon="121.5474945"></trkpt>
      <trkpt lat="25.0496632" lon="121.5474783"></trkpt>
      <trkpt lat="25.0492025" lon="121.5474916"></trkpt>
      <trkpt lat="25.0487348" lon="121.5474738"></trkpt>
      <trkpt lat="25.0484978" lon="121.5474379"></trkpt>
      <trkpt lat="25.0483315" lon="121.5474322"></trkpt>
      <trkpt lat="25.0483094" lon="121.5474314"></trkpt>
      <trkpt lat="25.0482051" lon="121.5474292"></trkpt>
      <trkpt lat="25.0482047" lon="121.5473526"></trkpt>
      <trkpt lat="25.0482047" lon="121.5473035"></trkpt>
      <trkpt lat="25.0482047" lon="121.5472451"></trkpt>
      <trkpt lat="25.0482047" lon="121.5469941"></trkpt>
      <trkpt lat="25.0482047" lon="121.5469345"></trkpt>
      <trkpt lat="25.0482047" lon="121.5468791"></trkpt>
      <trkpt lat="25.0482040" lon="121.5468407"></trkpt>
      <trkpt lat="25.0481087" lon="121.5468448"></trkpt>
      <trkpt lat="25.0476366" lon="121.5467936"></trkpt>
      <trkpt lat="25.0471523" lon="121.5467371"></trkpt>
      <trkpt lat="25.0466817" lon="121.5467284"></trkpt>
      <trkpt lat="25.0463667" lon="121.5467406"></trkpt>
      <trkpt lat="25.0462225" lon="121.5467418"></trkpt>
      <trkpt lat="25.0461034" lon="121.5467445"></trkpt>
      <trkpt lat="25.0459913" lon="121.5467442"></trkpt>
      <trkpt lat="25.0457557" lon="121.5467435"></trkpt>
      <trkpt lat="25.0452251" lon="121.5467442"></trkpt>
      <trkpt lat="25.0451987" lon="121.5467442"></trkpt>
      <trkpt lat="25.0452056" lon="121.5464816"></trkpt>
      <trkpt lat="25.0452039" lon="121.5460253"></trkpt>
      <trkpt lat="25.0451954" lon="121.5459206"></trkpt>
      <trkpt lat="25.0451549" lon="121.5455760"></trkpt>
      <trkpt lat="25.0451269" lon="121.5452780"></trkpt>
      <trkpt lat="25.0450825" lon="121.5452036"></trkpt>
      <trkpt lat="25.0449838" lon="121.5452190"></trkpt>
      <trkpt lat="25.0449151" lon="121.5452967"></trkpt>
      <trkpt lat="25.0449548" lon="121.5456564"></trkpt>
      <trkpt lat="25.0449767" lon="121.5459112"></trkpt>
      <trkpt lat="25.0449828" lon="121.5459710"></trkpt>
      <trkpt lat="25.0450000" lon="121.5462252"></trkpt>
      <trkpt lat="25.0450034" lon="121.5463078"></trkpt>
      <trkpt lat="25.0450046" lon="121.5464396"></trkpt>
      <trkpt lat="25.0449956" lon="121.5465710"></trkpt>
      <trkpt lat="25.0449901" lon="121.5467138"></trkpt>
      <trkpt lat="25.0449815" lon="121.5468415"></trkpt>
      <trkpt lat="25.0449710" lon="121.5469738"></trkpt>
      <trkpt lat="25.0449572" lon="121.5471075"></trkpt>
      <trkpt lat="25.0449387" lon="121.5472821"></trkpt>
      <trkpt lat="25.0448495" lon="121.5472809"></trkpt>
      <trkpt lat="25.0444162" lon="121.5472981"></trkpt>
      <trkpt lat="25.0442352" lon="121.5472923"></trkpt>
      <trkpt lat="25.0441990" lon="121.5472912"></trkpt>
      <trkpt lat="25.0439869" lon="121.5472844"></trkpt>
      <trkpt lat="25.0435532" lon="121.5472706"></trkpt>
      <trkpt lat="25.0433266" lon="121.5472634"></trkpt>
      <trkpt lat="25.0430740" lon="121.5472554"></trkpt>
      <trkpt lat="25.0426234" lon="121.5472411"></trkpt>
      <trkpt lat="25.0421670" lon="121.5472265"></trkpt>
      <trkpt lat="25.0417216" lon="121.5472124"></trkpt>
      <trkpt lat="25.0416319" lon="121.5472095"></trkpt>
      <trkpt lat="25.0414992" lon="121.5472106"></trkpt>
      <trkpt lat="25.0413867" lon="121.5472083"></trkpt>
      <trkpt lat="25.0409639" lon="121.5471994"></trkpt>
      <trkpt lat="25.0405694" lon="121.5471911"></trkpt>
      <trkpt lat="25.0401691" lon="121.5471827"></trkpt>
      <trkpt lat="25.0397535" lon="121.5471740"></trkpt>
      <trkpt lat="25.0393495" lon="121.5471337"></trkpt>
      <trkpt lat="25.0389645" lon="121.5471250"></trkpt>
      <trkpt lat="25.0385877" lon="121.5471164"></trkpt>
      <trkpt lat="25.0381546" lon="121.5471066"></trkpt>
      <trkpt lat="25.0380835" lon="121.5471050"></trkpt>
      <trkpt lat="25.0380957" lon="121.5465524"></trkpt>
      <trkpt lat="25.0381032" lon="121.5461544"></trkpt>
      <trkpt lat="25.0381065" lon="121.5460434"></trkpt>
      <trkpt lat="25.0381091" lon="121.5459192"></trkpt>
      <trkpt lat="25.0380102" lon="121.5459166"></trkpt>
      <trkpt lat="25.0379873" lon="121.5459160"></trkpt>
      <trkpt lat="25.0378713" lon="121.5459130"></trkpt>
      <trkpt lat="25.0378402" lon="121.5459122"></trkpt>
      <trkpt lat="25.0378174" lon="121.5459116"></trkpt>
      <trkpt lat="25.0377437" lon="121.5459096"></trkpt>
      <trkpt lat="25.0377699" lon="121.5445321"></trkpt>
      <trkpt lat="25.0377729" lon="121.5443740"></trkpt>
      <trkpt lat="25.0377811" lon="121.5438744"></trkpt>
      <trkpt lat="25.0378724" lon="121.5438691"></trkpt>
      <trkpt lat="25.0379074" lon="121.5438671"></trkpt>
      <trkpt lat="25.0380157" lon="121.5438697"></trkpt>
      <trkpt lat="25.0380470" lon="121.5438703"></trkpt>
      <trkpt lat="25.0380725" lon="121.5438709"></trkpt>
      <trkpt lat="25.0381522" lon="121.5438727"></trkpt>
      <trkpt lat="25.0382223" lon="121.5438743"></trkpt>
      <trkpt lat="25.0382462" lon="121.5438590"></trkpt>
      <trkpt lat="25.0387328" lon="121.5438795"></trkpt>
      <trkpt lat="25.0390399" lon="121.5438858"></trkpt>
      <trkpt lat="25.0397170" lon="121.5439003"></trkpt>
      <trkpt lat="25.0398225" lon="121.5439007"></trkpt>
      <trkpt lat="25.0398186" lon="121.5438038"></trkpt>
      <trkpt lat="25.0398860" lon="121.5438051"></trkpt>
      <trkpt lat="25.0408272" lon="121.5438236"></trkpt>
      <trkpt lat="25.0411401" lon="121.5438298"></trkpt>
      <trkpt lat="25.0413723" lon="121.5438336"></trkpt>
      <trkpt lat="25.0415558" lon="121.5438379"></trkpt>
      <trkpt lat="25.0416839" lon="121.5438394"></trkpt>
      <trkpt lat="25.0418438" lon="121.5438436"></trkpt>
      <trkpt lat="25.0425198" lon="121.5438661"></trkpt>
      <trkpt lat="25.0426913" lon="121.5438719"></trkpt>
      <trkpt lat="25.0428531" lon="121.5438773"></trkpt>
      <trkpt lat="25.0431365" lon="121.5438857"></trkpt>
      <trkpt lat="25.0431387" lon="121.5437442"></trkpt>
      <trkpt lat="25.0431399" lon="121.5436663"></trkpt>
      <trkpt lat="25.0437228" lon="121.5436833"></trkpt>
      <trkpt lat="25.0442993" lon="121.5436967"></trkpt>
      <trkpt lat="25.0446340" lon="121.5436965"></trkpt>
      <trkpt lat="25.0446690" lon="121.5436698"></trkpt>
      <trkpt lat="25.0447253" lon="121.5436721"></trkpt>
      <trkpt lat="25.0449479" lon="121.5436780"></trkpt>
      <trkpt lat="25.0450205" lon="121.5437395"></trkpt>
      <trkpt lat="25.0455630" lon="121.5437365"></trkpt>
      <trkpt lat="25.0464476" lon="121.5437524"></trkpt>
      <trkpt lat="25.0469107" lon="121.5437645"></trkpt>
      <trkpt lat="25.0473818" lon="121.5437768"></trkpt>
      <trkpt lat="25.0474104" lon="121.5437628"></trkpt>
      <trkpt lat="25.0474331" lon="121.5437497"></trkpt>
      <trkpt lat="25.0475296" lon="121.5437531"></trkpt>
      <trkpt lat="25.0475633" lon="121.5438654"></trkpt>
      <trkpt lat="25.0475992" lon="121.5440063"></trkpt>
      <trkpt lat="25.0477176" lon="121.5440092"></trkpt>
      <trkpt lat="25.0481286" lon="121.5440154"></trkpt>
      <trkpt lat="25.0482545" lon="121.5440173"></trkpt>
      <trkpt lat="25.0482567" lon="121.5438797"></trkpt>
      <trkpt lat="25.0482600" lon="121.5437342"></trkpt>
      <trkpt lat="25.0483419" lon="121.5437374"></trkpt>
      <trkpt lat="25.0483705" lon="121.5437991"></trkpt>
      <trkpt lat="25.0491215" lon="121.5438184"></trkpt>
      <trkpt lat="25.0498651" lon="121.5438386"></trkpt>
      <trkpt lat="25.0499187" lon="121.5438400"></trkpt>
      <trkpt lat="25.0499723" lon="121.5438415"></trkpt>
      <trkpt lat="25.0501580" lon="121.5438465"></trkpt>
      <trkpt lat="25.0502664" lon="121.5438494"></trkpt>
      <trkpt lat="25.0506761" lon="121.5438605"></trkpt>
      <trkpt lat="25.0507041" lon="121.5438613"></trkpt>
      <trkpt lat="25.0507277" lon="121.5438619"></trkpt>
      <trkpt lat="25.0516813" lon="121.5438885"></trkpt>
      <trkpt lat="25.0516823" lon="121.5438597"></trkpt>
      <trkpt lat="25.0516911" lon="121.5438342"></trkpt>
      <trkpt lat="25.0516912" lon="121.5437797"></trkpt>
      <trkpt lat="25.0517809" lon="121.5437791"></trkpt>
      <trkpt lat="25.0518313" lon="121.5437803"></trkpt>
      <trkpt lat="25.0518675" lon="121.5437812"></trkpt>
      <trkpt lat="25.0519298" lon="121.5437826"></trkpt>
      <trkpt lat="25.0519398" lon="121.5434613"></trkpt>
      <trkpt lat="25.0520225" lon="121.5434608"></trkpt>
      <trkpt lat="25.0524772" lon="121.5434676"></trkpt>
      <trkpt lat="25.0526897" lon="121.5434692"></trkpt>
      <trkpt lat="25.0527523" lon="121.5434683"></trkpt>
      <trkpt lat="25.0530400" lon="121.5434759"></trkpt>
      <trkpt lat="25.0533208" lon="121.5434801"></trkpt>
      <trkpt lat="25.0536149" lon="121.5434835"></trkpt>
      <trkpt lat="25.0538796" lon="121.5434884"></trkpt>
      <trkpt lat="25.0541658" lon="121.5434926"></trkpt>
      <trkpt lat="25.0545295" lon="121.5434981"></trkpt>
      <trkpt lat="25.0545792" lon="121.5434988"></trkpt>
      <trkpt lat="25.0545802" lon="121.5439478"></trkpt>
      <trkpt lat="25.0545763" lon="121.5439802"></trkpt>
      <trkpt lat="25.0546298" lon="121.5439872"></trkpt>
      <trkpt lat="25.0547598" lon="121.5439983"></trkpt>
      <trkpt lat="25.0553392" lon="121.5440083"></trkpt>
      <trkpt lat="25.0559743" lon="121.5440107"></trkpt>
      <trkpt lat="25.0560306" lon="121.5440010"></trkpt>
      <trkpt lat="25.0560308" lon="121.5439762"></trkpt>
      <trkpt lat="25.0560317" lon="121.5439372"></trkpt>
      <trkpt lat="25.0560696" lon="121.5422928"></trkpt>
      <trkpt lat="25.0560706" lon="121.5422505"></trkpt>
      <trkpt lat="25.0560715" lon="121.5421636"></trkpt>
      <trkpt lat="25.0561550" lon="121.5421610"></trkpt>
      <trkpt lat="25.0561905" lon="121.5421603"></trkpt>
      <trkpt lat="25.0564931" lon="121.5421544"></trkpt>
      <trkpt lat="25.0568450" lon="121.5421768"></trkpt>
      <trkpt lat="25.0568669" lon="121.5406425"></trkpt>
      <trkpt lat="25.0568676" lon="121.5405930"></trkpt>
      <trkpt lat="25.0568688" lon="121.5405451"></trkpt>
      <trkpt lat="25.0569030" lon="121.5391463"></trkpt>
      <trkpt lat="25.0569602" lon="121.5371891"></trkpt>
      <trkpt lat="25.0569632" lon="121.5370882"></trkpt>
      <trkpt lat="25.0569406" lon="121.5366900"></trkpt>
      <trkpt lat="25.0569413" lon="121.5366061"></trkpt>
      <trkpt lat="25.0564165" lon="121.5365623"></trkpt>
      <trkpt lat="25.0564179" lon="121.5363881"></trkpt>
      <trkpt lat="25.0564165" lon="121.5365623"></trkpt>
      <trkpt lat="25.0569413" lon="121.5366061"></trkpt>
      <trkpt lat="25.0569406" lon="121.5366900"></trkpt>
      <trkpt lat="25.0569632" lon="121.5370882"></trkpt>
      <trkpt lat="25.0576809" lon="121.5371139"></trkpt>
      <trkpt lat="25.0578339" lon="121.5371308"></trkpt>
      <trkpt lat="25.0579593" lon="121.5371765"></trkpt>
      <trkpt lat="25.0579667" lon="121.5369404"></trkpt>
      <trkpt lat="25.0579718" lon="121.5367182"></trkpt>
      <trkpt lat="25.0579791" lon="121.5365605"></trkpt>
      <trkpt lat="25.0579805" lon="121.5360265"></trkpt>
      <trkpt lat="25.0579838" lon="121.5349548"></trkpt>
      <trkpt lat="25.0579825" lon="121.5348263"></trkpt>
      <trkpt lat="25.0580676" lon="121.5348472"></trkpt>
      <trkpt lat="25.0583383" lon="121.5348477"></trkpt>
      <trkpt lat="25.0587638" lon="121.5348471"></trkpt>
      <trkpt lat="25.0588301" lon="121.5348059"></trkpt>
      <trkpt lat="25.0587658" lon="121.5347845"></trkpt>
      <trkpt lat="25.0583391" lon="121.5347972"></trkpt>
      <trkpt lat="25.0582265" lon="121.5347922"></trkpt>
      <trkpt lat="25.0580666" lon="121.5347968"></trkpt>
      <trkpt lat="25.0579825" lon="121.5348263"></trkpt>
      <trkpt lat="25.0580005" lon="121.5335016"></trkpt>
      <trkpt lat="25.0580014" lon="121.5334381"></trkpt>
      <trkpt lat="25.0580029" lon="121.5333244"></trkpt>
      <trkpt lat="25.0580062" lon="121.5332099"></trkpt>
      <trkpt lat="25.0579378" lon="121.5330675"></trkpt>
      <trkpt lat="25.0579398" lon="121.5329366"></trkpt>
      <trkpt lat="25.0579412" lon="121.5328478"></trkpt>
      <trkpt lat="25.0579421" lon="121.5327848"></trkpt>
      <trkpt lat="25.0579505" lon="121.5322405"></trkpt>
      <trkpt lat="25.0584658" lon="121.5322452"></trkpt>
      <trkpt lat="25.0589108" lon="121.5322495"></trkpt>
      <trkpt lat="25.0591812" lon="121.5322397"></trkpt>
      <trkpt lat="25.0591805" lon="121.5325417"></trkpt>
      <trkpt lat="25.0591700" lon="121.5329418"></trkpt>
      <trkpt lat="25.0591693" lon="121.5329697"></trkpt>
      <trkpt lat="25.0591659" lon="121.5330755"></trkpt>
      <trkpt lat="25.0584663" lon="121.5330783"></trkpt>
      <trkpt lat="25.0582001" lon="121.5330775"></trkpt>
      <trkpt lat="25.0581434" lon="121.5330774"></trkpt>
      <trkpt lat="25.0580907" lon="121.5330772"></trkpt>
      <trkpt lat="25.0579378" lon="121.5330675"></trkpt>
      <trkpt lat="25.0578098" lon="121.5330577"></trkpt>
      <trkpt lat="25.0574424" lon="121.5330521"></trkpt>
      <trkpt lat="25.0574420" lon="121.5329562"></trkpt>
      <trkpt lat="25.0574275" lon="121.5329560"></trkpt>
      <trkpt lat="25.0571052" lon="121.5329511"></trkpt>
      <trkpt lat="25.0570892" lon="121.5329509"></trkpt>
      <trkpt lat="25.0570732" lon="121.5329506"></trkpt>
      <trkpt lat="25.0567936" lon="121.5329445"></trkpt>
      <trkpt lat="25.0567803" lon="121.5329442"></trkpt>
      <trkpt lat="25.0567564" lon="121.5329439"></trkpt>
      <trkpt lat="25.0564377" lon="121.5329393"></trkpt>
      <trkpt lat="25.0564146" lon="121.5329390"></trkpt>
      <trkpt lat="25.0563960" lon="121.5329387"></trkpt>
      <trkpt lat="25.0560500" lon="121.5329339"></trkpt>
      <trkpt lat="25.0560245" lon="121.5329335"></trkpt>
      <trkpt lat="25.0560345" lon="121.5320559"></trkpt>
      <trkpt lat="25.0560366" lon="121.5316493"></trkpt>
      <trkpt lat="25.0560380" lon="121.5315507"></trkpt>
      <trkpt lat="25.0559640" lon="121.5315507"></trkpt>
      <trkpt lat="25.0556318" lon="121.5315507"></trkpt>
      <trkpt lat="25.0552683" lon="121.5315507"></trkpt>
      <trkpt lat="25.0549049" lon="121.5315643"></trkpt>
      <trkpt lat="25.0548207" lon="121.5315631"></trkpt>
      <trkpt lat="25.0543745" lon="121.5315453"></trkpt>
      <trkpt lat="25.0543729" lon="121.5318348"></trkpt>
      <trkpt lat="25.0540210" lon="121.5318294"></trkpt>
      <trkpt lat="25.0540249" lon="121.5315415"></trkpt>
      <trkpt lat="25.0536533" lon="121.5315333"></trkpt>
      <trkpt lat="25.0532893" lon="121.5315254"></trkpt>
      <trkpt lat="25.0529381" lon="121.5315216"></trkpt>
      <trkpt lat="25.0525750" lon="121.5315226"></trkpt>
      <trkpt lat="25.0522236" lon="121.5315067"></trkpt>
      <trkpt lat="25.0521250" lon="121.5315065"></trkpt>
      <trkpt lat="25.0519725" lon="121.5315061"></trkpt>
      <trkpt lat="25.0518695" lon="121.5315080"></trkpt>
      <trkpt lat="25.0514350" lon="121.5314978"></trkpt>
      <trkpt lat="25.0510186" lon="121.5314894"></trkpt>
      <trkpt lat="25.0505131" lon="121.5314792"></trkpt>
      <trkpt lat="25.0505061" lon="121.5319572"></trkpt>
      <trkpt lat="25.0505573" lon="121.5320657"></trkpt>
      <trkpt lat="25.0501983" lon="121.5320606"></trkpt>
      <trkpt lat="25.0498734" lon="121.5320559"></trkpt>
      <trkpt lat="25.0497887" lon="121.5320325"></trkpt>
      <trkpt lat="25.0497839" lon="121.5328112"></trkpt>
      <trkpt lat="25.0493835" lon="121.5328010"></trkpt>
      <trkpt lat="25.0489973" lon="121.5327904"></trkpt>
      <trkpt lat="25.0485824" lon="121.5327837"></trkpt>
      <trkpt lat="25.0485417" lon="121.5327557"></trkpt>
      <trkpt lat="25.0484647" lon="121.5327593"></trkpt>
      <trkpt lat="25.0483779" lon="121.5327596"></trkpt>
      <trkpt lat="25.0483381" lon="121.5327908"></trkpt>
      <trkpt lat="25.0479502" lon="121.5327760"></trkpt>
      <trkpt lat="25.0475706" lon="121.5327680"></trkpt>
      <trkpt lat="25.0471957" lon="121.5327642"></trkpt>
      <trkpt lat="25.0471627" lon="121.5327639"></trkpt>
      <trkpt lat="25.0471031" lon="121.5327610"></trkpt>
      <trkpt lat="25.0470497" lon="121.5327584"></trkpt>
      <trkpt lat="25.0470307" lon="121.5327579"></trkpt>
      <trkpt lat="25.0466176" lon="121.5327503"></trkpt>
      <trkpt lat="25.0461829" lon="121.5327432"></trkpt>
      <trkpt lat="25.0460750" lon="121.5328578"></trkpt>
      <trkpt lat="25.0459566" lon="121.5328512"></trkpt>
      <trkpt lat="25.0458681" lon="121.5327809"></trkpt>
      <trkpt lat="25.0456434" lon="121.5327774"></trkpt>
      <trkpt lat="25.0455758" lon="121.5327766"></trkpt>
      <trkpt lat="25.0454850" lon="121.5327758"></trkpt>
      <trkpt lat="25.0453616" lon="121.5327771"></trkpt>
      <trkpt lat="25.0452213" lon="121.5327775"></trkpt>
      <trkpt lat="25.0452225" lon="121.5327321"></trkpt>
      <trkpt lat="25.0452234" lon="121.5326894"></trkpt>
      <trkpt lat="25.0450819" lon="121.5326865"></trkpt>
      <trkpt lat="25.0448917" lon="121.5326835"></trkpt>
      <trkpt lat="25.0446943" lon="121.5326803"></trkpt>
      <trkpt lat="25.0445034" lon="121.5326775"></trkpt>
      <trkpt lat="25.0444290" lon="121.5326694"></trkpt>
      <trkpt lat="25.0444035" lon="121.5326411"></trkpt>
      <trkpt lat="25.0443188" lon="121.5326481"></trkpt>
      <trkpt lat="25.0441595" lon="121.5320484"></trkpt>
      <trkpt lat="25.0441250" lon="121.5319045"></trkpt>
      <trkpt lat="25.0441019" lon="121.5318149"></trkpt>
      <trkpt lat="25.0440316" lon="121.5318376"></trkpt>
      <trkpt lat="25.0436164" lon="121.5319543"></trkpt>
      <trkpt lat="25.0436624" lon="121.5322427"></trkpt>
      <trkpt lat="25.0435019" lon="121.5322731"></trkpt>
      <trkpt lat="25.0431762" lon="121.5322651"></trkpt>
      <trkpt lat="25.0431531" lon="121.5324720"></trkpt>
      <trkpt lat="25.0431420" lon="121.5325718"></trkpt>
      <trkpt lat="25.0431322" lon="121.5326594"></trkpt>
      <trkpt lat="25.0425896" lon="121.5326438"></trkpt>
      <trkpt lat="25.0425600" lon="121.5326106"></trkpt>
      <trkpt lat="25.0424633" lon="121.5325838"></trkpt>
      <trkpt lat="25.0423222" lon="121.5325479"></trkpt>
      <trkpt lat="25.0422502" lon="121.5325294"></trkpt>
      <trkpt lat="25.0422379" lon="121.5325831"></trkpt>
      <trkpt lat="25.0421613" lon="121.5326456"></trkpt>
      <trkpt lat="25.0420986" lon="121.5326467"></trkpt>
      <trkpt lat="25.0415445" lon="121.5326364"></trkpt>
      <trkpt lat="25.0412960" lon="121.5326321"></trkpt>
      <trkpt lat="25.0409982" lon="121.5326256"></trkpt>
      <trkpt lat="25.0408360" lon="121.5326287"></trkpt>
      <trkpt lat="25.0406265" lon="121.5326292"></trkpt>
      <trkpt lat="25.0402849" lon="121.5326222"></trkpt>
      <trkpt lat="25.0402722" lon="121.5326065"></trkpt>
      <trkpt lat="25.0401919" lon="121.5326030"></trkpt>
      <trkpt lat="25.0401300" lon="121.5325999"></trkpt>
      <trkpt lat="25.0400837" lon="121.5326160"></trkpt>
      <trkpt lat="25.0390031" lon="121.5325836"></trkpt>
      <trkpt lat="25.0383915" lon="121.5325859"></trkpt>
      <trkpt lat="25.0383544" lon="121.5325497"></trkpt>
      <trkpt lat="25.0382825" lon="121.5325481"></trkpt>
      <trkpt lat="25.0382172" lon="121.5325467"></trkpt>
      <trkpt lat="25.0381820" lon="121.5325459"></trkpt>
      <trkpt lat="25.0381235" lon="121.5325446"></trkpt>
      <trkpt lat="25.0381056" lon="121.5325444"></trkpt>
      <trkpt lat="25.0380587" lon="121.5325432"></trkpt>
      <trkpt lat="25.0380639" lon="121.5323139"></trkpt>
      <trkpt lat="25.0380186" lon="121.5323048"></trkpt>
      <trkpt lat="25.0375766" lon="121.5322150"></trkpt>
      <trkpt lat="25.0375907" lon="121.5320320"></trkpt>
      <trkpt lat="25.0376168" lon="121.5317629"></trkpt>
      <trkpt lat="25.0376472" lon="121.5312908"></trkpt>
      <trkpt lat="25.0376640" lon="121.5312319"></trkpt>
      <trkpt lat="25.0374984" lon="121.5312220"></trkpt>
      <trkpt lat="25.0372383" lon="121.5316465"></trkpt>
      <trkpt lat="25.0370148" lon="121.5314319"></trkpt>
      <trkpt lat="25.0373334" lon="121.5309196"></trkpt>
      <trkpt lat="25.0370665" lon="121.5306942"></trkpt>
      <trkpt lat="25.0367730" lon="121.5304475"></trkpt>
      <trkpt lat="25.0371448" lon="121.5298105"></trkpt>
      <trkpt lat="25.0372748" lon="121.5295463"></trkpt>
      <trkpt lat="25.0373754" lon="121.5290905"></trkpt>
      <trkpt lat="25.0371845" lon="121.5290041"></trkpt>
      <trkpt lat="25.0373771" lon="121.5281956"></trkpt>
      <trkpt lat="25.0373967" lon="121.5281133"></trkpt>
      <trkpt lat="25.0376051" lon="121.5281760"></trkpt>
      <trkpt lat="25.0378136" lon="121.5282387"></trkpt>
      <trkpt lat="25.0380575" lon="121.5283088"></trkpt>
      <trkpt lat="25.0381416" lon="121.5283333"></trkpt>
      <trkpt lat="25.0382105" lon="121.5283589"></trkpt>
      <trkpt lat="25.0382493" lon="121.5283734"></trkpt>
      <trkpt lat="25.0382907" lon="121.5283891"></trkpt>
      <trkpt lat="25.0383525" lon="121.5284125"></trkpt>
      <trkpt lat="25.0384486" lon="121.5284483"></trkpt>
      <trkpt lat="25.0384522" lon="121.5283115"></trkpt>
      <trkpt lat="25.0384523" lon="121.5282377"></trkpt>
      <trkpt lat="25.0386412" lon="121.5283046"></trkpt>
      <trkpt lat="25.0386566" lon="121.5283101"></trkpt>
      <trkpt lat="25.0386808" lon="121.5283187"></trkpt>
      <trkpt lat="25.0390573" lon="121.5284430"></trkpt>
      <trkpt lat="25.0390899" lon="121.5284559"></trkpt>
      <trkpt lat="25.0392403" lon="121.5277995"></trkpt>
      <trkpt lat="25.0396873" lon="121.5279283"></trkpt>
      <trkpt lat="25.0392403" lon="121.5277995"></trkpt>
      <trkpt lat="25.0395280" lon="121.5266213"></trkpt>
      <trkpt lat="25.0397456" lon="121.5257487"></trkpt>
      <trkpt lat="25.0397013" lon="121.5257309"></trkpt>
      <trkpt lat="25.0392815" lon="121.5255625"></trkpt>
      <trkpt lat="25.0392706" lon="121.5255596"></trkpt>
      <trkpt lat="25.0392584" lon="121.5255557"></trkpt>
      <trkpt lat="25.0390801" lon="121.5255025"></trkpt>
      <trkpt lat="25.0390277" lon="121.5254869"></trkpt>
      <trkpt lat="25.0390014" lon="121.5254791"></trkpt>
      <trkpt lat="25.0389806" lon="121.5254738"></trkpt>
      <trkpt lat="25.0388488" lon="121.5254399"></trkpt>
      <trkpt lat="25.0388360" lon="121.5254366"></trkpt>
      <trkpt lat="25.0387998" lon="121.5254272"></trkpt>
      <trkpt lat="25.0384675" lon="121.5253406"></trkpt>
      <trkpt lat="25.0384674" lon="121.5253587"></trkpt>
      <trkpt lat="25.0384106" lon="121.5253425"></trkpt>
      <trkpt lat="25.0383670" lon="121.5253317"></trkpt>
      <trkpt lat="25.0383290" lon="121.5253221"></trkpt>
      <trkpt lat="25.0382986" lon="121.5253145"></trkpt>
      <trkpt lat="25.0382562" lon="121.5253027"></trkpt>
      <trkpt lat="25.0382008" lon="121.5252874"></trkpt>
      <trkpt lat="25.0381590" lon="121.5252766"></trkpt>
      <trkpt lat="25.0381436" lon="121.5257011"></trkpt>
      <trkpt lat="25.0377609" lon="121.5255946"></trkpt>
      <trkpt lat="25.0374211" lon="121.5254950"></trkpt>
      <trkpt lat="25.0375383" lon="121.5249783"></trkpt>
      <trkpt lat="25.0378846" lon="121.5250789"></trkpt>
      <trkpt lat="25.0381250" lon="121.5251512"></trkpt>
      <trkpt lat="25.0381322" lon="121.5250401"></trkpt>
      <trkpt lat="25.0382456" lon="121.5242372"></trkpt>
      <trkpt lat="25.0383460" lon="121.5234678"></trkpt>
      <trkpt lat="25.0383440" lon="121.5233673"></trkpt>
      <trkpt lat="25.0378773" lon="121.5232240"></trkpt>
      <trkpt lat="25.0378038" lon="121.5232008"></trkpt>
      <trkpt lat="25.0375546" lon="121.5231234"></trkpt>
      <trkpt lat="25.0373056" lon="121.5230515"></trkpt>
      <trkpt lat="25.0373233" lon="121.5229837"></trkpt>
      <trkpt lat="25.0369683" lon="121.5228874"></trkpt>
      <trkpt lat="25.0364364" lon="121.5227231"></trkpt>
      <trkpt lat="25.0371516" lon="121.5212547"></trkpt>
      <trkpt lat="25.0371726" lon="121.5212343"></trkpt>
      <trkpt lat="25.0371904" lon="121.5211974"></trkpt>
      <trkpt lat="25.0372486" lon="121.5210805"></trkpt>
      <trkpt lat="25.0372708" lon="121.5210305"></trkpt>
      <trkpt lat="25.0372768" lon="121.5210204"></trkpt>
      <trkpt lat="25.0372298" lon="121.5209907"></trkpt>
      <trkpt lat="25.0371946" lon="121.5209684"></trkpt>
      <trkpt lat="25.0371529" lon="121.5209421"></trkpt>
      <trkpt lat="25.0371188" lon="121.5209206"></trkpt>
      <trkpt lat="25.0370908" lon="121.5209030"></trkpt>
      <trkpt lat="25.0370320" lon="121.5208659"></trkpt>
      <trkpt lat="25.0369412" lon="121.5208086"></trkpt>
      <trkpt lat="25.0369668" lon="121.5207555"></trkpt>
      <trkpt lat="25.0370944" lon="121.5204910"></trkpt>
      <trkpt lat="25.0371170" lon="121.5204442"></trkpt>
      <trkpt lat="25.0372258" lon="121.5202185"></trkpt>
      <trkpt lat="25.0372469" lon="121.5201747"></trkpt>
      <trkpt lat="25.0372802" lon="121.5201102"></trkpt>
      <trkpt lat="25.0373148" lon="121.5200351"></trkpt>
      <trkpt lat="25.0373422" lon="121.5199781"></trkpt>
      <trkpt lat="25.0375508" lon="121.5195446"></trkpt>
      <trkpt lat="25.0377635" lon="121.5191192"></trkpt>
      <trkpt lat="25.0377939" lon="121.5190585"></trkpt>
      <trkpt lat="25.0378365" lon="121.5189915"></trkpt>
      <trkpt lat="25.0378756" lon="121.5189326"></trkpt>
      <trkpt lat="25.0378985" lon="121.5188966"></trkpt>
      <trkpt lat="25.0378359" lon="121.5188557"></trkpt>
      <trkpt lat="25.0379541" lon="121.5186208"></trkpt>
      <trkpt lat="25.0380722" lon="121.5183833"></trkpt>
      <trkpt lat="25.0381873" lon="121.5182078"></trkpt>
      <trkpt lat="25.0382415" lon="121.5181471"></trkpt>
      <trkpt lat="25.0383227" lon="121.5180859"></trkpt>
      <trkpt lat="25.0383526" lon="121.5180233"></trkpt>
      <trkpt lat="25.0384293" lon="121.5178628"></trkpt>
      <trkpt lat="25.0384232" lon="121.5177742"></trkpt>
      <trkpt lat="25.0383791" lon="121.5177185"></trkpt>
      <trkpt lat="25.0383338" lon="121.5176903"></trkpt>
      <trkpt lat="25.0379928" lon="121.5175732"></trkpt>
      <trkpt lat="25.0380037" lon="121.5175068"></trkpt>
      <trkpt lat="25.0380486" lon="121.5175206"></trkpt>
      <trkpt lat="25.0380780" lon="121.5173886"></trkpt>
      <trkpt lat="25.0381045" lon="121.5172692"></trkpt>
      <trkpt lat="25.0381225" lon="121.5171918"></trkpt>
      <trkpt lat="25.0382213" lon="121.5167670"></trkpt>
      <trkpt lat="25.0382726" lon="121.5165465"></trkpt>
      <trkpt lat="25.0384921" lon="121.5156030"></trkpt>
      <trkpt lat="25.0385232" lon="121.5154693"></trkpt>
      <trkpt lat="25.0385316" lon="121.5154331"></trkpt>
      <trkpt lat="25.0385562" lon="121.5152939"></trkpt>
      <trkpt lat="25.0384676" lon="121.5152651"></trkpt>
      <trkpt lat="25.0384409" lon="121.5152554"></trkpt>
      <trkpt lat="25.0383646" lon="121.5152276"></trkpt>
      <trkpt lat="25.0381120" lon="121.5151352"></trkpt>
      <trkpt lat="25.0380212" lon="121.5151151"></trkpt>
      <trkpt lat="25.0379394" lon="121.5151043"></trkpt>
      <trkpt lat="25.0377699" lon="121.5150980"></trkpt>
      <trkpt lat="25.0377134" lon="121.5150952"></trkpt>
      <trkpt lat="25.0374636" lon="121.5150829"></trkpt>
      <trkpt lat="25.0372755" lon="121.5150764"></trkpt>
      <trkpt lat="25.0372700" lon="121.5149654"></trkpt>
      <trkpt lat="25.0372668" lon="121.5149415"></trkpt>
      <trkpt lat="25.0372648" lon="121.5149107"></trkpt>
      <trkpt lat="25.0372668" lon="121.5149415"></trkpt>
      <trkpt lat="25.0372700" lon="121.5149654"></trkpt>
      <trkpt lat="25.0372755" lon="121.5150764"></trkpt>
      <trkpt lat="25.0374636" lon="121.5150829"></trkpt>
      <trkpt lat="25.0377134" lon="121.5150952"></trkpt>
      <trkpt lat="25.0377699" lon="121.5150980"></trkpt>
      <trkpt lat="25.0379394" lon="121.5151043"></trkpt>
      <trkpt lat="25.0380212" lon="121.5151151"></trkpt>
      <trkpt lat="25.0381120" lon="121.5151352"></trkpt>
      <trkpt lat="25.0383646" lon="121.5152276"></trkpt>
      <trkpt lat="25.0384409" lon="121.5152554"></trkpt>
      <trkpt lat="25.0384676" lon="121.5152651"></trkpt>
      <trkpt lat="25.0385562" lon="121.5152939"></trkpt>
      <trkpt lat="25.0385793" lon="121.5151848"></trkpt>
      <trkpt lat="25.0385831" lon="121.5151518"></trkpt>
      <trkpt lat="25.0385900" lon="121.5150914"></trkpt>
      <trkpt lat="25.0386356" lon="121.5146217"></trkpt>
      <trkpt lat="25.0386475" lon="121.5145169"></trkpt>
      <trkpt lat="25.0386517" lon="121.5144672"></trkpt>
      <trkpt lat="25.0387043" lon="121.5138292"></trkpt>
      <trkpt lat="25.0387113" lon="121.5137422"></trkpt>
      <trkpt lat="25.0387725" lon="121.5129759"></trkpt>
      <trkpt lat="25.0387777" lon="121.5129231"></trkpt>
      <trkpt lat="25.0387859" lon="121.5128354"></trkpt>
      <trkpt lat="25.0388005" lon="121.5126540"></trkpt>
      <trkpt lat="25.0388284" lon="121.5123374"></trkpt>
      <trkpt lat="25.0388762" lon="121.5117804"></trkpt>
      <trkpt lat="25.0389252" lon="121.5112075"></trkpt>
      <trkpt lat="25.0389287" lon="121.5111713"></trkpt>
      <trkpt lat="25.0388371" lon="121.5111615"></trkpt>
      <trkpt lat="25.0376459" lon="121.5110335"></trkpt>
      <trkpt lat="25.0376566" lon="121.5109394"></trkpt>
      <trkpt lat="25.0388094" lon="121.5110689"></trkpt>
      <trkpt lat="25.0388371" lon="121.5110556"></trkpt>
      <trkpt lat="25.0388606" lon="121.5110443"></trkpt>
      <trkpt lat="25.0389611" lon="121.5101752"></trkpt>
      <trkpt lat="25.0390031" lon="121.5101812"></trkpt>
      <trkpt lat="25.0389998" lon="121.5102250"></trkpt>
      <trkpt lat="25.0396144" lon="121.5102793"></trkpt>
      <trkpt lat="25.0401131" lon="121.5103540"></trkpt>
      <trkpt lat="25.0401860" lon="121.5103631"></trkpt>
      <trkpt lat="25.0402425" lon="121.5103687"></trkpt>
      <trkpt lat="25.0402673" lon="121.5103708"></trkpt>
      <trkpt lat="25.0412657" lon="121.5104760"></trkpt>
      <trkpt lat="25.0413244" lon="121.5104854"></trkpt>
      <trkpt lat="25.0413953" lon="121.5105108"></trkpt>
      <trkpt lat="25.0413077" lon="121.5113665"></trkpt>
      <trkpt lat="25.0417359" lon="121.5114264"></trkpt>
      <trkpt lat="25.0421873" lon="121.5114381"></trkpt>
      <trkpt lat="25.0422507" lon="121.5114434"></trkpt>
      <trkpt lat="25.0423067" lon="121.5114447"></trkpt>
      <trkpt lat="25.0423233" lon="121.5114451"></trkpt>
      <trkpt lat="25.0430765" lon="121.5114631"></trkpt>
      <trkpt lat="25.0441243" lon="121.5114874"></trkpt>
      <trkpt lat="25.0450613" lon="121.5113465"></trkpt>
      <trkpt lat="25.0451670" lon="121.5113306"></trkpt>
      <trkpt lat="25.0452109" lon="121.5113257"></trkpt>
      <trkpt lat="25.0455851" lon="121.5112835"></trkpt>
      <trkpt lat="25.0459931" lon="121.5112401"></trkpt>
      <trkpt lat="25.0459807" lon="121.5109403"></trkpt>
      <trkpt lat="25.0459738" lon="121.5107996"></trkpt>
      <trkpt lat="25.0459698" lon="121.5107179"></trkpt>
      <trkpt lat="25.0459664" lon="121.5106392"></trkpt>
      <trkpt lat="25.0459557" lon="121.5103875"></trkpt>
      <trkpt lat="25.0459547" lon="121.5103251"></trkpt>
      <trkpt lat="25.0459509" lon="121.5102847"></trkpt>
      <trkpt lat="25.0459442" lon="121.5100530"></trkpt>
      <trkpt lat="25.0459314" lon="121.5097214"></trkpt>
      <trkpt lat="25.0460047" lon="121.5097437"></trkpt>
      <trkpt lat="25.0460545" lon="121.5097588"></trkpt>
      <trkpt lat="25.0462618" lon="121.5098181"></trkpt>
      <trkpt lat="25.0462704" lon="121.5097847"></trkpt>
      <trkpt lat="25.0462749" lon="121.5097688"></trkpt>
      <trkpt lat="25.0462799" lon="121.5097514"></trkpt>
      <trkpt lat="25.0464924" lon="121.5098162"></trkpt>
      <trkpt lat="25.0465538" lon="121.5098389"></trkpt>
      <trkpt lat="25.0468834" lon="121.5100015"></trkpt>
      <trkpt lat="25.0469032" lon="121.5098563"></trkpt>
      <trkpt lat="25.0469757" lon="121.5098844"></trkpt>
      <trkpt lat="25.0470238" lon="121.5099029"></trkpt>
      <trkpt lat="25.0470850" lon="121.5099197"></trkpt>
      <trkpt lat="25.0474050" lon="121.5099464"></trkpt>
      <trkpt lat="25.0478370" lon="121.5100552"></trkpt>
      <trkpt lat="25.0480761" lon="121.5099848"></trkpt>
      <trkpt lat="25.0482293" lon="121.5100062"></trkpt>
      <trkpt lat="25.0483958" lon="121.5100584"></trkpt>
      <trkpt lat="25.0484956" lon="121.5100855"></trkpt>
      <trkpt lat="25.0488721" lon="121.5101837"></trkpt>
      <trkpt lat="25.0491982" lon="121.5102682"></trkpt>
      <trkpt lat="25.0494087" lon="121.5103236"></trkpt>
      <trkpt lat="25.0499592" lon="121.5104695"></trkpt>
      <trkpt lat="25.0500666" lon="121.5104996"></trkpt>
      <trkpt lat="25.0501346" lon="121.5105157"></trkpt>
      <trkpt lat="25.0502841" lon="121.5105380"></trkpt>
      <trkpt lat="25.0503608" lon="121.5105518"></trkpt>
      <trkpt lat="25.0506377" lon="121.5105394"></trkpt>
      <trkpt lat="25.0509209" lon="121.5105366"></trkpt>
      <trkpt lat="25.0513801" lon="121.5105169"></trkpt>
      <trkpt lat="25.0514729" lon="121.5105111"></trkpt>
      <trkpt lat="25.0519055" lon="121.5104935"></trkpt>
      <trkpt lat="25.0520359" lon="121.5104744"></trkpt>
      <trkpt lat="25.0520901" lon="121.5104652"></trkpt>
      <trkpt lat="25.0524808" lon="121.5104172"></trkpt>
      <trkpt lat="25.0525290" lon="121.5104131"></trkpt>
      <trkpt lat="25.0525596" lon="121.5104101"></trkpt>
      <trkpt lat="25.0528669" lon="121.5103782"></trkpt>
      <trkpt lat="25.0531681" lon="121.5103416"></trkpt>
      <trkpt lat="25.0532547" lon="121.5103300"></trkpt>
      <trkpt lat="25.0533493" lon="121.5103168"></trkpt>
      <trkpt lat="25.0536532" lon="121.5102755"></trkpt>
      <trkpt lat="25.0537044" lon="121.5102663"></trkpt>
      <trkpt lat="25.0537659" lon="121.5102574"></trkpt>
      <trkpt lat="25.0538464" lon="121.5101936"></trkpt>
      <trkpt lat="25.0539472" lon="121.5101725"></trkpt>
      <trkpt lat="25.0541634" lon="121.5101490"></trkpt>
      <trkpt lat="25.0543894" lon="121.5101329"></trkpt>
      <trkpt lat="25.0545818" lon="121.5101047"></trkpt>
      <trkpt lat="25.0550338" lon="121.5100768"></trkpt>
      <trkpt lat="25.0554707" lon="121.5100283"></trkpt>
      <trkpt lat="25.0555168" lon="121.5106359"></trkpt>
      <trkpt lat="25.0568457" lon="121.5105246"></trkpt>
      <trkpt lat="25.0569224" lon="121.5105182"></trkpt>
      <trkpt lat="25.0569253" lon="121.5106322"></trkpt>
      <trkpt lat="25.0569881" lon="121.5106272"></trkpt>
      <trkpt lat="25.0574605" lon="121.5106009"></trkpt>
      <trkpt lat="25.0576622" lon="121.5106165"></trkpt>
      <trkpt lat="25.0581591" lon="121.5105714"></trkpt>
      <trkpt lat="25.0582553" lon="121.5105463"></trkpt>
    </trkseg>
  </trk>
</gpx>
